company_flag|state|county|city|entity_name|address1|phone|license_number|licensee_type_cd|licensee_type_cd|qualifying_individual
1|AR|Garland|Royal|Windows USA, LLC|235 Sunshine Rd|501-767-4843|KS14-2925|Lead Renovation Firm|Eric Oliver
1|CA|ORANGE|IRVINE|COLLEGE WORKS PAINTING|1682 LANGLEY AVENUE|888-450-9675|KS11-2429|Lead Renovation Firm|SEAN PHELPS
1|CA|ORANGE|ORANGE|AMERICAN TECHNOLOGIES, INC.|210 BAYWOOD AVENUE|714-283-9990|KS11-2489|Lead Renovation Firm|GARY MOORE
1|CA|Sacramento|Gold River|Judson Enterprises Inc. dba K Designers|2440 Gold River Rd. Ste. 100|800-515-2788|KS10-1279|Lead Renovation Firm|Larry D. Judson
1|CO|Adams|Denver|Precision Siding & Construction Co.|7000 Broadway, 3-300|303-289-7952|KS10-1627|Lead Renovation Firm|Jeff Woodward|Kendall Woodward
1|CO|BOULDER|BOULDER|WEECYCLE ENVIRONMENTAL CONSULTING, INC.|5375 WESTERN AVE SUITE B|303-413-0452|KS11-2457|Lead Activity Firm|JUDITH SAWITSKY|LAUREN YORK
1|CO|Morgan|Ft. Morgan|ACR Construction|14521 CR 21|970-370-3122|KS10-1836|Lead Renovation Firm|Fred J. Romero
1|CO|na|Lamar|Tripple A Gutters & Construction|1706 S. 11th St #3|719-688-3666|KS14-2959|Lead Renovation Firm|Shane Poteet
1|FL|N/A|Fort Lauderdale|Seagull Environmental Management|900 NW 5th Ave|800-966-9933|KS14-2824|Lead Activity Firm|James Stump
1|FL|Volusia|Daytona Beach|Builder Services Group Inc.|260 Jimmy Ann Drive|386-304-2260|KS10-1516|Lead Renovation Firm|Patti Shaffer - Risk Operations|Joseph Bolduc - Director
1|GA|COBB|ATLANTA|HOME DEPOT USA, INC.|2455 PACES FERRY RD  C-11 COMPLIANCE|770-433-8211|KS11-2511|Lead Renovation Firm|VANN RILEY
1|GA|COBB|ATLANTA|THD AT-HOME SERVICE INC DBA THE HOME DEPOT AT-HOME SERVICES|2690 CUMBERLAND PKWY SUITE 300|770-779-1453|KS10-1239|Lead Renovation Firm|CHARLES HICKEY|PEGGY PAYNE|ERICA OGAARD
1|GA|COBB|SMYRNA|ROMANOFF FLOOR COVERING INC|3100 JONQUIL DR. SE|770-980-1234|KS12-2594|Lead Renovation Firm|MARK SIMPSON|AARON RIBNER|PAULA GEEKIE
1|GA|NA|Norcross|National Installation Solutions, Inc|4291 Communications Dr|678-325-4430|KS12-2671|Lead Renovation Firm|Hillary Evans
1|IA|BLACK HAWK|WATERLOO|ADVANCED ENVIRONMENTAL TESTING AND ABATEMENT, INC.|803 RICKER STREET|319-287-4447|KS12-2625|Lead Renovation Firm|MICHAEL MASSEY
1|IA||Waterloo|Advanced Environmental Testing and Abatement Inc.|803 Ricker Street|319-287-4447|KS12-2701|Lead Activity Firm|Michael Poe
1|IL|COOK|ARLINGTON HEIGHTS|G.S. FLOOR DESIGNS, INC|855 W UNIVERSITY DRIVE|847-394-4000|KS11-2526|Lead Renovation Firm|REGINA PINKSTON
1|IL|Rock Island|Rock Island|Ostrom Painting & Sandblasting, Inc.|1110 8th Avenue|309-788-1933|KS10-1847|Lead Renovation Firm|David Ostrom
1|KS|ALLEN|IOLA|GROW LLC|1018 MEADOWBROOK ROAD|620-365-6900|KS10-2180|Lead Renovation Firm|MONTY ROGERS|RYAN SPARKS
1|KS|ATCHISON|ATCHISON|MICHAEL S. HUNDLEY CONSTRUCTION INC.|1900 MAIN STREET|913-367-7059|KS13-10461|Lead Renovation Firm|MICHAEL S. HUNDLEY|SHANE M. HUNDLEY
1|KS|Allen|Gas|Burton's Property Management|118 N Taylor / PO Box 183|620-363-2007|KS10-2028|Lead Renovation Firm|Rick Burton
1|KS|Allen|Humboldt|Fewins Real Properties, LLC|1836 Alabama Rd.|620-431-3477|KS10-1883|Lead Renovation Firm|David Fewins
1|KS|Allen|Humboldt|Hofer & Hofer & Associates, Inc.|1201 N 10th Street|620-473-3919|KS11-2353|Lead Renovation Firm|Justin Wintjen
1|KS|Allen|Humboldt|Sparkles Cleaning and Painting|1001 Central|620-228-2048|KS10-1827|Lead Renovation Firm|Brenda Clark
1|KS|Allen|Iola|AK Construction LLC|1303 2200th St.|620-228-3260|KS10-1870|Lead Renovation Firm|Kirsten M. Weide
1|KS|Allen|Iola|Boren's Roofing|306 N State|620-365-7663|KS11-2279|Lead Renovation Firm|Ron Boren|Katy Boren
1|KS|Allen|LaHarpe|C & C Carpentry|1410 2600 St|620-496-6395|KS11-2354|Lead Renovation Firm|Nicholas R Chapman
1|KS|Allen|LaHarpe|Diebolt Lumber & Supply|2661 Nebraska Rd|620-496-2222|KS11-2271|Lead Renovation Firm|Don Diebolt
1|KS|An|Garnett|Crane Lift and Handyman Service|446 N Cedar|785-448-8203|KS11-2411|Lead Renovation Firm|Michael Crane
1|KS|Anderson|Garnett|ADM Construction|10467 NW 2300 Rd|785-233-2210|KS14-2922|Lead Renovation Firm|Allen P. Miller
1|KS|Anderson|Garnett|Keim & Sons Construction|29947 NW Kentucky Rd|785-448-3562|KS11-2272|Lead Renovation Firm|LaVern Keim
1|KS|Anderson|Garnett|Yutzy Construction LLC|26709 NW Louisianna Rd|785-248-1397|KS11-2261|Lead Renovation Firm|Daniel Yutzy
1|KS|Anderson|Richmond|KP Exteriors, LLC|33992 NW Jewel Rd|785-204-2705|KS14-2882|Lead Renovation Firm|Kenneth Pruitt
1|KS|Atchison|Atchison|Dave Lackey Painting|402 N. 14th|913-367-2862|KS10-1312|Lead Renovation Firm|David R. Lackey
1|KS|Atchison|Atchison|Deware Enterprises LLC|221 North 3rd St # 26|913-367-3750|KS14-2909|Lead Renovation Firm|David Deware
1|KS|Atchison|Atchison|Kearney Construction Inc|6199 Osage Rd.|913-367-1200|KS10-1844|Lead Renovation Firm|Gary Kearny Jr
1|KS|Atchison|Atchison|L & L Construction|16083-262nd Road|913-367-3161|KS10-1535|Lead Renovation Firm|Tesea Kearney
1|KS|Atchison|Cummings|Cummins & Sons, LLC|2438 Osborne Rd|913-370-0678|KS11-2428|Lead Renovation Firm|Daniel T Cummins II
1|KS|Atchison|Everest|Kimmi Construction|11029 Finney Rd|785-741-3170|KS10-1948|Lead Renovation Firm|Jason Kimmi
1|KS|BARTON|ELLINWOOD|TRINITY RESTORATION MOKAN INC|1107 NE 50 ROAD|620-564-3131|KS10-1813|Lead Renovation Firm|LAURA CLAYTON
1|KS|BARTON|GREAT BEND|MOSES PROPERTIES LLC|2015 FOREST AVE STE 205|620-792-8000|KS10-2136|Lead Renovation Firm|EARL MOSES
1|KS|BARTON|Great Bend|C & V HOME IMPROVEMENT, INC .|1107 10th St.|620-796-2500|KS10-1284|Lead Renovation Firm|MATT HOISINGTON|CLAUDIA WESNER
1|KS|BOURBON|FORT SCOTT|GREAT EXPECTATIONS RESTORATION, LLC|1201 S. NATIONAL AVE.|620-223-3090|KS12-2609|Lead Renovation Firm|MATTHEW WELLS
1|KS|BOURBON|FORT SCOTT|JERRY NAFZGER|1910 235TH|620-719-0385|KS10-2111|Lead Renovation Firm|JERRY NAFZGER
1|KS|BR|Hiawatha|Northeast Kansas Community Action Program, Inc.|1260 220th St., PO Box 380|785-742-2222 ext 251|KS10-1373|Lead Renovation Firm|Jack Shaefer
1|KS|BT|Ellinwood|Exterior Designs Inc.|102 S. Main St.|620-564-3716|KS10-1384|Lead Renovation Firm|Joe Curtiss|Glen Hertel
1|KS|BT|Ellinwood|Joiner Construction Inc.|PO Box 238|620-564-2818|KS10-1383|Lead Renovation Firm|Justin Joiner
1|KS|BT|GREAT BEND|THE SOUTHARD CORPORATION|1222 10TH|620-793-5434|KS10-1212|Lead Renovation Firm|JEFF FRY|MIKE SOUTHARD
1|KS|BT|Great Bend|L&N Contracting|622 W. Hwy 56|620-617-6696|KS10-1416|Lead Renovation Firm|Lonnie Philbern
1|KS|BT|HOISINGTON|CHRISTIANS SPECIALTIES INC.|532 NW 160 RD.|620-653-7684|KS10-1197|Lead Renovation Firm|RAYMOND CHRISTIANS
1|KS|BU|AUGUSTA|AEG Handyman Services|33 HUNTINGTON RD.|316-866-2728|KS10-1190|Lead Renovation Firm|LAWRENCE L. KEYSER
1|KS|BU|Augusta|CM Customworks, Inc.|9783 SW Santa Fe Lake Rd.|316-775-0643|KS10-1376|Lead Renovation Firm|Max Reimschesel|Cory Metzger
1|KS|BUTLER|AUGUSTA|PAGE CORPORATION|6333 SW SANTA FE LAKE RD|316-262-7200|KS10-1757|Lead Renovation Firm|MIKE PAGE|KYLE HOWARD|COLT PAGE
1|KS|Barber|Medicine Lodge|Prothe Enterprises|7741 SE IS HWY 281|620-886-5240|KS11-2557|Lead Renovation Firm|Craig M Prothe
1|KS|Barber|Medicine Lodge|Ruton Construction Inc.|207 W Stolp|620-886-3581|KS10-1546|Lead Renovation Firm|Mike Ruton
1|KS|Barton|Claflin|CenKan Lead Testing, LLC|1371 NE 190 Rd|620-282-3634|KS11-2346|Lead Activity Firm|kachina
1|KS|Barton|Ellinwood|Bryant Construction|111 E. 3rd St.|620-564-3412|KS10-1734|Lead Renovation Firm|Lyle W. Bryant
1|KS|Barton|Great Bend|"ART" Herren Home Repair|4206 Railroad Ave|620-793-8778|KS10-1637|Lead Renovation Firm|Arthur E. Herren
1|KS|Barton|Great Bend|Allen's Home Improvement|439 Kiowa Rd.|620-791-8345|KS10-1572|Lead Renovation Firm|Barry Allen
1|KS|Barton|Great Bend|CPS Home & Garden  DBA Jack the Handyman|5501 9th Street Lot 99|620-282-2819|KS15-3034|Lead Renovation Firm|Raza Manase
1|KS|Barton|Great Bend|Cusstem Painting & Contracting|622 West Hwy 56|620-791-7615|KS10-1520|Lead Renovation Firm|Luie Philbera
1|KS|Barton|Great Bend|Feist Construction|PO Box 314|620-792-2789|KS14-2942|Lead Renovation Firm|Dan Fiest|David Feist
1|KS|Barton|Great Bend|Parr Construction LLC|2101 US Highway 281 Bypass, PO Box 1778|620-792-7020|KS10-1848|Lead Renovation Firm|Doug Clark
1|KS|Barton|Great Bend|Rube's Inc.|5251 9th ST|620-793-6769|KS10-2141|Lead Renovation Firm|Brian L Pedigo
1|KS|Barton|Great Bend|Stueder Contractors, Inc.|3410 10th Street|620-792-6044|KS11-2474|Lead Renovation Firm|Terry Stueder
1|KS|Barton|Great Bend|TNT Renovations, Inc.|1400 18th St.|620-793-3450|KS10-1711|Lead Renovation Firm|Todd A. Smith|Theresa M. Smith
1|KS|Barton|Hoisington|TSI Laboratories|820 N Pine Street|620-603-0345|KS15-3022|Lead Renovation Firm|TSI Laboratories|Tigie Stephens
1|KS|Brown|Everest|D & M  Construction|1191 Prairie Rd|785-548-7582|KS10-1952|Lead Renovation Firm|Donald Nigh
1|KS|Brown|Fairview|Van's Electric|211 E. 1st St.|785-467-8380|KS10-1721|Lead Renovation Firm|Elvon VanDalsem
1|KS|Brown|Hiawatha|Aller's LLC|2089 Kingfisher Road|785-741-2000|KS10-1837|Lead Renovation Firm|Patrick Aller
1|KS|Brown|Hiawatha|Eagle Sundown Services|1114 Utah|785-288-0364|KS10-1821|Lead Renovation Firm|Roland Keller
1|KS|Brown|Hiawatha|Knudson Construction, Inc.|307 Choctaw Street|785-742-2415|KS10-1863|Lead Renovation Firm|Knute Knudson
1|KS|Brown|Hiawatha|Noel Boye Construction|309 Miami St.|785-547-7397|KS10-1587|Lead Renovation Firm|Noel Boye
1|KS|Brown|Hiawatha|Schuster Construction|2887 Killdeer Road|785-742-7556|KS10-2184|Lead Renovation Firm|Gerald Schuster|Ramona Schuster
1|KS|Brown|Hiawatha|Soden Const.|607 Pawnee|785-742-4276|KS10-2044|Lead Renovation Firm|Chad Soden
1|KS|Brown|Horton|Scott Rentals|1147 Central|785-486-3655|KS11-2405|Lead Renovation Firm|John M Scott
1|KS|Brown|Robinson|Siebenmorgen Excavating|2345 Prairie Rd|785-741-1820|KS10-2052|Lead Renovation Firm|Luke Siebenmorgen
1|KS|Butler|Andover|Bill Griffing Painting, Inc.|P.O. Box 1004|316-733-5201|KS10-2053|Lead Renovation Firm|Richard Nethercot
1|KS|Butler|Andover|Dennis Smith Construction|422 W 10th|316-393-8837|KS10-2162|Lead Renovation Firm|Dennis Smith
1|KS|Butler|Andover|Efficiency Exteriors, Inc.|13922 SW US 54 Hwy|316-733-6600|KS10-1522|Lead Renovation Firm|Linda Kitch
1|KS|Butler|Andover|Oliver Construction|1139 W. Sumac|316-393-8303|KS14-2886|Lead Renovation Firm|Phillip Oliver
1|KS|Butler|Andover|West & Co. Painting, LLC|401 W. Central|316-686-5155|KS10-1854|Lead Renovation Firm|Lawrence West
1|KS|Butler|Augusta|AEG Handyman Services, Inc|33 Huntington Rd.|316-866-2728|KS10-1372|Lead Renovation Firm|Lawrence L. Keyser
1|KS|Butler|Augusta|Elite Enterprises, Inc.|1405 S. Hwy 77, PO Box 552|316-841-2582|KS10-1438|Lead Renovation Firm|Stacey L. Bilson, President|John R. Bilson, Vice President
1|KS|Butler|Augusta|Farm & Home Services, L.L.C.|11202 S.W. 120th|316-775-3840|KS10-1882|Lead Renovation Firm|Craig W. Smith
1|KS|Butler|Augusta|Time Frame|607 Colleen St|316-201-1603|KS10-2043|Lead Renovation Firm|Jimmy L Parker
1|KS|Butler|Augusta|Tolbert Construction|1701 Deerborn Street|316-258-7977|KS13-2788|Lead Renovation Firm|Marion Wesley Tolbert IV
1|KS|Butler|Augusta|Wiseman & Associates, LLC|PO Box 517|316-253-5085|KS11-2524|Lead Renovation Firm|Ken Wiseman|Shannon Wiseman
1|KS|Butler|El Dorado|Briggs Home Inspection Co. L.L.C.|8876 NW Kelli Rd|316-323-4099|KS11-2282|Lead Renovation Firm|Trueman D Briggs
1|KS|Butler|El Dorado|Butler Home Improvements LLC|417 S Main|316-322-8880|KS10-1902|Lead Renovation Firm|Sarah Clements
1|KS|Butler|El Dorado|Eaton Construction|824 N. Atchison|316-323-2699|KS10-1775|Lead Renovation Firm|Zach Eaton
1|KS|Butler|El Dorado|Hendricks Construction Services|#8 NE Cole Creek Rd, PO Box 191|316-322-3937|KS10-1884|Lead Renovation Firm|Ron Hendricks
1|KS|Butler|El Dorado|Jedd Cliff|504 Race|316-322-5722|KS11-2443|Lead Renovation Firm|Jedd Cliff
1|KS|Butler|El Dorado|Mark II Builders|121 Jones St|316-321-7240|KS11-2495|Lead Renovation Firm|Mark W Long
1|KS|Butler|El Dorado|Scanlon Exteriors|507 N Summit|316-322-0432|KS12-2658|Lead Renovation Firm|Christopher J Scanlon
1|KS|Butler|El Dorado|Schwindt Remodeling|3515 W. Towanda Ave.|316-250-5387|KS10-1751|Lead Renovation Firm|Darren Schwindt
1|KS|Butler|El Dorado|Stricklin Remodeling, LLC|1720 Payton Circle|316-323-3498|KS10-1808|Lead Renovation Firm|Dennis Stricklin
1|KS|Butler|El Dorado|Trailwood Co., Inc.|615 N Main|316-321-6500|KS11-2472|Lead Renovation Firm|Eddie Dean
1|KS|Butler|El Dorado|USD 490, El Dorado Schools|124 W Central|316-322-4800|KS10-2197|Lead Renovation Firm|David W. Wagner- Director of Operations
1|KS|Butler|El Dorado|Wilkinson Construction LLC|1100 S Denver|316-321-0580|KS12-2647|Lead Renovation Firm|Wade Wilkinson
1|KS|Butler|Rose Hill|K Carpentry|13955 SW 150th|951-691-6395|KS11-2355|Lead Renovation Firm|Ken Kiser
1|KS|CD|CONCORDIA|GEISLER ROOFING INC.|908 E. 6TH|785-243-7298|KS10-1218|Lead Renovation Firm|STEVE GEISLER|MARK FRASER
1|KS|CD|CONCORDIA|SNELL CONTRACTING INC.|1590 N. 146TH RD.|785-243-5026|KS10-1220|Lead Renovation Firm|MITCHELL SNELL
1|KS|CL|ARKANSAS CITY|Morgan Painting|3441 302ND RD.|620-660-2151|KS10-1299|Lead Renovation Firm|JUSTIN R. MORGAN
1|KS|CLOUD|CONCORDIA|ACCENT EXTERIORS|415 E 14TH STREET|785-569-1375|KS12-2645|Lead Renovation Firm|JOSHUA SEYMOUR
1|KS|CLOUD|CONCORDIA|BILL''S REMODELING|625 E 16TH|785-243-4505|KS10-1314|Lead Renovation Firm|WILLIAM GIEBER
1|KS|CQ|Peru|Cowboy Contracting Inc.|761 Road 23|620-332-7011|KS10-1419|Lead Renovation Firm|Rhonda Adams
1|KS|CR|GIRARD|SEK-CAP INC.|401 N. SINNET|620-724-8204|KS10-1184|Lead Renovation Firm|STEVEN V. LOHR
1|KS|CRAWFORD|PITTSBURG|SERVICEMASTER OF SEK|2906 N OLD ROUSE|620-232-1230|KS10-1497|Lead Renovation Firm|RON SIEB|JUDY SIEB
1|KS|Chanute|Chanute|Eric's Painting|53 East 49th|620-431-3651|KS10-1871|Lead Renovation Firm|Eric Methuin
1|KS|Chase|Emporia|The Window Company|923 GARFIELD STREET|620-343-9110|KS10-1368|Lead Renovation Firm|Howard Magathan
1|KS|Cherokee|Columbus|Crossland Construction|833 SE Ave|620-429-1414|KS11-2375|Lead Renovation Firm|Clay Kubicek
1|KS|Cherokee|Columbus|Danco Contracting|2316 NW 5th|620-674-2264|KS11-2515|Lead Renovation Firm|Roger Daniels
1|KS|Cherokee|Crestline|Chris Palmer - Handyman|7063 SE Wren Lane|620-389-2314|KS14-2868|Lead Renovation Firm|Chris Palmer
1|KS|Cherokee|Riverton|Abernathy Construction|7635 SE Elderberry Lane|620-762-0488|KS14-2885|Lead Renovation Firm|Kenneth Darn Abernathy
1|KS|Cherokee|Scammon|Venson Enterprises, Inc.|P.O. Box 45|620-479-2982|KS10-1811|Lead Renovation Firm|Carol Venson
1|KS|Cherokee|Wien|M & K Construction|2346 NE Coal Valley Rd|620-396-8985|KS10-2194|Lead Renovation Firm|Matthew J Thomas
1|KS|Cheyenne|St. Francis|Jensen Construction|412 E. Spencer|785-332-3326|KS10-1579|Lead Renovation Firm|Roger L. Jensen
1|KS|Clark|Ashland|Mattoast Painting & Studio|703 1/2 Main St|620-635-2010|KS10-1934|Lead Renovation Firm|Matthew Habiger
1|KS|Clay|Claycomo|S&B Enterprises|36 South Drake|none|KS10-1663|Lead Renovation Firm|Bruce Batye
1|KS|Clay|Kansas City|Sickler Investment Company Inc|4900 NE 72nd St|913-360-2855|KS12-2698|Lead Renovation Firm|Richard Sickler
1|KS|Cloud|Concordia|Greg Wiesner Contruction|403 E. 9th|785-243-3714|KS10-1794|Lead Renovation Firm|Gregory John Wesner
1|KS|Cloud|Concordia|Linden Construction|213 W. 18th|785-243-6155|KS10-1694|Lead Renovation Firm|Mike Linden
1|KS|Cloud|Miltonvale|Cote Construction|2623 Camp Rd.|785-427-2471|KS10-1682|Lead Renovation Firm|Raymond Cote
1|KS|Coffey|Gridley|Countertop Trends LLC|406 Main St.|620-836-2311|KS10-1391|Lead Renovation Firm|Kara Beyer
1|KS|Coffey|Gridley|Countertop Trends LLC|406 Main St.|620-836-2311|KS10-1391|Lead Renovation Firm|Kara Beyer
1|KS|Coffey|Hartford|B & H Appliance Heating and Cooling|330 S 3rd St Jacobs Creek|620-634-8700|KS12-2616|Lead Renovation Firm|Mark Harris
1|KS|Coffey|New Strawn|Burris Roofing Inc./DBA HomeStyle Exteriors|308 Industrial|620-364-2154|KS10-1431|Lead Renovation Firm|Kenny Burris|Kristin Smith
1|KS|Coffey|Westphalia|Camelot Custom Wood Works, Inc.|314 Dobell|316-648-0088|KS10-2188|Lead Renovation Firm|James Price
1|KS|Cowley|Arkansas City|Ark City Glass|523 North Summit|620-442-2630|KS10-2059|Lead Renovation Firm|Brion Sandorhom|Cindy Sandorhom
1|KS|Cowley|Arkansas City|Green Associates|1326 ND|(620)446-2741|KS10-1485|Lead Renovation Firm|Sandra Randel
1|KS|Cowley|Arkansas City|Hinson Construction, LLC|26791 41st Road|620-441-0776|KS10-1822|Lead Renovation Firm|Kent L. Hinson
1|KS|Cowley|Arkansas City|USD 470|2545 Greenway|620-441-2000|KS11-2459|Lead Renovation Firm|
1|KS|Cowley|Udall|D & D Electric, Inc.|4367 2nd Road|316-304-9001|KS10-1685|Lead Renovation Firm|Dennis Brack|Jeffery Norris
1|KS|Cowley|Winfield|Day Enterprises, LLC.|6 Leed Road|620-221-1562|KS10-1961|Lead Renovation Firm|Kenneth Day
1|KS|Cowley|Winfield|Finney Htg & Air Conditioning|112 E 8th Ave/ PO Box 465|620-221-9620|KS10-1927|Lead Renovation Firm|James Finney
1|KS|Cowley|Winfield|Higdon Painting|PO Box 248|620-221-3166|KS10-2073|Lead Renovation Firm|Jeffery S Higdon
1|KS|Cowley|Winfield|Hostetter Home Improvement|1606 Elizabeth|620-221-2770|KS14-2869|Lead Renovation Firm|Keith Hostetter
1|KS|Cowley|Winfield|Modernworks Construction Inc.|416 Ceder Lane Dr.|620-402-6205|KS10-1586|Lead Renovation Firm|Darcy Davis
1|KS|Cowley|Winfield|Mumford Contracting, LLC|321 Park Street|620-222-5841|KS14-2906|Lead Renovation Firm|Kansas Mumford|Leonard Mumford
1|KS|Cowley|Winfield|R. Long Associates LLC|714 Manning St.|620-221-4943|KS10-1826|Lead Renovation Firm|Rodney E. Long
1|KS|Cowley|Winfield|Winfield Public Schools USD 465|1407 Wheat RD|620-221-5100|KS15-3012|Lead Renovation Firm|Winfield Public Schools USD 465|Brian Meyer
1|KS|Crawford|Arma|Albert Ginardi|307 N West St|620-704-5283|KS10-2129|Lead Renovation Firm|Albert Ginardi
1|KS|Crawford|Frontenac|James Lawson Carpentry|1107 N. Linn|620-249-3698|KS14-2904|Lead Renovation Firm|James Lawson
1|KS|Crawford|Frontenac|Mid America Roofing & Construction|1035 North Highway 69|620-232-1678|KS05-1105|Lead Renovation Firm|Norman Miller
1|KS|Crawford|McCune|Earl L Hartman|961 S 87th St|620-632-4253|KS12-2637|Lead Renovation Firm|Earl Hartman
1|KS|Crawford|Pittsburg|Butler Rentals Inc.|810 W Euclid / PO Box 1411|620-404-8838|KS10-1958|Lead Renovation Firm|Charles R Butler
1|KS|Crawford|Pittsburg|CDL Electric / T & K Rental's|201 North Joplin|620-231-6420|KS10-1880|Lead Renovation Firm|Larry Seward Jr.|Gene Arnold
1|KS|Crawford|Pittsburg|CDL-Electric|201 North Joplin|620-231-6420|KS11-2391|Lead Renovation Firm|Gene Arnold-contact
1|KS|Crawford|Pittsburg|Doug Thomas Painting|204 S Walnut|620-249-2957|KS10-1966|Lead Renovation Firm|Douglass E Thomas
1|KS|Crawford|Pittsburg|Mike Stapleton|1302 Franklin Rd|6208753883|KS12-2629|Lead Renovation Firm|Mike Stapleton
1|KS|Crawford|Pittsburg|Qualls Construction|1709 N. Free King|620-704-1412|KS10-1803|Lead Renovation Firm|David Qualls
1|KS|Crawford|Pittsburg|Touchton Electric and Alarms, Inc.|111 N. Broadway|620-232-9294|KS10-1720|Lead Renovation Firm|David Touchton
1|KS|Crawford|Pittsburg|Yost Properties|105  W 4th|620-231-6190|KS10-1949|Lead Renovation Firm|Charles W Yost
1|KS|DG|BALDWIN CITY|HERITAGE WEATHERIZATION LLC|P.O. BOX 11|913-206-0613|KS10-1213|Lead Renovation Firm|JOSEPH L. SALB
1|KS|DG|Eudora|MAJAC Enterprises|1319 Tallgrass Dr.|816-365-7073|KS12-2600|Lead Renovation Firm|Aaron Haden
1|KS|DG|LAWRENCE|ABC Home Exteriors|1312 STONE MEADOWS DR.|785-232-7500|KS10-1182|Lead Renovation Firm|TOM NEUBURGER
1|KS|DG|Lawrence|Dunco Inc. dba Niehoff/Dunco Heating & Cooling|1729 Bullene Ave.|785-843-7137|KS10-1336|Lead Renovation Firm|Charles Wayne Duncan
1|KS|DG.|Lawrence|Dennis Brown Painting Inc.|806 Ohio|785-841-2460|KS10-1305|Lead Renovation Firm|Dennis J. Brown
1|KS|DICKINSON|ABILENE|MORTON DEVELOPMENT|503 NE 12TH ST.|785-200-1210|KS13-10557|Lead Renovation Firm|JASON MORTON
1|KS|DK|ABILENE|SMITH HEATING AND AIR CONDITIONING INC.|318 NE 14TH|785-263-2412|KS10-1186|Lead Renovation Firm|GREG HOTTMAN
1|KS|DK|Abilene|Four Seasons Inc.|1202 NW 5th|785-263-2922|KS11-2441|Lead Renovation Firm|Mike Meuli-Contact|Steve Rindt-Owner
1|KS|DK|Abilene|M & R Building|2560 Daisy Rd.|785-263-3043|KS10-1272|Lead Renovation Firm|Matt Elliott
1|KS|DK|Abilene|Smith Heating & Air Conditioning, Inc.|318 N.E. 14th|785-263-2412|KS10-1273|Lead Renovation Firm|Greg Hottman
1|KS|DOUGLAS|BALDWIN|Siebar Service LLC|154 E 1287 RD|785-594-6510|KS10-1264|Lead Renovation Firm|ROBERT PRINGLE|ROB PRINGLE
1|KS|DOUGLAS|BALDWIN CITY|SCOTT''S REPAIR LLC|181 EAST 1575 RD|785-594-2584|KS10-2225|Lead Renovation Firm|SCOTT BRADDOCK
1|KS|DOUGLAS|EUDORA|AIR BY KNIGHT LLC|1715 SYCAMORE CT|785-542-2628|KS11-2345|Lead Renovation Firm|LARRY KNIGHT|JAMES HAMILTON
1|KS|DOUGLAS|LAWRENCE|AIRTIGHT ENERGY AUDITS|PO BOX 1961|785-727-0209|KS11-2510|Lead Renovation Firm|ROBERT COFFMAN|NANCY SCHWARTING
1|KS|DOUGLAS|LAWRENCE|APPLE TREE HOMES, INC.|2405 OXFORD ROAD|785-832-1414|KS10-1424|Lead Renovation Firm|GREG RAU|CAROL RAU
1|KS|DOUGLAS|LAWRENCE|ARTISAN FLOOR COMPANY|3507 W. 5TH TERR.|785-691-6117|KS10-2131|Lead Renovation Firm|DUANE DORN
1|KS|DOUGLAS|LAWRENCE|Del Sol Electric LLC|494 N 1500 RD|785-887-9990|KS10-1509|Lead Renovation Firm|JACOB KOZLOWSKI
1|KS|DOUGLAS|LAWRENCE|EDEN CONSTRUCTION|6332 CANDY LANE|303-720-2556|KS11-2383|Lead Renovation Firm|JOSHUAH ALLEN
1|KS|DOUGLAS|LAWRENCE|FIRST MANAGEMENT INC/FIRST CONSTRUCTION LLC|601 N IOWA|785-841-7333|KS10-1892|Lead Renovation Firm|DOUG COMPTON|ROBERT GREEN
1|KS|DOUGLAS|LAWRENCE|GREG SPRINGER HANDYMAN|1520 W. 27TH STREET|785-423-5367|KS10-1866|Lead Renovation Firm|GREG SPRINGER|SAM SPRINGER
1|KS|DOUGLAS|LAWRENCE|J&D SERVICES LLC|2602 BELLE HAVEN DRIVE|785-979-8756|KS10-1569|Lead Renovation Firm|DAVID BALDWIN
1|KS|DOUGLAS|LAWRENCE|N. B. REMODELING LLC D/B/A NATURAL BREEZE REMODELING|1440 WAKARUSA - SUITE 800|785-749-1855|KS11-2469|Lead Renovation Firm|NEIL A. GASKIN|TERRY D FINTON
1|KS|DOUGLAS|LAWRENCE|PARADISE CARPET ONE FLOOR AND HOME|2108 WEST 27TH ST. SUITE E|785-856-8011|KS11-2320|Lead Renovation Firm|LOUIS T DAVIS|BARBARA L DAVIS
1|KS|DOUGLAS|LAWRENCE|PAUL DAVIS RESTORATION OF KANSAS CITY|1420 N 3RD STREET|785-842-0351|KS12-10156|Lead Renovation Firm|JEFFREY S. GOLDMAN
1|KS|DOUGLAS|LAWRENCE|RICARDO COLIN|1120 RHODE ISLAND|785-380-1314|KS12-2654|Lead Renovation Firm|RICARDO COLIN
1|KS|DOUGLAS|LAWRENCE|ROD WENGER INC.|1160 E 1135 RD|785-842-3357|KS10-1865|Lead Renovation Firm|ROD WENGER
1|KS|DOUGLAS|LAWRENCE|STF HANDYMAN|239 WISCONSIN|785-423-1148|KS12-2601|Lead Renovation Firm|SHAUN FLYNN
1|KS|DOUGLAS|LAWRENCE|SUNSET PAINTING CO.|453 ELDRIDGE ST.#C|785-313-1014|KS10-2064|Lead Renovation Firm|TIM ORR
1|KS|DOUGLAS|Lawrence|KB PAINTING, LLC|1835 W 27th Terrace|785-423-4464|KS10-2068|Lead Renovation Firm|KATE BOYD
1|KS|Dickinson|Abilene|Brian Lady Construction|2980 Jeep Rd.|785-598-2375|KS10-1733|Lead Renovation Firm|Brian Lady
1|KS|Dickinson|Abilene|Built-Rite Construction Inc|1150 2000 Avenue|785-263-7410|KS10-1769|Lead Renovation Firm|Blain C. Veal
1|KS|Dickinson|Abilene|Enger Construction|2891 Fair Rd.|785-388-2419|KS10-1439|Lead Renovation Firm|Bruce Enger
1|KS|Dickinson|Abilene|Geske Interiors, Inc.|110 N. Cedar Street|785-263-7984|KS10-1442|Lead Renovation Firm|Timothy Geske|Lucas Geske|Kathy Geske
1|KS|Dickinson|Ablile|Deby's Finishing Touch|1500 Jayhawk Apr #B|785-263-7941|KS12-2665|Lead Renovation Firm|Debra Wilson
1|KS|Dodge|Lecompton|Eric Wagner|1872 E. 850 Rd.|785-423-0649|KS14-2888|Lead Renovation Firm|Eric Wagner
1|KS|Douglas|Baldwin|A & H Air Conditioning and Heating Inc.|1717 College|785-594-3357|KS10-2013|Lead Renovation Firm|Alan Wright
1|KS|Douglas|Baldwin City|Driving Force, LLC|388 E 800 Rd|785-760-1170|KS11-2407|Lead Renovation Firm|Brian Gibler
1|KS|Douglas|Baldwin City|Harry North Construction|95 E 1300 Rd|785-594-3288|KS11-2288|Lead Renovation Firm|Harry A  North
1|KS|Douglas|Baldwin City|Morningstar Painting Services, Inc|1214 Palmyra Ct.|785-766-9900|KS10-2142|Lead Renovation Firm|Andrew Morgenstern
1|KS|Douglas|Baldwin City|Ron Randel|1529 N 300th|785-594-3877|KS10-1805|Lead Renovation Firm|Ron Randel
1|KS|Douglas|Baldwin City|TS's Rental & Repairs, LLC|PO Box 362|931-216-1312|KS13-2774|Lead Renovation Firm|Tillie Wood
1|KS|Douglas|Lawrence|A-Team Home Improvment, LLC|506 E. 23rd St|785-856-3039|KS14-2842|Lead Renovation Firm|William Alan Rector
1|KS|Douglas|Lawrence|A. F. Hill Contracting|PO Box 1581|785-841-3689|KS11-2426|Lead Renovation Firm|Mark Hill
1|KS|Douglas|Lawrence|A.B. Painting and Repair|2229 Killarney Ct.|785-331-6994|KS10-1608|Lead Renovation Firm|Alan Beilgart
1|KS|Douglas|Lawrence|Alpha Roofing LLC|2736 Oregon St.|785-842-2676|KS14-2814|Lead Renovation Firm|Darin Lutz
1|KS|Douglas|Lawrence|Altenbernd & Associates|PO Box 1391|785-979-2499|KS13-2748|Lead Renovation Firm|Conrad W. Altenbernd
1|KS|Douglas|Lawrence|Armor Exteriors|311 Minnesota|785-840-8902|KS10-1475|Lead Renovation Firm|Charlie S. Perdue
1|KS|Conrad W. Altenbernd
1|KS|Douglas|Lawrence|Armor Exteriors|311 Minnesota|785-840-8902|KS10-1475|Lead Renovation Firm|Charlie S. Perdue
1|KS||||Bureau of Environmental Health|Lead Registry|Active Firms|||[Search Again]StateCountyCityFirmKDHE Certificate #TypeContactsARGarland RoyalWindows USA, LLC|235 Sunshine Rd|501-767-4843KS14-2925Lead Renovation FirmEric OliverCAORANGE IRVINECOLLEGE WORKS PAINTING|1682 LANGLEY AVENUE|888-450-9675KS11-2429Lead Renovation FirmSEAN PHELPSCAORANGE ORANGEAMERICAN TECHNOLOGIES, INC.|210 BAYWOOD AVENUE|714-283-9990KS11-2489Lead Renovation FirmGARY MOORECASacramento Gold RiverJudson Enterprises Inc. dba K Designers|2440 Gold River Rd. Ste. 100|800-515-2788KS10-1279Lead Renovation FirmLarry D. JudsonCOAdams DenverPrecision Siding & Construction Co.|7000 Broadway, 3-300|303-289-7952KS10-1627Lead Renovation FirmJeff Woodward|Kendall WoodwardCOBOULDER BOULDERWEECYCLE ENVIRONMENTAL CONSULTING, INC.|5375 WESTERN AVE SUITE B|303-413-0452KS11-2457Lead Activity FirmJUDITH SAWITSKY|LAUREN YORKCOMorgan Ft. MorganACR Construction|14521 CR 21|970-370-3122KS10-1836Lead Renovation FirmFred J. RomeroCOna LamarTripple A Gutters & Construction|1706 S. 11th St #3|719-688-3666KS14-2959Lead Renovation FirmShane PoteetFLN/A Fort LauderdaleSeagull Environmental Management|900 NW 5th Ave|800-966-9933KS14-2824Lead Activity FirmJames StumpFLVolusia Daytona BeachBuilder Services Group Inc.|260 Jimmy Ann Drive|386-304-2260KS10-1516Lead Renovation FirmPatti Shaffer - Risk Operations|Joseph Bolduc - DirectorGACOBB ATLANTAHOME DEPOT USA, INC.|2455 PACES FERRY RD  C-11 COMPLIANCE|770-433-8211KS11-2511Lead Renovation FirmVANN RILEYGACOBB ATLANTATHD AT-HOME SERVICE INC DBA THE HOME DEPOT AT-HOME SERVICES|2690 CUMBERLAND PKWY SUITE 300|770-779-1453KS10-1239Lead Renovation FirmCHARLES HICKEY|PEGGY PAYNE|ERICA OGAARDGACOBB SMYRNAROMANOFF FLOOR COVERING INC|3100 JONQUIL DR. SE|770-980-1234KS12-2594Lead Renovation FirmMARK SIMPSON|AARON RIBNER|PAULA GEEKIEGANA NorcrossNational Installation Solutions, Inc|4291 Communications Dr|678-325-4430KS12-2671Lead Renovation FirmHillary EvansIABLACK HAWK WATERLOOADVANCED ENVIRONMENTAL TESTING AND ABATEMENT, INC.|803 RICKER STREET|319-287-4447KS12-2625Lead Renovation FirmMICHAEL MASSEYIA WaterlooAdvanced Environmental Testing and Abatement Inc.|803 Ricker Street|319-287-4447KS12-2701Lead Activity FirmMichael PoeILCOOK ARLINGTON HEIGHTSG.S. FLOOR DESIGNS, INC|855 W UNIVERSITY DRIVE|847-394-4000KS11-2526Lead Renovation FirmREGINA PINKSTONILRock Island Rock IslandOstrom Painting & Sandblasting, Inc.|1110 8th Avenue|309-788-1933KS10-1847Lead Renovation FirmDavid OstromKSALLEN IOLAGROW LLC|1018 MEADOWBROOK ROAD|620-365-6900KS10-2180Lead Renovation FirmMONTY ROGERS|RYAN SPARKSKSATCHISON ATCHISONMICHAEL S. HUNDLEY CONSTRUCTION INC.|1900 MAIN STREET|913-367-7059KS13-10461Lead Renovation FirmMICHAEL S. HUNDLEY|SHANE M. HUNDLEYKSAllen GasBurton's Property Management|118 N Taylor / PO Box 183|620-363-2007KS10-2028Lead Renovation FirmRick BurtonKSAllen HumboldtFewins Real Properties, LLC|1836 Alabama Rd.|620-431-3477KS10-1883Lead Renovation FirmDavid FewinsKSAllen HumboldtHofer & Hofer & Associates, Inc.|1201 N 10th Street|620-473-3919KS11-2353Lead Renovation FirmJustin WintjenKSAllen HumboldtSparkles Cleaning and Painting|1001 Central|620-228-2048KS10-1827Lead Renovation FirmBrenda ClarkKSAllen IolaAK Construction LLC|1303 2200th St.|620-228-3260KS10-1870Lead Renovation FirmKirsten M. WeideKSAllen IolaBoren's Roofing|306 N State|620-365-7663KS11-2279Lead Renovation FirmRon Boren|Katy BorenKSAllen LaHarpeC & C Carpentry|1410 2600 St|620-496-6395KS11-2354Lead Renovation FirmNicholas R ChapmanKSAllen LaHarpeDiebolt Lumber & Supply|2661 Nebraska Rd|620-496-2222KS11-2271Lead Renovation FirmDon DieboltKSAn GarnettCrane Lift and Handyman Service|446 N Cedar|785-448-8203KS11-2411Lead Renovation FirmMichael CraneKSAnderson GarnettADM Construction|10467 NW 2300 Rd|785-233-2210KS14-2922Lead Renovation FirmAllen P. MillerKSAnderson GarnettKeim & Sons Construction|29947 NW Kentucky Rd|785-448-3562KS11-2272Lead Renovation FirmLaVern KeimKSAnderson GarnettYutzy Construction LLC|26709 NW Louisianna Rd|785-248-1397KS11-2261Lead Renovation FirmDaniel YutzyKSAnderson RichmondKP Exteriors, LLC|33992 NW Jewel Rd|785-204-2705KS14-2882Lead Renovation FirmKenneth PruittKSAtchison AtchisonDave Lackey Painting|402 N. 14th|913-367-2862KS10-1312Lead Renovation FirmDavid R. LackeyKSAtchison AtchisonDeware Enterprises LLC|221 North 3rd St # 26|913-367-3750KS14-2909Lead Renovation FirmDavid DewareKSAtchison AtchisonKearney Construction Inc|6199 Osage Rd.|913-367-1200KS10-1844Lead Renovation FirmGary Kearny JrKSAtchison AtchisonL & L Construction|16083-262nd Road|913-367-3161KS10-1535Lead Renovation FirmTesea KearneyKSAtchison CummingsCummins & Sons, LLC|2438 Osborne Rd|913-370-0678KS11-2428Lead Renovation FirmDaniel T Cummins IIKSAtchison EverestKimmi Construction|11029 Finney Rd|785-741-3170KS10-1948Lead Renovation FirmJason KimmiKSBARTON ELLINWOODTRINITY RESTORATION MOKAN INC|1107 NE 50 ROAD|620-564-3131KS10-1813Lead Renovation FirmLAURA CLAYTONKSBARTON GREAT BENDMOSES PROPERTIES LLC|2015 FOREST AVE STE 205|620-792-8000KS10-2136Lead Renovation FirmEARL MOSESKSBARTON Great BendC & V HOME IMPROVEMENT, INC .|1107 10th St.|620-796-2500KS10-1284Lead Renovation FirmMATT HOISINGTON|CLAUDIA WESNERKSBOURBON FORT SCOTTGREAT EXPECTATIONS RESTORATION, LLC|1201 S. NATIONAL AVE.|620-223-3090KS12-2609Lead Renovation FirmMATTHEW WELLSKSBOURBON FORT SCOTTJERRY NAFZGER|1910 235TH|620-719-0385KS10-2111Lead Renovation FirmJERRY NAFZGERKSBR HiawathaNortheast Kansas Community Action Program, Inc.|1260 220th St., PO Box 380|785-742-2222 ext 251KS10-1373Lead Renovation FirmJack ShaeferKSBT EllinwoodExterior Designs Inc.|102 S. Main St.|620-564-3716KS10-1384Lead Renovation FirmJoe Curtiss|Glen HertelKSBT EllinwoodJoiner Construction Inc.|PO Box 238|620-564-2818KS10-1383Lead Renovation FirmJustin JoinerKSBT GREAT BENDTHE SOUTHARD CORPORATION|1222 10TH|620-793-5434KS10-1212Lead Renovation FirmJEFF FRY|MIKE SOUTHARDKSBT Great BendL&N Contracting|622 W. Hwy 56|620-617-6696KS10-1416Lead Renovation FirmLonnie PhilbernKSBT HOISINGTONCHRISTIANS SPECIALTIES INC.|532 NW 160 RD.|620-653-7684KS10-1197Lead Renovation FirmRAYMOND CHRISTIANSKSBU AUGUSTAAEG Handyman Services|33 HUNTINGTON RD.|316-866-2728KS10-1190Lead Renovation FirmLAWRENCE L. KEYSERKSBU AugustaCM Customworks, Inc.|9783 SW Santa Fe Lake Rd.|316-775-0643KS10-1376Lead Renovation FirmMax Reimschesel|Cory MetzgerKSBUTLER AUGUSTAPAGE CORPORATION|6333 SW SANTA FE LAKE RD|316-262-7200KS10-1757Lead Renovation FirmMIKE PAGE|KYLE HOWARD|COLT PAGEKSBarber Medicine LodgeProthe Enterprises|7741 SE IS HWY 281|620-886-5240KS11-2557Lead Renovation FirmCraig M ProtheKSBarber Medicine LodgeRuton Construction Inc.|207 W Stolp|620-886-3581KS10-1546Lead Renovation FirmMike RutonKSBarton ClaflinCenKan Lead Testing, LLC|1371 NE 190 Rd|620-282-3634KS11-2346Lead Activity FirmkachinaKSBarton EllinwoodBryant Construction|111 E. 3rd St.|620-564-3412KS10-1734Lead Renovation FirmLyle W. BryantKSBarton Great Bend"ART" Herren Home Repair|4206 Railroad Ave|620-793-8778KS10-1637Lead Renovation FirmArthur E. HerrenKSBarton Great BendAllen's Home Improvement|439 Kiowa Rd.|620-791-8345KS10-1572Lead Renovation FirmBarry AllenKSBarton Great BendCPS Home & Garden  DBA Jack the Handyman|5501 9th Street Lot 99|620-282-2819KS15-3034Lead Renovation FirmRaza ManaseKSBarton Great BendCusstem Painting & Contracting|622 West Hwy 56|620-791-7615KS10-1520Lead Renovation FirmLuie PhilberaKSBarton Great BendFeist Construction|PO Box 314|620-792-2789KS14-2942Lead Renovation FirmDan Fiest|David FeistKSBarton Great BendParr Construction LLC|2101 US Highway 281 Bypass, PO Box 1778|620-792-7020KS10-1848Lead Renovation FirmDoug ClarkKSBarton Great BendRube's Inc.|5251 9th ST|620-793-6769KS10-2141Lead Renovation FirmBrian L PedigoKSBarton Great BendStueder Contractors, Inc.|3410 10th Street|620-792-6044KS11-2474Lead Renovation FirmTerry StuederKSBarton Great BendTNT Renovations, Inc.|1400 18th St.|620-793-3450KS10-1711Lead Renovation FirmTodd A. Smith|Theresa M. SmithKSBarton HoisingtonTSI Laboratories|820 N Pine Street|620-603-0345KS15-3022Lead Renovation FirmTSI Laboratories|Tigie StephensKSBrown EverestD & M  Construction|1191 Prairie Rd|785-548-7582KS10-1952Lead Renovation FirmDonald NighKSBrown FairviewVan's Electric|211 E. 1st St.|785-467-8380KS10-1721Lead Renovation FirmElvon VanDalsemKSBrown HiawathaAller's LLC|2089 Kingfisher Road|785-741-2000KS10-1837Lead Renovation FirmPatrick AllerKSBrown HiawathaEagle Sundown Services|1114 Utah|785-288-0364KS10-1821Lead Renovation FirmRoland KellerKSBrown HiawathaKnudson Construction, Inc.|307 Choctaw Street|785-742-2415KS10-1863Lead Renovation FirmKnute KnudsonKSBrown HiawathaNoel Boye Construction|309 Miami St.|785-547-7397KS10-1587Lead Renovation FirmNoel BoyeKSBrown HiawathaSchuster Construction|2887 Killdeer Road|785-742-7556KS10-2184Lead Renovation FirmGerald Schuster|Ramona SchusterKSBrown HiawathaSoden Const.|607 Pawnee|785-742-4276KS10-2044Lead Renovation FirmChad SodenKSBrown HortonScott Rentals|1147 Central|785-486-3655KS11-2405Lead Renovation FirmJohn M ScottKSBrown RobinsonSiebenmorgen Excavating|2345 Prairie Rd|785-741-1820KS10-2052Lead Renovation FirmLuke SiebenmorgenKSButler AndoverBill Griffing Painting, Inc.|P.O. Box 1004|316-733-5201KS10-2053Lead Renovation FirmRichard NethercotKSButler AndoverDennis Smith Construction|422 W 10th|316-393-8837KS10-2162Lead Renovation FirmDennis SmithKSButler AndoverEfficiency Exteriors, Inc.|13922 SW US 54 Hwy|316-733-6600KS10-1522Lead Renovation FirmLinda KitchKSButler AndoverOliver Construction|1139 W. Sumac|316-393-8303KS14-2886Lead Renovation FirmPhillip OliverKSButler AndoverWest & Co. Painting, LLC|401 W. Central|316-686-5155KS10-1854Lead Renovation FirmLawrence WestKSButler AugustaAEG Handyman Services, Inc|33 Huntington Rd.|316-866-2728KS10-1372Lead Renovation FirmLawrence L. KeyserKSButler AugustaElite Enterprises, Inc.|1405 S. Hwy 77, PO Box 552|316-841-2582KS10-1438Lead Renovation FirmStacey L. Bilson, President|John R. Bilson, Vice PresidentKSButler AugustaFarm & Home Services, L.L.C.|11202 S.W. 120th|316-775-3840KS10-1882Lead Renovation FirmCraig W. SmithKSButler AugustaTime Frame|607 Colleen St|316-201-1603KS10-2043Lead Renovation FirmJimmy L ParkerKSButler AugustaTolbert Construction|1701 Deerborn Street|316-258-7977KS13-2788Lead Renovation FirmMarion Wesley Tolbert IVKSButler AugustaWiseman & Associates, LLC|PO Box 517|316-253-5085KS11-2524Lead Renovation FirmKen Wiseman|Shannon WisemanKSButler El DoradoBriggs Home Inspection Co. L.L.C.|8876 NW Kelli Rd|316-323-4099KS11-2282Lead Renovation FirmTrueman D BriggsKSButler El DoradoButler Home Improvements LLC|417 S Main|316-322-8880KS10-1902Lead Renovation FirmSarah ClementsKSButler El DoradoEaton Construction|824 N. Atchison|316-323-2699KS10-1775Lead Renovation FirmZach EatonKSButler El DoradoHendricks Construction Services|#8 NE Cole Creek Rd, PO Box 191|316-322-3937KS10-1884Lead Renovation FirmRon HendricksKSButler El DoradoJedd Cliff|504 Race|316-322-5722KS11-2443Lead Renovation FirmJedd CliffKSButler El DoradoMark II Builders|121 Jones St|316-321-7240KS11-2495Lead Renovation FirmMark W LongKSButler El DoradoScanlon Exteriors|507 N Summit|316-322-0432KS12-2658Lead Renovation FirmChristopher J ScanlonKSButler El DoradoSchwindt Remodeling|3515 W. Towanda Ave.|316-250-5387KS10-1751Lead Renovation FirmDarren SchwindtKSButler El DoradoStricklin Remodeling, LLC|1720 Payton Circle|316-323-3498KS10-1808Lead Renovation FirmDennis StricklinKSButler El DoradoTrailwood Co., Inc.|615 N Main|316-321-6500KS11-2472Lead Renovation FirmEddie DeanKSButler El DoradoUSD 490, El Dorado Schools|124 W Central|316-322-4800KS10-2197Lead Renovation FirmDavid W. Wagner- Director of OperationsKSButler El DoradoWilkinson Construction LLC|1100 S Denver|316-321-0580KS12-2647Lead Renovation FirmWade WilkinsonKSButler Rose HillK Carpentry|13955 SW 150th|951-691-6395KS11-2355Lead Renovation FirmKen KiserKSCD CONCORDIAGEISLER ROOFING INC.|908 E. 6TH|785-243-7298KS10-1218Lead Renovation FirmSTEVE GEISLER|MARK FRASERKSCD CONCORDIASNELL CONTRACTING INC.|1590 N. 146TH RD.|785-243-5026KS10-1220Lead Renovation FirmMITCHELL SNELLKSCL ARKANSAS CITYMorgan Painting|3441 302ND RD.|620-660-2151KS10-1299Lead Renovation FirmJUSTIN R. MORGANKSCLOUD CONCORDIAACCENT EXTERIORS|415 E 14TH STREET|785-569-1375KS12-2645Lead Renovation FirmJOSHUA SEYMOURKSCLOUD CONCORDIABILL''S REMODELING|625 E 16TH|785-243-4505KS10-1314Lead Renovation FirmWILLIAM GIEBERKSCQ PeruCowboy Contracting Inc.|761 Road 23|620-332-7011KS10-1419Lead Renovation FirmRhonda AdamsKSCR GIRARDSEK-CAP INC.|401 N. SINNET|620-724-8204KS10-1184Lead Renovation FirmSTEVEN V. LOHRKSCRAWFORD PITTSBURGSERVICEMASTER OF SEK|2906 N OLD ROUSE|620-232-1230KS10-1497Lead Renovation FirmRON SIEB|JUDY SIEBKSChanute ChanuteEric's Painting|53 East 49th|620-431-3651KS10-1871Lead Renovation FirmEric MethuinKSChase EmporiaThe Window Company|923 GARFIELD STREET|620-343-9110KS10-1368Lead Renovation FirmHoward MagathanKSCherokee ColumbusCrossland Construction|833 SE Ave|620-429-1414KS11-2375Lead Renovation FirmClay KubicekKSCherokee ColumbusDanco Contracting|2316 NW 5th|620-674-2264KS11-2515Lead Renovation FirmRoger DanielsKSCherokee CrestlineChris Palmer - Handyman|7063 SE Wren Lane|620-389-2314KS14-2868Lead Renovation FirmChris PalmerKSCherokee RivertonAbernathy Construction|7635 SE Elderberry Lane|620-762-0488KS14-2885Lead Renovation FirmKenneth Darn AbernathyKSCherokee ScammonVenson Enterprises, Inc.|P.O. Box 45|620-479-2982KS10-1811Lead Renovation FirmCarol VensonKSCherokee WienM & K Construction|2346 NE Coal Valley Rd|620-396-8985KS10-2194Lead Renovation FirmMatthew J ThomasKSCheyenne St. FrancisJensen Construction|412 E. Spencer|785-332-3326KS10-1579Lead Renovation FirmRoger L. JensenKSClark AshlandMattoast Painting & Studio|703 1/2 Main St|620-635-2010KS10-1934Lead Renovation FirmMatthew HabigerKSClay ClaycomoS&B Enterprises|36 South Drake|noneKS10-1663Lead Renovation FirmBruce BatyeKSClay Kansas CitySickler Investment Company Inc|4900 NE 72nd St|913-360-2855KS12-2698Lead Renovation FirmRichard SicklerKSCloud ConcordiaGreg Wiesner Contruction|403 E. 9th|785-243-3714KS10-1794Lead Renovation FirmGregory John WesnerKSCloud ConcordiaLinden Construction|213 W. 18th|785-243-6155KS10-1694Lead Renovation FirmMike LindenKSCloud MiltonvaleCote Construction|2623 Camp Rd.|785-427-2471KS10-1682Lead Renovation FirmRaymond CoteKSCoffey GridleyCountertop Trends LLC|406 Main St.|620-836-2311KS10-1391Lead Renovation FirmKara BeyerKSCoffey GridleyCountertop Trends LLC|406 Main St.|620-836-2311KS10-1391Lead Renovation FirmKara BeyerKSCoffey HartfordB & H Appliance Heating and Cooling|330 S 3rd St Jacobs Creek|620-634-8700KS12-2616Lead Renovation FirmMark HarrisKSCoffey New StrawnBurris Roofing Inc./DBA HomeStyle Exteriors|308 Industrial|620-364-2154KS10-1431Lead Renovation FirmKenny Burris|Kristin SmithKSCoffey WestphaliaCamelot Custom Wood Works, Inc.|314 Dobell|316-648-0088KS10-2188Lead Renovation FirmJames PriceKSCowley Arkansas CityArk City Glass|523 North Summit|620-442-2630KS10-2059Lead Renovation FirmBrion Sandorhom|Cindy SandorhomKSCowley Arkansas CityGreen Associates|1326 ND|(620)446-2741KS10-1485Lead Renovation FirmSandra RandelKSCowley Arkansas CityHinson Construction, LLC|26791 41st Road|620-441-0776KS10-1822Lead Renovation FirmKent L. HinsonKSCowley Arkansas CityUSD 470|2545 Greenway|620-441-2000KS11-2459Lead Renovation FirmKSCowley UdallD & D Electric, Inc.|4367 2nd Road|316-304-9001KS10-1685Lead Renovation FirmDennis Brack|Jeffery NorrisKSCowley WinfieldDay Enterprises, LLC.|6 Leed Road|620-221-1562KS10-1961Lead Renovation FirmKenneth DayKSCowley WinfieldFinney Htg & Air Conditioning|112 E 8th Ave/ PO Box 465|620-221-9620KS10-1927Lead Renovation FirmJames FinneyKSCowley WinfieldHigdon Painting|PO Box 248|620-221-3166KS10-2073Lead Renovation FirmJeffery S HigdonKSCowley WinfieldHostetter Home Improvement|1606 Elizabeth|620-221-2770KS14-2869Lead Renovation FirmKeith HostetterKSCowley WinfieldModernworks Construction Inc.|416 Ceder Lane Dr.|620-402-6205KS10-1586Lead Renovation FirmDarcy DavisKSCowley WinfieldMumford Contracting, LLC|321 Park Street|620-222-5841KS14-2906Lead Renovation FirmKansas Mumford|Leonard MumfordKSCowley WinfieldR. Long Associates LLC|714 Manning St.|620-221-4943KS10-1826Lead Renovation FirmRodney E. LongKSCowley WinfieldWinfield Public Schools USD 465|1407 Wheat RD|620-221-5100KS15-3012Lead Renovation FirmWinfield Public Schools USD 465|Brian MeyerKSCrawford ArmaAlbert Ginardi|307 N West St|620-704-5283KS10-2129Lead Renovation FirmAlbert GinardiKSCrawford FrontenacJames Lawson Carpentry|1107 N. Linn|620-249-3698KS14-2904Lead Renovation FirmJames LawsonKSCrawford FrontenacMid America Roofing & Construction|1035 North Highway 69|620-232-1678KS05-1105Lead Renovation FirmNorman MillerKSCrawford McCuneEarl L Hartman|961 S 87th St|620-632-4253KS12-2637Lead Renovation FirmEarl HartmanKSCrawford PittsburgButler Rentals Inc.|810 W Euclid / PO Box 1411|620-404-8838KS10-1958Lead Renovation FirmCharles R ButlerKSCrawford PittsburgCDL Electric / T & K Rental's|201 North Joplin|620-231-6420KS10-1880Lead Renovation FirmLarry Seward Jr.|Gene ArnoldKSCrawford PittsburgCDL-Electric|201 North Joplin|620-231-6420KS11-2391Lead Renovation FirmGene Arnold-contactKSCrawford PittsburgDoug Thomas Painting|204 S Walnut|620-249-2957KS10-1966Lead Renovation FirmDouglass E ThomasKSCrawford PittsburgMike Stapleton|1302 Franklin Rd|6208753883KS12-2629Lead Renovation FirmMike StapletonKSCrawford PittsburgQualls Construction|1709 N. Free King|620-704-1412KS10-1803Lead Renovation FirmDavid QuallsKSCrawford PittsburgTouchton Electric and Alarms, Inc.|111 N. Broadway|620-232-9294KS10-1720Lead Renovation FirmDavid TouchtonKSCrawford PittsburgYost Properties|105  W 4th|620-231-6190KS10-1949Lead Renovation FirmCharles W YostKSDG BALDWIN CITYHERITAGE WEATHERIZATION LLC|P.O. BOX 11|913-206-0613KS10-1213Lead Renovation FirmJOSEPH L. SALBKSDG EudoraMAJAC Enterprises|1319 Tallgrass Dr.|816-365-7073KS12-2600Lead Renovation FirmAaron HadenKSDG LAWRENCEABC Home Exteriors|1312 STONE MEADOWS DR.|785-232-7500KS10-1182Lead Renovation FirmTOM NEUBURGERKSDG LawrenceDunco Inc. dba Niehoff/Dunco Heating & Cooling|1729 Bullene Ave.|785-843-7137KS10-1336Lead Renovation FirmCharles Wayne DuncanKSDG. LawrenceDennis Brown Painting Inc.|806 Ohio|785-841-2460KS10-1305Lead Renovation FirmDennis J. BrownKSDICKINSON ABILENEMORTON DEVELOPMENT|503 NE 12TH ST.|785-200-1210KS13-10557Lead Renovation FirmJASON MORTONKSDK ABILENESMITH HEATING AND AIR CONDITIONING INC.|318 NE 14TH|785-263-2412KS10-1186Lead Renovation FirmGREG HOTTMANKSDK AbileneFour Seasons Inc.|1202 NW 5th|785-263-2922KS11-2441Lead Renovation FirmMike Meuli-Contact|Steve Rindt-OwnerKSDK AbileneM & R Building|2560 Daisy Rd.|785-263-3043KS10-1272Lead Renovation FirmMatt ElliottKSDK AbileneSmith Heating & Air Conditioning, Inc.|318 N.E. 14th|785-263-2412KS10-1273Lead Renovation FirmGreg HottmanKSDOUGLAS BALDWINSiebar Service LLC|154 E 1287 RD|785-594-6510KS10-1264Lead Renovation FirmROBERT PRINGLE|ROB PRINGLEKSDOUGLAS BALDWIN CITYSCOTT''S REPAIR LLC|181 EAST 1575 RD|785-594-2584KS10-2225Lead Renovation FirmSCOTT BRADDOCKKSDOUGLAS EUDORA AIR BY KNIGHT LLC|1715 SYCAMORE CT|785-542-2628KS11-2345Lead Renovation FirmLARRY KNIGHT|JAMES HAMILTONKSDOUGLAS LAWRENCEAIRTIGHT ENERGY AUDITS|PO BOX 1961|785-727-0209KS11-2510Lead Renovation FirmROBERT COFFMAN|NANCY SCHWARTINGKSDOUGLAS LAWRENCEAPPLE TREE HOMES, INC.|2405 OXFORD ROAD|785-832-1414KS10-1424Lead Renovation FirmGREG RAU|CAROL RAUKSDOUGLAS LAWRENCEARTISAN FLOOR COMPANY|3507 W. 5TH TERR.|785-691-6117KS10-2131Lead Renovation FirmDUANE DORNKSDOUGLAS LAWRENCEDel Sol Electric LLC|494 N 1500 RD|785-887-9990KS10-1509Lead Renovation FirmJACOB KOZLOWSKIKSDOUGLAS LAWRENCEEDEN CONSTRUCTION|6332 CANDY LANE|303-720-2556KS11-2383Lead Renovation FirmJOSHUAH ALLENKSDOUGLAS LAWRENCEFIRST MANAGEMENT INC/FIRST CONSTRUCTION LLC|601 N IOWA|785-841-7333KS10-1892Lead Renovation FirmDOUG COMPTON|ROBERT GREENKSDOUGLAS LAWRENCEGREG SPRINGER HANDYMAN|1520 W. 27TH STREET|785-423-5367KS10-1866Lead Renovation FirmGREG SPRINGER|SAM SPRINGERKSDOUGLAS LAWRENCEJ&D SERVICES LLC|2602 BELLE HAVEN DRIVE|785-979-8756KS10-1569Lead Renovation FirmDAVID BALDWINKSDOUGLAS LAWRENCEN. B. REMODELING LLC D/B/A NATURAL BREEZE REMODELING|1440 WAKARUSA - SUITE 800|785-749-1855KS11-2469Lead Renovation FirmNEIL A. GASKIN|TERRY D FINTONKSDOUGLAS LAWRENCEPARADISE CARPET ONE FLOOR AND HOME|2108 WEST 27TH ST. SUITE E|785-856-8011KS11-2320Lead Renovation FirmLOUIS T DAVIS|BARBARA L DAVISKSDOUGLAS LAWRENCEPAUL DAVIS RESTORATION OF KANSAS CITY|1420 N 3RD STREET|785-842-0351KS12-10156Lead Renovation FirmJEFFREY S. GOLDMANKSDOUGLAS LAWRENCERICARDO COLIN|1120 RHODE ISLAND|785-380-1314KS12-2654Lead Renovation FirmRICARDO COLINKSDOUGLAS LAWRENCEROD WENGER INC.|1160 E 1135 RD|785-842-3357KS10-1865Lead Renovation FirmROD WENGERKSDOUGLAS LAWRENCESTF HANDYMAN|239 WISCONSIN|785-423-1148KS12-2601Lead Renovation FirmSHAUN FLYNNKSDOUGLAS LAWRENCESUNSET PAINTING CO.|453 ELDRIDGE ST.#C|785-313-1014KS10-2064Lead Renovation FirmTIM ORRKSDOUGLAS LawrenceKB PAINTING, LLC|1835 W 27th Terrace|785-423-4464KS10-2068Lead Renovation FirmKATE BOYDKSDickinson AbileneBrian Lady Construction|2980 Jeep Rd.|785-598-2375KS10-1733Lead Renovation FirmBrian LadyKSDickinson AbileneBuilt-Rite Construction Inc|1150 2000 Avenue|785-263-7410KS10-1769Lead Renovation FirmBlain C. VealKSDickinson AbileneEnger Construction|2891 Fair Rd.|785-388-2419KS10-1439Lead Renovation FirmBruce EngerKSDickinson AbileneGeske Interiors, Inc.|110 N. Cedar Street|785-263-7984KS10-1442Lead Renovation FirmTimothy Geske|Lucas Geske|Kathy GeskeKSDickinson AblileDeby's Finishing Touch|1500 Jayhawk Apr #B|785-263-7941KS12-2665Lead Renovation FirmDebra WilsonKSDodge LecomptonEric Wagner|1872 E. 850 Rd.|785-423-0649KS14-2888Lead Renovation FirmEric WagnerKSDouglas BaldwinA & H Air Conditioning and Heating Inc.|1717 College|785-594-3357KS10-2013Lead Renovation FirmAlan WrightKSDouglas Baldwin CityDriving Force, LLC|388 E 800 Rd|785-760-1170KS11-2407Lead Renovation FirmBrian GiblerKSDouglas Baldwin CityHarry North Construction|95 E 1300 Rd|785-594-3288KS11-2288Lead Renovation FirmHarry A  NorthKSDouglas Baldwin CityMorningstar Painting Services, Inc|1214 Palmyra Ct.|785-766-9900KS10-2142Lead Renovation FirmAndrew MorgensternKSDouglas Baldwin CityRon Randel|1529 N 300th|785-594-3877KS10-1805Lead Renovation FirmRon RandelKSDouglas Baldwin CityTS's Rental & Repairs, LLC|PO Box 362|931-216-1312KS13-2774Lead Renovation FirmTillie WoodKSDouglas LawrenceA-Team Home Improvment, LLC|506 E. 23rd St|785-856-3039KS14-2842Lead Renovation FirmWilliam Alan RectorKSDouglas LawrenceA. F. Hill Contracting|PO Box 1581|785-841-3689KS11-2426Lead Renovation FirmMark HillKSDouglas LawrenceA.B. Painting and Repair|2229 Killarney Ct.|785-331-6994KS10-1608Lead Renovation FirmAlan BeilgartKSDouglas LawrenceAlpha Roofing LLC|2736 Oregon St.|785-842-2676KS14-2814Lead Renovation FirmDarin LutzKSDouglas LawrenceAltenbernd & Associates|PO Box 1391|785-979-2499KS13-2748Lead Renovation FirmConrad W. AltenberndKSDouglas LawrenceArmor Exteriors|311 Minnesota|785-840-8902KS10-1475Lead Renovation FirmCharlie S. PerdueKSWEAVER VENTURES, LLC1018 W. 8TH ST.620-326-5977KS11-2540Lead Renovation Firm|AR|Garland|Royal|Windows USA, LLC|235 Sunshine Rd|501-767-4843|KS14-2925|Lead Renovation Firm|Eric Oliver|CA|ORANGE|IRVINE|COLLEGE WORKS PAINTING|1682 LANGLEY AVENUE|888-450-9675|KS11-2429|Lead Renovation Firm|SEAN PHELPS|CA|ORANGE|ORANGE|AMERICAN TECHNOLOGIES, INC.|210 BAYWOOD AVENUE|714-283-9990|KS11-2489|Lead Renovation Firm|GARY MOORE|CA|Sacramento|Gold River|Judson Enterprises Inc. dba K Designers|2440 Gold River Rd. Ste. 100|800-515-2788|KS10-1279|Lead Renovation Firm|Larry D. Judson|CO|Adams|Denver|Precision Siding & Construction Co.|7000 Broadway, 3-300|303-289-7952|KS10-1627|Lead Renovation Firm|Jeff Woodward|Kendall Woodward|CO|BOULDER|BOULDER|WEECYCLE ENVIRONMENTAL CONSULTING, INC.|5375 WESTERN AVE SUITE B|303-413-0452|KS11-2457|Lead Activity Firm|JUDITH SAWITSKY|LAUREN YORK|CO|Morgan|Ft. Morgan|ACR Construction|14521 CR 21|970-370-3122|KS10-1836|Lead Renovation Firm|Fred J. Romero|CO|na|Lamar|Tripple A Gutters & Construction|1706 S. 11th St #3|719-688-3666|KS14-2959|Lead Renovation Firm|Shane Poteet|FL|N/A|Fort Lauderdale|Seagull Environmental Management|900 NW 5th Ave|800-966-9933|KS14-2824|Lead Activity Firm|James Stump|FL|Volusia|Daytona Beach|Builder Services Group Inc.|260 Jimmy Ann Drive|386-304-2260|KS10-1516|Lead Renovation Firm|Patti Shaffer - Risk Operations|Joseph Bolduc - Director|GA|COBB|ATLANTA|HOME DEPOT USA, INC.|2455 PACES FERRY RD  C-11 COMPLIANCE|770-433-8211|KS11-2511|Lead Renovation Firm|VANN RILEY|GA|COBB|ATLANTA|THD AT-HOME SERVICE INC DBA THE HOME DEPOT AT-HOME SERVICES|2690 CUMBERLAND PKWY SUITE 300|770-779-1453|KS10-1239|Lead Renovation Firm|CHARLES HICKEY|PEGGY PAYNE|ERICA OGAARD|GA|COBB|SMYRNA|ROMANOFF FLOOR COVERING INC|3100 JONQUIL DR. SE|770-980-1234|KS12-2594|Lead Renovation Firm|MARK SIMPSON|AARON RIBNER|PAULA GEEKIE|GA|NA|Norcross|National Installation Solutions, Inc|4291 Communications Dr|678-325-4430|KS12-2671|Lead Renovation Firm|Hillary Evans|IA|BLACK HAWK|WATERLOO|ADVANCED ENVIRONMENTAL TESTING AND ABATEMENT, INC.|803 RICKER STREET|319-287-4447|KS12-2625|Lead Renovation Firm|MICHAEL MASSEY|IA||Waterloo|Advanced Environmental Testing and Abatement Inc.|803 Ricker Street|319-287-4447|KS12-2701|Lead Activity Firm|Michael Poe|IL|COOK|ARLINGTON HEIGHTS|G.S. FLOOR DESIGNS, INC|855 W UNIVERSITY DRIVE|847-394-4000|KS11-2526|Lead Renovation Firm|REGINA PINKSTON|IL|Rock Island|Rock Island|Ostrom Painting & Sandblasting, Inc.|1110 8th Avenue|309-788-1933|KS10-1847|Lead Renovation Firm|David Ostrom|KS|ALLEN|IOLA|GROW LLC|1018 MEADOWBROOK ROAD|620-365-6900|KS10-2180|Lead Renovation Firm|MONTY ROGERS|RYAN SPARKS|KS|ATCHISON|ATCHISON|MICHAEL S. HUNDLEY CONSTRUCTION INC.|1900 MAIN STREET|913-367-7059|KS13-10461|Lead Renovation Firm|MICHAEL S. HUNDLEY|SHANE M. HUNDLEY|KS|Allen|Gas|Burton's Property Management|118 N Taylor / PO Box 183|620-363-2007|KS10-2028|Lead Renovation Firm|Rick Burton|KS|Allen|Humboldt|Fewins Real Properties, LLC|1836 Alabama Rd.|620-431-3477|KS10-1883|Lead Renovation Firm|David Fewins|KS|Allen|Humboldt|Hofer & Hofer & Associates, Inc.|1201 N 10th Street|620-473-3919|KS11-2353|Lead Renovation Firm|Justin Wintjen|KS|Allen|Humboldt|Sparkles Cleaning and Painting|1001 Central|620-228-2048|KS10-1827|Lead Renovation Firm|Brenda Clark|KS|Allen|Iola|AK Construction LLC|1303 2200th St.|620-228-3260|KS10-1870|Lead Renovation Firm|Kirsten M. Weide|KS|Allen|Iola|Boren's Roofing|306 N State|620-365-7663|KS11-2279|Lead Renovation Firm|Ron Boren|Katy Boren|KS|Allen|LaHarpe|C & C Carpentry|1410 2600 St|620-496-6395|KS11-2354|Lead Renovation Firm|Nicholas R Chapman|KS|Allen|LaHarpe|Diebolt Lumber & Supply|2661 Nebraska Rd|620-496-2222|KS11-2271|Lead Renovation Firm|Don Diebolt|KS|An|Garnett|Crane Lift and Handyman Service|446 N Cedar|785-448-8203|KS11-2411|Lead Renovation Firm|Michael Crane|KS|Anderson|Garnett|ADM Construction|10467 NW 2300 Rd|785-233-2210|KS14-2922|Lead Renovation Firm|Allen P. Miller|KS|Anderson|Garnett|Keim & Sons Construction|29947 NW Kentucky Rd|785-448-3562|KS11-2272|Lead Renovation Firm|LaVern Keim|KS|Anderson|Garnett|Yutzy Construction LLC|26709 NW Louisianna Rd|785-248-1397|KS11-2261|Lead Renovation Firm|Daniel Yutzy|KS|Anderson|Richmond|KP Exteriors, LLC|33992 NW Jewel Rd|785-204-2705|KS14-2882|Lead Renovation Firm|Kenneth Pruitt|KS|Atchison|Atchison|Dave Lackey Painting|402 N. 14th|913-367-2862|KS10-1312|Lead Renovation Firm|David R. Lackey|KS|Atchison|Atchison|Deware Enterprises LLC|221 North 3rd St # 26|913-367-3750|KS14-2909|Lead Renovation Firm|David Deware|KS|Atchison|Atchison|Kearney Construction Inc|6199 Osage Rd.|913-367-1200|KS10-1844|Lead Renovation Firm|Gary Kearny Jr|KS|Atchison|Atchison|L & L Construction|16083-262nd Road|913-367-3161|KS10-1535|Lead Renovation Firm|Tesea Kearney|KS|Atchison|Cummings|Cummins & Sons, LLC|2438 Osborne Rd|913-370-0678|KS11-2428|Lead Renovation Firm|Daniel T Cummins II|KS|Atchison|Everest|Kimmi Construction|11029 Finney Rd|785-741-3170|KS10-1948|Lead Renovation Firm|Jason Kimmi|KS|BARTON|ELLINWOOD|TRINITY RESTORATION MOKAN INC|1107 NE 50 ROAD|620-564-3131|KS10-1813|Lead Renovation Firm|LAURA CLAYTON|KS|BARTON|GREAT BEND|MOSES PROPERTIES LLC|2015 FOREST AVE STE 205|620-792-8000|KS10-2136|Lead Renovation Firm|EARL MOSES|KS|BARTON|Great Bend|C & V HOME IMPROVEMENT, INC .|1107 10th St.|620-796-2500|KS10-1284|Lead Renovation Firm|MATT HOISINGTON|CLAUDIA WESNER|KS|BOURBON|FORT SCOTT|GREAT EXPECTATIONS RESTORATION, LLC|1201 S. NATIONAL AVE.|620-223-3090|KS12-2609|Lead Renovation Firm|MATTHEW WELLS|KS|BOURBON|FORT SCOTT|JERRY NAFZGER|1910 235TH|620-719-0385|KS10-2111|Lead Renovation Firm|JERRY NAFZGER|KS|BR|Hiawatha|Northeast Kansas Community Action Program, Inc.|1260 220th St., PO Box 380|785-742-2222 ext 251|KS10-1373|Lead Renovation Firm|Jack Shaefer|KS|BT|Ellinwood|Exterior Designs Inc.|102 S. Main St.|620-564-3716|KS10-1384|Lead Renovation Firm|Joe Curtiss|Glen Hertel|KS|BT|Ellinwood|Joiner Construction Inc.|PO Box 238|620-564-2818|KS10-1383|Lead Renovation Firm|Justin Joiner|KS|BT|GREAT BEND|THE SOUTHARD CORPORATION|1222 10TH|620-793-5434|KS10-1212|Lead Renovation Firm|JEFF FRY|MIKE SOUTHARD|KS|BT|Great Bend|L&N Contracting|622 W. Hwy 56|620-617-6696|KS10-1416|Lead Renovation Firm|Lonnie Philbern|KS|BT|HOISINGTON|CHRISTIANS SPECIALTIES INC.|532 NW 160 RD.|620-653-7684|KS10-1197|Lead Renovation Firm|RAYMOND CHRISTIANS|KS|BU|AUGUSTA|AEG Handyman Services|33 HUNTINGTON RD.|316-866-2728|KS10-1190|Lead Renovation Firm|LAWRENCE L. KEYSER|KS|BU|Augusta|CM Customworks, Inc.|9783 SW Santa Fe Lake Rd.|316-775-0643|KS10-1376|Lead Renovation Firm|Max Reimschesel|Cory Metzger|KS|BUTLER|AUGUSTA|PAGE CORPORATION|6333 SW SANTA FE LAKE RD|316-262-7200|KS10-1757|Lead Renovation Firm|MIKE PAGE|KYLE HOWARD|COLT PAGE|KS|Barber|Medicine Lodge|Prothe Enterprises|7741 SE IS HWY 281|620-886-5240|KS11-2557|Lead Renovation Firm|Craig M Prothe|KS|Barber|Medicine Lodge|Ruton Construction Inc.|207 W Stolp|620-886-3581|KS10-1546|Lead Renovation Firm|Mike Ruton|KS|Barton|Claflin|CenKan Lead Testing, LLC|1371 NE 190 Rd|620-282-3634|KS11-2346|Lead Activity Firm|kachina|KS|Barton|Ellinwood|Bryant Construction|111 E. 3rd St.|620-564-3412|KS10-1734|Lead Renovation Firm|Lyle W. Bryant|KS|Barton|Great Bend|"ART" Herren Home Repair|4206 Railroad Ave|620-793-8778|KS10-1637|Lead Renovation Firm|Arthur E. Herren|KS|Barton|Great Bend|Allen's Home Improvement|439 Kiowa Rd.|620-791-8345|KS10-1572|Lead Renovation Firm|Barry Allen|KS|Barton|Great Bend|CPS Home & Garden  DBA Jack the Handyman|5501 9th Street Lot 99|620-282-2819|KS15-3034|Lead Renovation Firm|Raza Manase|KS|Barton|Great Bend|Cusstem Painting & Contracting|622 West Hwy 56|620-791-7615|KS10-1520|Lead Renovation Firm|Luie Philbera|KS|Barton|Great Bend|Feist Construction|PO Box 314|620-792-2789|KS14-2942|Lead Renovation Firm|Dan Fiest|David Feist|KS|Barton|Great Bend|Parr Construction LLC|2101 US Highway 281 Bypass, PO Box 1778|620-792-7020|KS10-1848|Lead Renovation Firm|Doug Clark|KS|Barton|Great Bend|Rube's Inc.|5251 9th ST|620-793-6769|KS10-2141|Lead Renovation Firm|Brian L Pedigo|KS|Barton|Great Bend|Stueder Contractors, Inc.|3410 10th Street|620-792-6044|KS11-2474|Lead Renovation Firm|Terry Stueder|KS|Barton|Great Bend|TNT Renovations, Inc.|1400 18th St.|620-793-3450|KS10-1711|Lead Renovation Firm|Todd A. Smith|Theresa M. Smith|KS|Barton|Hoisington|TSI Laboratories|820 N Pine Street|620-603-0345|KS15-3022|Lead Renovation Firm|TSI Laboratories|Tigie Stephens|KS|Brown|Everest|D & M  Construction|1191 Prairie Rd|785-548-7582|KS10-1952|Lead Renovation Firm|Donald Nigh|KS|Brown|Fairview|Van's Electric|211 E. 1st St.|785-467-8380|KS10-1721|Lead Renovation Firm|Elvon VanDalsem|KS|Brown|Hiawatha|Aller's LLC|2089 Kingfisher Road|785-741-2000|KS10-1837|Lead Renovation Firm|Patrick Aller|KS|Brown|Hiawatha|Eagle Sundown Services|1114 Utah|785-288-0364|KS10-1821|Lead Renovation Firm|Roland Keller|KS|Brown|Hiawatha|Knudson Construction, Inc.|307 Choctaw Street|785-742-2415|KS10-1863|Lead Renovation Firm|Knute Knudson|KS|Brown|Hiawatha|Noel Boye Construction|309 Miami St.|785-547-7397|KS10-1587|Lead Renovation Firm|Noel Boye|KS|Brown|Hiawatha|Schuster Construction|2887 Killdeer Road|785-742-7556|KS10-2184|Lead Renovation Firm|Gerald Schuster|Ramona Schuster|KS|Brown|Hiawatha|Soden Const.|607 Pawnee|785-742-4276|KS10-2044|Lead Renovation Firm|Chad Soden|KS|Brown|Horton|Scott Rentals|1147 Central|785-486-3655|KS11-2405|Lead Renovation Firm|John M Scott|KS|Brown|Robinson|Siebenmorgen Excavating|2345 Prairie Rd|785-741-1820|KS10-2052|Lead Renovation Firm|Luke Siebenmorgen|KS|Butler|Andover|Bill Griffing Painting, Inc.|P.O. Box 1004|316-733-5201|KS10-2053|Lead Renovation Firm|Richard Nethercot|KS|Butler|Andover|Dennis Smith Construction|422 W 10th|316-393-8837|KS10-2162|Lead Renovation Firm|Dennis Smith|KS|Butler|Andover|Efficiency Exteriors, Inc.|13922 SW US 54 Hwy|316-733-6600|KS10-1522|Lead Renovation Firm|Linda Kitch|KS|Butler|Andover|Oliver Construction|1139 W. Sumac|316-393-8303|KS14-2886|Lead Renovation Firm|Phillip Oliver|KS|Butler|Andover|West & Co. Painting, LLC|401 W. Central|316-686-5155|KS10-1854|Lead Renovation Firm|Lawrence West|KS|Butler|Augusta|AEG Handyman Services, Inc|33 Huntington Rd.|316-866-2728|KS10-1372|Lead Renovation Firm|Lawrence L. Keyser|KS|Butler|Augusta|Elite Enterprises, Inc.|1405 S. Hwy 77, PO Box 552|316-841-2582|KS10-1438|Lead Renovation Firm|Stacey L. Bilson, President|John R. Bilson, Vice President|KS|Butler|Augusta|Farm & Home Services, L.L.C.|11202 S.W. 120th|316-775-3840|KS10-1882|Lead Renovation Firm|Craig W. Smith|KS|Butler|Augusta|Time Frame|607 Colleen St|316-201-1603|KS10-2043|Lead Renovation Firm|Jimmy L Parker|KS|Butler|Augusta|Tolbert Construction|1701 Deerborn Street|316-258-7977|KS13-2788|Lead Renovation Firm|Marion Wesley Tolbert IV|KS|Butler|Augusta|Wiseman & Associates, LLC|PO Box 517|316-253-5085|KS11-2524|Lead Renovation Firm|Ken Wiseman|Shannon Wiseman|KS|Butler|El Dorado|Briggs Home Inspection Co. L.L.C.|8876 NW Kelli Rd|316-323-4099|KS11-2282|Lead Renovation Firm|Trueman D Briggs|KS|Butler|El Dorado|Butler Home Improvements LLC|417 S Main|316-322-8880|KS10-1902|Lead Renovation Firm|Sarah Clements|KS|Butler|El Dorado|Eaton Construction|824 N. Atchison|316-323-2699|KS10-1775|Lead Renovation Firm|Zach Eaton|KS|Butler|El Dorado|Hendricks Construction Services|#8 NE Cole Creek Rd, PO Box 191|316-322-3937|KS10-1884|Lead Renovation Firm|Ron Hendricks|KS|Butler|El Dorado|Jedd Cliff|504 Race|316-322-5722|KS11-2443|Lead Renovation Firm|Jedd Cliff|KS|Butler|El Dorado|Mark II Builders|121 Jones St|316-321-7240|KS11-2495|Lead Renovation Firm|Mark W Long|KS|Butler|El Dorado|Scanlon Exteriors|507 N Summit|316-322-0432|KS12-2658|Lead Renovation Firm|Christopher J Scanlon|KS|Butler|El Dorado|Schwindt Remodeling|3515 W. Towanda Ave.|316-250-5387|KS10-1751|Lead Renovation Firm|Darren Schwindt|KS|Butler|El Dorado|Stricklin Remodeling, LLC|1720 Payton Circle|316-323-3498|KS10-1808|Lead Renovation Firm|Dennis Stricklin|KS|Butler|El Dorado|Trailwood Co., Inc.|615 N Main|316-321-6500|KS11-2472|Lead Renovation Firm|Eddie Dean|KS|Butler|El Dorado|USD 490, El Dorado Schools|124 W Central|316-322-4800|KS10-2197|Lead Renovation Firm|David W. Wagner- Director of Operations|KS|Butler|El Dorado|Wilkinson Construction LLC|1100 S Denver|316-321-0580|KS12-2647|Lead Renovation Firm|Wade Wilkinson|KS|Butler|Rose Hill|K Carpentry|13955 SW 150th|951-691-6395|KS11-2355|Lead Renovation Firm|Ken Kiser|KS|CD|CONCORDIA|GEISLER ROOFING INC.|908 E. 6TH|785-243-7298|KS10-1218|Lead Renovation Firm|STEVE GEISLER|MARK FRASER|KS|CD|CONCORDIA|SNELL CONTRACTING INC.|1590 N. 146TH RD.|785-243-5026|KS10-1220|Lead Renovation Firm|MITCHELL SNELL|KS|CL|ARKANSAS CITY|Morgan Painting|3441 302ND RD.|620-660-2151|KS10-1299|Lead Renovation Firm|JUSTIN R. MORGAN|KS|CLOUD|CONCORDIA|ACCENT EXTERIORS|415 E 14TH STREET|785-569-1375|KS12-2645|Lead Renovation Firm|JOSHUA SEYMOUR|KS|CLOUD|CONCORDIA|BILL''S REMODELING|625 E 16TH|785-243-4505|KS10-1314|Lead Renovation Firm|WILLIAM GIEBER|KS|CQ|Peru|Cowboy Contracting Inc.|761 Road 23|620-332-7011|KS10-1419|Lead Renovation Firm|Rhonda Adams|KS|CR|GIRARD|SEK-CAP INC.|401 N. SINNET|620-724-8204|KS10-1184|Lead Renovation Firm|STEVEN V. LOHR|KS|CRAWFORD|PITTSBURG|SERVICEMASTER OF SEK|2906 N OLD ROUSE|620-232-1230|KS10-1497|Lead Renovation Firm|RON SIEB|JUDY SIEB|KS|Chanute|Chanute|Eric's Painting|53 East 49th|620-431-3651|KS10-1871|Lead Renovation Firm|Eric Methuin|KS|Chase|Emporia|The Window Company|923 GARFIELD STREET|620-343-9110|KS10-1368|Lead Renovation Firm|Howard Magathan|KS|Cherokee|Columbus|Crossland Construction|833 SE Ave|620-429-1414|KS11-2375|Lead Renovation Firm|Clay Kubicek|KS|Cherokee|Columbus|Danco Contracting|2316 NW 5th|620-674-2264|KS11-2515|Lead Renovation Firm|Roger Daniels|KS|Cherokee|Crestline|Chris Palmer - Handyman|7063 SE Wren Lane|620-389-2314|KS14-2868|Lead Renovation Firm|Chris Palmer|KS|Cherokee|Riverton|Abernathy Construction|7635 SE Elderberry Lane|620-762-0488|KS14-2885|Lead Renovation Firm|Kenneth Darn Abernathy|KS|Cherokee|Scammon|Venson Enterprises, Inc.|P.O. Box 45|620-479-2982|KS10-1811|Lead Renovation Firm|Carol Venson|KS|Cherokee|Wien|M & K Construction|2346 NE Coal Valley Rd|620-396-8985|KS10-2194|Lead Renovation Firm|Matthew J Thomas|KS|Cheyenne|St. Francis|Jensen Construction|412 E. Spencer|785-332-3326|KS10-1579|Lead Renovation Firm|Roger L. Jensen|KS|Clark|Ashland|Mattoast Painting & Studio|703 1/2 Main St|620-635-2010|KS10-1934|Lead Renovation Firm|Matthew Habiger|KS|Clay|Claycomo|S&B Enterprises|36 South Drake|none|KS10-1663|Lead Renovation Firm|Bruce Batye|KS|Clay|Kansas City|Sickler Investment Company Inc|4900 NE 72nd St|913-360-2855|KS12-2698|Lead Renovation Firm|Richard Sickler|KS|Cloud|Concordia|Greg Wiesner Contruction|403 E. 9th|785-243-3714|KS10-1794|Lead Renovation Firm|Gregory John Wesner|KS|Cloud|Concordia|Linden Construction|213 W. 18th|785-243-6155|KS10-1694|Lead Renovation Firm|Mike Linden|KS|Cloud|Miltonvale|Cote Construction|2623 Camp Rd.|785-427-2471|KS10-1682|Lead Renovation Firm|Raymond Cote|KS|Coffey|Gridley|Countertop Trends LLC|406 Main St.|620-836-2311|KS10-1391|Lead Renovation Firm|Kara Beyer|KS|Coffey|Gridley|Countertop Trends LLC|406 Main St.|620-836-2311|KS10-1391|Lead Renovation Firm|Kara Beyer|KS|Coffey|Hartford|B & H Appliance Heating and Cooling|330 S 3rd St Jacobs Creek|620-634-8700|KS12-2616|Lead Renovation Firm|Mark Harris|KS|Coffey|New Strawn|Burris Roofing Inc./DBA HomeStyle Exteriors|308 Industrial|620-364-2154|KS10-1431|Lead Renovation Firm|Kenny Burris|Kristin Smith|KS|Coffey|Westphalia|Camelot Custom Wood Works, Inc.|314 Dobell|316-648-0088|KS10-2188|Lead Renovation Firm|James Price|KS|Cowley|Arkansas City|Ark City Glass|523 North Summit|620-442-2630|KS10-2059|Lead Renovation Firm|Brion Sandorhom|Cindy Sandorhom|KS|Cowley|Arkansas City|Green Associates|1326 ND|(620)446-2741|KS10-1485|Lead Renovation Firm|Sandra Randel|KS|Cowley|Arkansas City|Hinson Construction, LLC|26791 41st Road|620-441-0776|KS10-1822|Lead Renovation Firm|Kent L. Hinson|KS|Cowley|Arkansas City|USD 470|2545 Greenway|620-441-2000|KS11-2459|Lead Renovation Firm||KS|Cowley|Udall|D & D Electric, Inc.|4367 2nd Road|316-304-9001|KS10-1685|Lead Renovation Firm|Dennis Brack|Jeffery Norris|KS|Cowley|Winfield|Day Enterprises, LLC.|6 Leed Road|620-221-1562|KS10-1961|Lead Renovation Firm|Kenneth Day|KS|Cowley|Winfield|Finney Htg & Air Conditioning|112 E 8th Ave/ PO Box 465|620-221-9620|KS10-1927|Lead Renovation Firm|James Finney|KS|Cowley|Winfield|Higdon Painting|PO Box 248|620-221-3166|KS10-2073|Lead Renovation Firm|Jeffery S Higdon|KS|Cowley|Winfield|Hostetter Home Improvement|1606 Elizabeth|620-221-2770|KS14-2869|Lead Renovation Firm|Keith Hostetter|KS|Cowley|Winfield|Modernworks Construction Inc.|416 Ceder Lane Dr.|620-402-6205|KS10-1586|Lead Renovation Firm|Darcy Davis|KS|Cowley|Winfield|Mumford Contracting, LLC|321 Park Street|620-222-5841|KS14-2906|Lead Renovation Firm|Kansas Mumford|Leonard Mumford|KS|Cowley|Winfield|R. Long Associates LLC|714 Manning St.|620-221-4943|KS10-1826|Lead Renovation Firm|Rodney E. Long|KS|Cowley|Winfield|Winfield Public Schools USD 465|1407 Wheat RD|620-221-5100|KS15-3012|Lead Renovation Firm|Winfield Public Schools USD 465|Brian Meyer|KS|Crawford|Arma|Albert Ginardi|307 N West St|620-704-5283|KS10-2129|Lead Renovation Firm|Albert Ginardi|KS|Crawford|Frontenac|James Lawson Carpentry|1107 N. Linn|620-249-3698|KS14-2904|Lead Renovation Firm|James Lawson|KS|Crawford|Frontenac|Mid America Roofing & Construction|1035 North Highway 69|620-232-1678|KS05-1105|Lead Renovation Firm|Norman Miller|KS|Crawford|McCune|Earl L Hartman|961 S 87th St|620-632-4253|KS12-2637|Lead Renovation Firm|Earl Hartman|KS|Crawford|Pittsburg|Butler Rentals Inc.|810 W Euclid / PO Box 1411|620-404-8838|KS10-1958|Lead Renovation Firm|Charles R Butler|KS|Crawford|Pittsburg|CDL Electric / T & K Rental's|201 North Joplin|620-231-6420|KS10-1880|Lead Renovation Firm|Larry Seward Jr.|Gene Arnold|KS|Crawford|Pittsburg|CDL-Electric|201 North Joplin|620-231-6420|KS11-2391|Lead Renovation Firm|Gene Arnold-contact|KS|Crawford|Pittsburg|Doug Thomas Painting|204 S Walnut|620-249-2957|KS10-1966|Lead Renovation Firm|Douglass E Thomas|KS|Crawford|Pittsburg|Mike Stapleton|1302 Franklin Rd|6208753883|KS12-2629|Lead Renovation Firm|Mike Stapleton|KS|Crawford|Pittsburg|Qualls Construction|1709 N. Free King|620-704-1412|KS10-1803|Lead Renovation Firm|David Qualls|KS|Crawford|Pittsburg|Touchton Electric and Alarms, Inc.|111 N. Broadway|620-232-9294|KS10-1720|Lead Renovation Firm|David Touchton|KS|Crawford|Pittsburg|Yost Properties|105  W 4th|620-231-6190|KS10-1949|Lead Renovation Firm|Charles W Yost|KS|DG|BALDWIN CITY|HERITAGE WEATHERIZATION LLC|P.O. BOX 11|913-206-0613|KS10-1213|Lead Renovation Firm|JOSEPH L. SALB|KS|DG|Eudora|MAJAC Enterprises|1319 Tallgrass Dr.|816-365-7073|KS12-2600|Lead Renovation Firm|Aaron Haden|KS|DG|LAWRENCE|ABC Home Exteriors|1312 STONE MEADOWS DR.|785-232-7500|KS10-1182|Lead Renovation Firm|TOM NEUBURGER|KS|DG|Lawrence|Dunco Inc. dba Niehoff/Dunco Heating & Cooling|1729 Bullene Ave.|785-843-7137|KS10-1336|Lead Renovation Firm|Charles Wayne Duncan|KS|DG.|Lawrence|Dennis Brown Painting Inc.|806 Ohio|785-841-2460|KS10-1305|Lead Renovation Firm|Dennis J. Brown|KS|DICKINSON|ABILENE|MORTON DEVELOPMENT|503 NE 12TH ST.|785-200-1210|KS13-10557|Lead Renovation Firm|JASON MORTON|KS|DK|ABILENE|SMITH HEATING AND AIR CONDITIONING INC.|318 NE 14TH|785-263-2412|KS10-1186|Lead Renovation Firm|GREG HOTTMAN|KS|DK|Abilene|Four Seasons Inc.|1202 NW 5th|785-263-2922|KS11-2441|Lead Renovation Firm|Mike Meuli-Contact|Steve Rindt-Owner|KS|DK|Abilene|M & R Building|2560 Daisy Rd.|785-263-3043|KS10-1272|Lead Renovation Firm|Matt Elliott|KS|DK|Abilene|Smith Heating & Air Conditioning, Inc.|318 N.E. 14th|785-263-2412|KS10-1273|Lead Renovation Firm|Greg Hottman|KS|DOUGLAS|BALDWIN|Siebar Service LLC|154 E 1287 RD|785-594-6510|KS10-1264|Lead Renovation Firm|ROBERT PRINGLE|ROB PRINGLE|KS|DOUGLAS|BALDWIN CITY|SCOTT''S REPAIR LLC|181 EAST 1575 RD|785-594-2584|KS10-2225|Lead Renovation Firm|SCOTT BRADDOCK|KS|DOUGLAS|EUDORA|AIR BY KNIGHT LLC|1715 SYCAMORE CT|785-542-2628|KS11-2345|Lead Renovation Firm|LARRY KNIGHT|JAMES HAMILTON|KS|DOUGLAS|LAWRENCE|AIRTIGHT ENERGY AUDITS|PO BOX 1961|785-727-0209|KS11-2510|Lead Renovation Firm|ROBERT COFFMAN|NANCY SCHWARTING|KS|DOUGLAS|LAWRENCE|APPLE TREE HOMES, INC.|2405 OXFORD ROAD|785-832-1414|KS10-1424|Lead Renovation Firm|GREG RAU|CAROL RAU|KS|DOUGLAS|LAWRENCE|ARTISAN FLOOR COMPANY|3507 W. 5TH TERR.|785-691-6117|KS10-2131|Lead Renovation Firm|DUANE DORN|KS|DOUGLAS|LAWRENCE|Del Sol Electric LLC|494 N 1500 RD|785-887-9990|KS10-1509|Lead Renovation Firm|JACOB KOZLOWSKI|KS|DOUGLAS|LAWRENCE|EDEN CONSTRUCTION|6332 CANDY LANE|303-720-2556|KS11-2383|Lead Renovation Firm|JOSHUAH ALLEN|KS|DOUGLAS|LAWRENCE|FIRST MANAGEMENT INC/FIRST CONSTRUCTION LLC|601 N IOWA|785-841-7333|KS10-1892|Lead Renovation Firm|DOUG COMPTON|ROBERT GREEN|KS|DOUGLAS|LAWRENCE|GREG SPRINGER HANDYMAN|1520 W. 27TH STREET|785-423-5367|KS10-1866|Lead Renovation Firm|GREG SPRINGER|SAM SPRINGER|KS|DOUGLAS|LAWRENCE|J&D SERVICES LLC|2602 BELLE HAVEN DRIVE|785-979-8756|KS10-1569|Lead Renovation Firm|DAVID BALDWIN|KS|DOUGLAS|LAWRENCE|N. B. REMODELING LLC D/B/A NATURAL BREEZE REMODELING|1440 WAKARUSA - SUITE 800|785-749-1855|KS11-2469|Lead Renovation Firm|NEIL A. GASKIN|TERRY D FINTON|KS|DOUGLAS|LAWRENCE|PARADISE CARPET ONE FLOOR AND HOME|2108 WEST 27TH ST. SUITE E|785-856-8011|KS11-2320|Lead Renovation Firm|LOUIS T DAVIS|BARBARA L DAVIS|KS|DOUGLAS|LAWRENCE|PAUL DAVIS RESTORATION OF KANSAS CITY|1420 N 3RD STREET|785-842-0351|KS12-10156|Lead Renovation Firm|JEFFREY S. GOLDMAN|KS|DOUGLAS|LAWRENCE|RICARDO COLIN|1120 RHODE ISLAND|785-380-1314|KS12-2654|Lead Renovation Firm|RICARDO COLIN|KS|DOUGLAS|LAWRENCE|ROD WENGER INC.|1160 E 1135 RD|785-842-3357|KS10-1865|Lead Renovation Firm|ROD WENGER|KS|DOUGLAS|LAWRENCE|STF HANDYMAN|239 WISCONSIN|785-423-1148|KS12-2601|Lead Renovation Firm|SHAUN FLYNN|KS|DOUGLAS|LAWRENCE|SUNSET PAINTING CO.|453 ELDRIDGE ST.#C|785-313-1014|KS10-2064|Lead Renovation Firm|TIM ORR|KS|DOUGLAS|Lawrence|KB PAINTING, LLC|1835 W 27th Terrace|785-423-4464|KS10-2068|Lead Renovation Firm|KATE BOYD|KS|Dickinson|Abilene|Brian Lady Construction|2980 Jeep Rd.|785-598-2375|KS10-1733|Lead Renovation Firm|Brian Lady|KS|Dickinson|Abilene|Built-Rite Construction Inc|1150 2000 Avenue|785-263-7410|KS10-1769|Lead Renovation Firm|Blain C. Veal|KS|Dickinson|Abilene|Enger Construction|2891 Fair Rd.|785-388-2419|KS10-1439|Lead Renovation Firm|Bruce Enger|KS|Dickinson|Abilene|Geske Interiors, Inc.|110 N. Cedar Street|785-263-7984|KS10-1442|Lead Renovation Firm|Timothy Geske|Lucas Geske|Kathy Geske|KS|Dickinson|Ablile|Deby's Finishing Touch|1500 Jayhawk Apr #B|785-263-7941|KS12-2665|Lead Renovation Firm|Debra Wilson|KS|Dodge|Lecompton|Eric Wagner|1872 E. 850 Rd.|785-423-0649|KS14-2888|Lead Renovation Firm|Eric Wagner|KS|Douglas|Baldwin|A & H Air Conditioning and Heating Inc.|1717 College|785-594-3357|KS10-2013|Lead Renovation Firm|Alan Wright|KS|Douglas|Baldwin City|Driving Force, LLC|388 E 800 Rd|785-760-1170|KS11-2407|Lead Renovation Firm|Brian Gibler|KS|Douglas|Baldwin City|Harry North Construction|95 E 1300 Rd|785-594-3288|KS11-2288|Lead Renovation Firm|Harry A  North|KS|Douglas|Baldwin City|Morningstar Painting Services, Inc|1214 Palmyra Ct.|785-766-9900|KS10-2142|Lead Renovation Firm|Andrew Morgenstern|KS|Douglas|Baldwin City|Ron Randel|1529 N 300th|785-594-3877|KS10-1805|Lead Renovation Firm|Ron Randel|KS|Douglas|Baldwin City|TS's Rental & Repairs, LLC|PO Box 362|931-216-1312|KS13-2774|Lead Renovation Firm|Tillie Wood|KS|Douglas|Lawrence|A-Team Home Improvment, LLC|506 E. 23rd St|785-856-3039|KS14-2842|Lead Renovation Firm|William Alan Rector|KS|Douglas|Lawrence|A. F. Hill Contracting|PO Box 1581|785-841-3689|KS11-2426|Lead Renovation Firm|Mark Hill|KS|Douglas|Lawrence|A.B. Painting and Repair|2229 Killarney Ct.|785-331-6994|KS10-1608|Lead Renovation Firm|Alan Beilgart|KS|Douglas|Lawrence|Alpha Roofing LLC|2736 Oregon St.|785-842-2676|KS14-2814|Lead Renovation Firm|Darin Lutz|KS|Douglas|Lawrence|Altenbernd & Associates|PO Box 1391|785-979-2499|KS13-2748|Lead Renovation Firm|Conrad W. Altenbernd|KS|Douglas|Lawrence|Armor Exteriors|311 Minnesota|785-840-8902|KS10-1475|Lead Renovation Firm|Charlie S. Perdue|KS|KS11-2540|Lead Renovation Firm
1|AR|Garland|Royal|Windows USA, LLC|235 Sunshine Rd|501-767-4843|KS14-2925|Lead Renovation Firm|Eric Oliver
1|CA|ORANGE|IRVINE|COLLEGE WORKS PAINTING|1682 LANGLEY AVENUE|888-450-9675|KS11-2429|Lead Renovation Firm|SEAN PHELPS
1|CA|ORANGE|ORANGE|AMERICAN TECHNOLOGIES, INC.|210 BAYWOOD AVENUE|714-283-9990|KS11-2489|Lead Renovation Firm|GARY MOORE
1|CA|Sacramento|Gold River|Judson Enterprises Inc. dba K Designers|2440 Gold River Rd. Ste. 100|800-515-2788|KS10-1279|Lead Renovation Firm|Larry D. Judson
1|CO|Adams|Denver|Precision Siding & Construction Co.|7000 Broadway, 3-300|303-289-7952|KS10-1627|Lead Renovation Firm|Jeff Woodward|Kendall Woodward
1|CO|BOULDER|BOULDER|WEECYCLE ENVIRONMENTAL CONSULTING, INC.|5375 WESTERN AVE SUITE B|303-413-0452|KS11-2457|Lead Activity Firm|JUDITH SAWITSKY|LAUREN YORK
1|CO|Morgan|Ft. Morgan|ACR Construction|14521 CR 21|970-370-3122|KS10-1836|Lead Renovation Firm|Fred J. Romero
1|CO|na|Lamar|Tripple A Gutters & Construction|1706 S. 11th St #3|719-688-3666|KS14-2959|Lead Renovation Firm|Shane Poteet
1|FL|N/A|Fort Lauderdale|Seagull Environmental Management|900 NW 5th Ave|800-966-9933|KS14-2824|Lead Activity Firm|James Stump
1|FL|Volusia|Daytona Beach|Builder Services Group Inc.|260 Jimmy Ann Drive|386-304-2260|KS10-1516|Lead Renovation Firm|Patti Shaffer - Risk Operations|Joseph Bolduc - Director
1|GA|COBB|ATLANTA|HOME DEPOT USA, INC.|2455 PACES FERRY RD  C-11 COMPLIANCE|770-433-8211|KS11-2511|Lead Renovation Firm|VANN RILEY
1|GA|COBB|ATLANTA|THD AT-HOME SERVICE INC DBA THE HOME DEPOT AT-HOME SERVICES|2690 CUMBERLAND PKWY SUITE 300|770-779-1453|KS10-1239|Lead Renovation Firm|CHARLES HICKEY|PEGGY PAYNE|ERICA OGAARD
1|GA|COBB|SMYRNA|ROMANOFF FLOOR COVERING INC|3100 JONQUIL DR. SE|770-980-1234|KS12-2594|Lead Renovation Firm|MARK SIMPSON|AARON RIBNER|PAULA GEEKIE
1|GA|NA|Norcross|National Installation Solutions, Inc|4291 Communications Dr|678-325-4430|KS12-2671|Lead Renovation Firm|Hillary Evans
1|IA|BLACK HAWK|WATERLOO|ADVANCED ENVIRONMENTAL TESTING AND ABATEMENT, INC.|803 RICKER STREET|319-287-4447|KS12-2625|Lead Renovation Firm|MICHAEL MASSEY
1|IA||Waterloo|Advanced Environmental Testing and Abatement Inc.|803 Ricker Street|319-287-4447|KS12-2701|Lead Activity Firm|Michael Poe
1|IL|COOK|ARLINGTON HEIGHTS|G.S. FLOOR DESIGNS, INC|855 W UNIVERSITY DRIVE|847-394-4000|KS11-2526|Lead Renovation Firm|REGINA PINKSTON
1|IL|Rock Island|Rock Island|Ostrom Painting & Sandblasting, Inc.|1110 8th Avenue|309-788-1933|KS10-1847|Lead Renovation Firm|David Ostrom
1|KS|ALLEN|IOLA|GROW LLC|1018 MEADOWBROOK ROAD|620-365-6900|KS10-2180|Lead Renovation Firm|MONTY ROGERS|RYAN SPARKS
1|KS|ATCHISON|ATCHISON|MICHAEL S. HUNDLEY CONSTRUCTION INC.|1900 MAIN STREET|913-367-7059|KS13-10461|Lead Renovation Firm|MICHAEL S. HUNDLEY|SHANE M. HUNDLEY
1|KS|Allen|Gas|Burton's Property Management|118 N Taylor / PO Box 183|620-363-2007|KS10-2028|Lead Renovation Firm|Rick Burton
1|KS|Allen|Humboldt|Fewins Real Properties, LLC|1836 Alabama Rd.|620-431-3477|KS10-1883|Lead Renovation Firm|David Fewins
1|KS|Allen|Humboldt|Hofer & Hofer & Associates, Inc.|1201 N 10th Street|620-473-3919|KS11-2353|Lead Renovation Firm|Justin Wintjen
1|KS|Allen|Humboldt|Sparkles Cleaning and Painting|1001 Central|620-228-2048|KS10-1827|Lead Renovation Firm|Brenda Clark
1|KS|Allen|Iola|AK Construction LLC|1303 2200th St.|620-228-3260|KS10-1870|Lead Renovation Firm|Kirsten M. Weide
1|KS|Allen|Iola|Boren's Roofing|306 N State|620-365-7663|KS11-2279|Lead Renovation Firm|Ron Boren|Katy Boren
1|KS|Allen|LaHarpe|C & C Carpentry|1410 2600 St|620-496-6395|KS11-2354|Lead Renovation Firm|Nicholas R Chapman
1|KS|Allen|LaHarpe|Diebolt Lumber & Supply|2661 Nebraska Rd|620-496-2222|KS11-2271|Lead Renovation Firm|Don Diebolt
1|KS|An|Garnett|Crane Lift and Handyman Service|446 N Cedar|785-448-8203|KS11-2411|Lead Renovation Firm|Michael Crane
1|KS|Anderson|Garnett|ADM Construction|10467 NW 2300 Rd|785-233-2210|KS14-2922|Lead Renovation Firm|Allen P. Miller
1|KS|Anderson|Garnett|Keim & Sons Construction|29947 NW Kentucky Rd|785-448-3562|KS11-2272|Lead Renovation Firm|LaVern Keim
1|KS|Anderson|Garnett|Yutzy Construction LLC|26709 NW Louisianna Rd|785-248-1397|KS11-2261|Lead Renovation Firm|Daniel Yutzy
1|KS|Anderson|Richmond|KP Exteriors, LLC|33992 NW Jewel Rd|785-204-2705|KS14-2882|Lead Renovation Firm|Kenneth Pruitt
1|KS|Atchison|Atchison|Dave Lackey Painting|402 N. 14th|913-367-2862|KS10-1312|Lead Renovation Firm|David R. Lackey
1|KS|Atchison|Atchison|Deware Enterprises LLC|221 North 3rd St # 26|913-367-3750|KS14-2909|Lead Renovation Firm|David Deware
1|KS|Atchison|Atchison|Kearney Construction Inc|6199 Osage Rd.|913-367-1200|KS10-1844|Lead Renovation Firm|Gary Kearny Jr
1|KS|Atchison|Atchison|L & L Construction|16083-262nd Road|913-367-3161|KS10-1535|Lead Renovation Firm|Tesea Kearney
1|KS|Atchison|Cummings|Cummins & Sons, LLC|2438 Osborne Rd|913-370-0678|KS11-2428|Lead Renovation Firm|Daniel T Cummins II
1|KS|Atchison|Everest|Kimmi Construction|11029 Finney Rd|785-741-3170|KS10-1948|Lead Renovation Firm|Jason Kimmi
1|KS|BARTON|ELLINWOOD|TRINITY RESTORATION MOKAN INC|1107 NE 50 ROAD|620-564-3131|KS10-1813|Lead Renovation Firm|LAURA CLAYTON
1|KS|BARTON|GREAT BEND|MOSES PROPERTIES LLC|2015 FOREST AVE STE 205|620-792-8000|KS10-2136|Lead Renovation Firm|EARL MOSES
1|KS|BARTON|Great Bend|C & V HOME IMPROVEMENT, INC .|1107 10th St.|620-796-2500|KS10-1284|Lead Renovation Firm|MATT HOISINGTON|CLAUDIA WESNER
1|KS|BOURBON|FORT SCOTT|GREAT EXPECTATIONS RESTORATION, LLC|1201 S. NATIONAL AVE.|620-223-3090|KS12-2609|Lead Renovation Firm|MATTHEW WELLS
1|KS|BOURBON|FORT SCOTT|JERRY NAFZGER|1910 235TH|620-719-0385|KS10-2111|Lead Renovation Firm|JERRY NAFZGER
1|KS|BR|Hiawatha|Northeast Kansas Community Action Program, Inc.|1260 220th St., PO Box 380|785-742-2222 ext 251|KS10-1373|Lead Renovation Firm|Jack Shaefer
1|KS|BT|Ellinwood|Exterior Designs Inc.|102 S. Main St.|620-564-3716|KS10-1384|Lead Renovation Firm|Joe Curtiss|Glen Hertel
1|KS|BT|Ellinwood|Joiner Construction Inc.|PO Box 238|620-564-2818|KS10-1383|Lead Renovation Firm|Justin Joiner
1|KS|BT|GREAT BEND|THE SOUTHARD CORPORATION|1222 10TH|620-793-5434|KS10-1212|Lead Renovation Firm|JEFF FRY|MIKE SOUTHARD
1|KS|BT|Great Bend|L&N Contracting|622 W. Hwy 56|620-617-6696|KS10-1416|Lead Renovation Firm|Lonnie Philbern
1|KS|BT|HOISINGTON|CHRISTIANS SPECIALTIES INC.|532 NW 160 RD.|620-653-7684|KS10-1197|Lead Renovation Firm|RAYMOND CHRISTIANS
1|KS|BU|AUGUSTA|AEG Handyman Services|33 HUNTINGTON RD.|316-866-2728|KS10-1190|Lead Renovation Firm|LAWRENCE L. KEYSER
1|KS|BU|Augusta|CM Customworks, Inc.|9783 SW Santa Fe Lake Rd.|316-775-0643|KS10-1376|Lead Renovation Firm|Max Reimschesel|Cory Metzger
1|KS|BUTLER|AUGUSTA|PAGE CORPORATION|6333 SW SANTA FE LAKE RD|316-262-7200|KS10-1757|Lead Renovation Firm|MIKE PAGE|KYLE HOWARD|COLT PAGE
1|KS|Barber|Medicine Lodge|Prothe Enterprises|7741 SE IS HWY 281|620-886-5240|KS11-2557|Lead Renovation Firm|Craig M Prothe
1|KS|Barber|Medicine Lodge|Ruton Construction Inc.|207 W Stolp|620-886-3581|KS10-1546|Lead Renovation Firm|Mike Ruton
1|KS|Barton|Claflin|CenKan Lead Testing, LLC|1371 NE 190 Rd|620-282-3634|KS11-2346|Lead Activity Firm|kachina
1|KS|Barton|Ellinwood|Bryant Construction|111 E. 3rd St.|620-564-3412|KS10-1734|Lead Renovation Firm|Lyle W. Bryant
1|KS|Barton|Great Bend|"ART" Herren Home Repair|4206 Railroad Ave|620-793-8778|KS10-1637|Lead Renovation Firm|Arthur E. Herren
1|KS|Barton|Great Bend|Allen's Home Improvement|439 Kiowa Rd.|620-791-8345|KS10-1572|Lead Renovation Firm|Barry Allen
1|KS|Barton|Great Bend|CPS Home & Garden  DBA Jack the Handyman|5501 9th Street Lot 99|620-282-2819|KS15-3034|Lead Renovation Firm|Raza Manase
1|KS|Barton|Great Bend|Cusstem Painting & Contracting|622 West Hwy 56|620-791-7615|KS10-1520|Lead Renovation Firm|Luie Philbera
1|KS|Barton|Great Bend|Feist Construction|PO Box 314|620-792-2789|KS14-2942|Lead Renovation Firm|Dan Fiest|David Feist
1|KS|Barton|Great Bend|Parr Construction LLC|2101 US Highway 281 Bypass, PO Box 1778|620-792-7020|KS10-1848|Lead Renovation Firm|Doug Clark
1|KS|Barton|Great Bend|Rube's Inc.|5251 9th ST|620-793-6769|KS10-2141|Lead Renovation Firm|Brian L Pedigo
1|KS|Barton|Great Bend|Stueder Contractors, Inc.|3410 10th Street|620-792-6044|KS11-2474|Lead Renovation Firm|Terry Stueder
1|KS|Barton|Great Bend|TNT Renovations, Inc.|1400 18th St.|620-793-3450|KS10-1711|Lead Renovation Firm|Todd A. Smith|Theresa M. Smith
1|KS|Barton|Hoisington|TSI Laboratories|820 N Pine Street|620-603-0345|KS15-3022|Lead Renovation Firm|TSI Laboratories|Tigie Stephens
1|KS|Brown|Everest|D & M  Construction|1191 Prairie Rd|785-548-7582|KS10-1952|Lead Renovation Firm|Donald Nigh
1|KS|Brown|Fairview|Van's Electric|211 E. 1st St.|785-467-8380|KS10-1721|Lead Renovation Firm|Elvon VanDalsem
1|KS|Brown|Hiawatha|Aller's LLC|2089 Kingfisher Road|785-741-2000|KS10-1837|Lead Renovation Firm|Patrick Aller
1|KS|Brown|Hiawatha|Eagle Sundown Services|1114 Utah|785-288-0364|KS10-1821|Lead Renovation Firm|Roland Keller
1|KS|Brown|Hiawatha|Knudson Construction, Inc.|307 Choctaw Street|785-742-2415|KS10-1863|Lead Renovation Firm|Knute Knudson
1|KS|Brown|Hiawatha|Noel Boye Construction|309 Miami St.|785-547-7397|KS10-1587|Lead Renovation Firm|Noel Boye
1|KS|Brown|Hiawatha|Schuster Construction|2887 Killdeer Road|785-742-7556|KS10-2184|Lead Renovation Firm|Gerald Schuster|Ramona Schuster
1|KS|Brown|Hiawatha|Soden Const.|607 Pawnee|785-742-4276|KS10-2044|Lead Renovation Firm|Chad Soden
1|KS|Brown|Horton|Scott Rentals|1147 Central|785-486-3655|KS11-2405|Lead Renovation Firm|John M Scott
1|KS|Brown|Robinson|Siebenmorgen Excavating|2345 Prairie Rd|785-741-1820|KS10-2052|Lead Renovation Firm|Luke Siebenmorgen
1|KS|Butler|Andover|Bill Griffing Painting, Inc.|P.O. Box 1004|316-733-5201|KS10-2053|Lead Renovation Firm|Richard Nethercot
1|KS|Butler|Andover|Dennis Smith Construction|422 W 10th|316-393-8837|KS10-2162|Lead Renovation Firm|Dennis Smith
1|KS|Butler|Andover|Efficiency Exteriors, Inc.|13922 SW US 54 Hwy|316-733-6600|KS10-1522|Lead Renovation Firm|Linda Kitch
1|KS|Butler|Andover|Oliver Construction|1139 W. Sumac|316-393-8303|KS14-2886|Lead Renovation Firm|Phillip Oliver
1|KS|Butler|Andover|West & Co. Painting, LLC|401 W. Central|316-686-5155|KS10-1854|Lead Renovation Firm|Lawrence West
1|KS|Butler|Augusta|AEG Handyman Services, Inc|33 Huntington Rd.|316-866-2728|KS10-1372|Lead Renovation Firm|Lawrence L. Keyser
1|KS|Butler|Augusta|Elite Enterprises, Inc.|1405 S. Hwy 77, PO Box 552|316-841-2582|KS10-1438|Lead Renovation Firm|Stacey L. Bilson, President|John R. Bilson, Vice President
1|KS|Butler|Augusta|Farm & Home Services, L.L.C.|11202 S.W. 120th|316-775-3840|KS10-1882|Lead Renovation Firm|Craig W. Smith
1|KS|Butler|Augusta|Time Frame|607 Colleen St|316-201-1603|KS10-2043|Lead Renovation Firm|Jimmy L Parker
1|KS|Butler|Augusta|Tolbert Construction|1701 Deerborn Street|316-258-7977|KS13-2788|Lead Renovation Firm|Marion Wesley Tolbert IV
1|KS|Butler|Augusta|Wiseman & Associates, LLC|PO Box 517|316-253-5085|KS11-2524|Lead Renovation Firm|Ken Wiseman|Shannon Wiseman
1|KS|Butler|El Dorado|Briggs Home Inspection Co. L.L.C.|8876 NW Kelli Rd|316-323-4099|KS11-2282|Lead Renovation Firm|Trueman D Briggs
1|KS|Butler|El Dorado|Butler Home Improvements LLC|417 S Main|316-322-8880|KS10-1902|Lead Renovation Firm|Sarah Clements
1|KS|Butler|El Dorado|Eaton Construction|824 N. Atchison|316-323-2699|KS10-1775|Lead Renovation Firm|Zach Eaton
1|KS|Butler|El Dorado|Hendricks Construction Services|#8 NE Cole Creek Rd, PO Box 191|316-322-3937|KS10-1884|Lead Renovation Firm|Ron Hendricks
1|KS|Butler|El Dorado|Jedd Cliff|504 Race|316-322-5722|KS11-2443|Lead Renovation Firm|Jedd Cliff
1|KS|Butler|El Dorado|Mark II Builders|121 Jones St|316-321-7240|KS11-2495|Lead Renovation Firm|Mark W Long
1|KS|Butler|El Dorado|Scanlon Exteriors|507 N Summit|316-322-0432|KS12-2658|Lead Renovation Firm|Christopher J Scanlon
1|KS|Butler|El Dorado|Schwindt Remodeling|3515 W. Towanda Ave.|316-250-5387|KS10-1751|Lead Renovation Firm|Darren Schwindt
1|KS|Butler|El Dorado|Stricklin Remodeling, LLC|1720 Payton Circle|316-323-3498|KS10-1808|Lead Renovation Firm|Dennis Stricklin
1|KS|Butler|El Dorado|Trailwood Co., Inc.|615 N Main|316-321-6500|KS11-2472|Lead Renovation Firm|Eddie Dean
1|KS|Butler|El Dorado|USD 490, El Dorado Schools|124 W Central|316-322-4800|KS10-2197|Lead Renovation Firm|David W. Wagner- Director of Operations
1|KS|Butler|El Dorado|Wilkinson Construction LLC|1100 S Denver|316-321-0580|KS12-2647|Lead Renovation Firm|Wade Wilkinson
1|KS|Butler|Rose Hill|K Carpentry|13955 SW 150th|951-691-6395|KS11-2355|Lead Renovation Firm|Ken Kiser
1|KS|CD|CONCORDIA|GEISLER ROOFING INC.|908 E. 6TH|785-243-7298|KS10-1218|Lead Renovation Firm|STEVE GEISLER|MARK FRASER
1|KS|CD|CONCORDIA|SNELL CONTRACTING INC.|1590 N. 146TH RD.|785-243-5026|KS10-1220|Lead Renovation Firm|MITCHELL SNELL
1|KS|CL|ARKANSAS CITY|Morgan Painting|3441 302ND RD.|620-660-2151|KS10-1299|Lead Renovation Firm|JUSTIN R. MORGAN
1|KS|CLOUD|CONCORDIA|ACCENT EXTERIORS|415 E 14TH STREET|785-569-1375|KS12-2645|Lead Renovation Firm|JOSHUA SEYMOUR
1|KS|CLOUD|CONCORDIA|BILL''S REMODELING|625 E 16TH|785-243-4505|KS10-1314|Lead Renovation Firm|WILLIAM GIEBER
1|KS|CQ|Peru|Cowboy Contracting Inc.|761 Road 23|620-332-7011|KS10-1419|Lead Renovation Firm|Rhonda Adams
1|KS|CR|GIRARD|SEK-CAP INC.|401 N. SINNET|620-724-8204|KS10-1184|Lead Renovation Firm|STEVEN V. LOHR
1|KS|CRAWFORD|PITTSBURG|SERVICEMASTER OF SEK|2906 N OLD ROUSE|620-232-1230|KS10-1497|Lead Renovation Firm|RON SIEB|JUDY SIEB
1|KS|Chanute|Chanute|Eric's Painting|53 East 49th|620-431-3651|KS10-1871|Lead Renovation Firm|Eric Methuin
1|KS|Chase|Emporia|The Window Company|923 GARFIELD STREET|620-343-9110|KS10-1368|Lead Renovation Firm|Howard Magathan
1|KS|Cherokee|Columbus|Crossland Construction|833 SE Ave|620-429-1414|KS11-2375|Lead Renovation Firm|Clay Kubicek
1|KS|Cherokee|Columbus|Danco Contracting|2316 NW 5th|620-674-2264|KS11-2515|Lead Renovation Firm|Roger Daniels
1|KS|Cherokee|Crestline|Chris Palmer - Handyman|7063 SE Wren Lane|620-389-2314|KS14-2868|Lead Renovation Firm|Chris Palmer
1|KS|Cherokee|Riverton|Abernathy Construction|7635 SE Elderberry Lane|620-762-0488|KS14-2885|Lead Renovation Firm|Kenneth Darn Abernathy
1|KS|Cherokee|Scammon|Venson Enterprises, Inc.|P.O. Box 45|620-479-2982|KS10-1811|Lead Renovation Firm|Carol Venson
1|KS|Cherokee|Wien|M & K Construction|2346 NE Coal Valley Rd|620-396-8985|KS10-2194|Lead Renovation Firm|Matthew J Thomas
1|KS|Cheyenne|St. Francis|Jensen Construction|412 E. Spencer|785-332-3326|KS10-1579|Lead Renovation Firm|Roger L. Jensen
1|KS|Clark|Ashland|Mattoast Painting & Studio|703 1/2 Main St|620-635-2010|KS10-1934|Lead Renovation Firm|Matthew Habiger
1|KS|Clay|Claycomo|S&B Enterprises|36 South Drake|none|KS10-1663|Lead Renovation Firm|Bruce Batye
1|KS|Clay|Kansas City|Sickler Investment Company Inc|4900 NE 72nd St|913-360-2855|KS12-2698|Lead Renovation Firm|Richard Sickler
1|KS|Cloud|Concordia|Greg Wiesner Contruction|403 E. 9th|785-243-3714|KS10-1794|Lead Renovation Firm|Gregory John Wesner
1|KS|Cloud|Concordia|Linden Construction|213 W. 18th|785-243-6155|KS10-1694|Lead Renovation Firm|Mike Linden
1|KS|Cloud|Miltonvale|Cote Construction|2623 Camp Rd.|785-427-2471|KS10-1682|Lead Renovation Firm|Raymond Cote
1|KS|Coffey|Gridley|Countertop Trends LLC|406 Main St.|620-836-2311|KS10-1391|Lead Renovation Firm|Kara Beyer
1|KS|Coffey|Gridley|Countertop Trends LLC|406 Main St.|620-836-2311|KS10-1391|Lead Renovation Firm|Kara Beyer
1|KS|Coffey|Hartford|B & H Appliance Heating and Cooling|330 S 3rd St Jacobs Creek|620-634-8700|KS12-2616|Lead Renovation Firm|Mark Harris
1|KS|Coffey|New Strawn|Burris Roofing Inc./DBA HomeStyle Exteriors|308 Industrial|620-364-2154|KS10-1431|Lead Renovation Firm|Kenny Burris|Kristin Smith
1|KS|Coffey|Westphalia|Camelot Custom Wood Works, Inc.|314 Dobell|316-648-0088|KS10-2188|Lead Renovation Firm|James Price
1|KS|Cowley|Arkansas City|Ark City Glass|523 North Summit|620-442-2630|KS10-2059|Lead Renovation Firm|Brion Sandorhom|Cindy Sandorhom
1|KS|Cowley|Arkansas City|Green Associates|1326 ND|(620)446-2741|KS10-1485|Lead Renovation Firm|Sandra Randel
1|KS|Cowley|Arkansas City|Hinson Construction, LLC|26791 41st Road|620-441-0776|KS10-1822|Lead Renovation Firm|Kent L. Hinson
1|KS|Cowley|Arkansas City|USD 470|2545 Greenway|620-441-2000|KS11-2459|Lead Renovation Firm|
1|KS|Cowley|Udall|D & D Electric, Inc.|4367 2nd Road|316-304-9001|KS10-1685|Lead Renovation Firm|Dennis Brack|Jeffery Norris
1|KS|Cowley|Winfield|Day Enterprises, LLC.|6 Leed Road|620-221-1562|KS10-1961|Lead Renovation Firm|Kenneth Day
1|KS|Cowley|Winfield|Finney Htg & Air Conditioning|112 E 8th Ave/ PO Box 465|620-221-9620|KS10-1927|Lead Renovation Firm|James Finney
1|KS|Cowley|Winfield|Higdon Painting|PO Box 248|620-221-3166|KS10-2073|Lead Renovation Firm|Jeffery S Higdon
1|KS|Cowley|Winfield|Hostetter Home Improvement|1606 Elizabeth|620-221-2770|KS14-2869|Lead Renovation Firm|Keith Hostetter
1|KS|Cowley|Winfield|Modernworks Construction Inc.|416 Ceder Lane Dr.|620-402-6205|KS10-1586|Lead Renovation Firm|Darcy Davis
1|KS|Cowley|Winfield|Mumford Contracting, LLC|321 Park Street|620-222-5841|KS14-2906|Lead Renovation Firm|Kansas Mumford|Leonard Mumford
1|KS|Cowley|Winfield|R. Long Associates LLC|714 Manning St.|620-221-4943|KS10-1826|Lead Renovation Firm|Rodney E. Long
1|KS|Cowley|Winfield|Winfield Public Schools USD 465|1407 Wheat RD|620-221-5100|KS15-3012|Lead Renovation Firm|Winfield Public Schools USD 465|Brian Meyer
1|KS|Crawford|Arma|Albert Ginardi|307 N West St|620-704-5283|KS10-2129|Lead Renovation Firm|Albert Ginardi
1|KS|Crawford|Frontenac|James Lawson Carpentry|1107 N. Linn|620-249-3698|KS14-2904|Lead Renovation Firm|James Lawson
1|KS|Crawford|Frontenac|Mid America Roofing & Construction|1035 North Highway 69|620-232-1678|KS05-1105|Lead Renovation Firm|Norman Miller
1|KS|Crawford|McCune|Earl L Hartman|961 S 87th St|620-632-4253|KS12-2637|Lead Renovation Firm|Earl Hartman
1|KS|Crawford|Pittsburg|Butler Rentals Inc.|810 W Euclid / PO Box 1411|620-404-8838|KS10-1958|Lead Renovation Firm|Charles R Butler
1|KS|Crawford|Pittsburg|CDL Electric / T & K Rental's|201 North Joplin|620-231-6420|KS10-1880|Lead Renovation Firm|Larry Seward Jr.|Gene Arnold
1|KS|Crawford|Pittsburg|CDL-Electric|201 North Joplin|620-231-6420|KS11-2391|Lead Renovation Firm|Gene Arnold-contact
1|KS|Crawford|Pittsburg|Doug Thomas Painting|204 S Walnut|620-249-2957|KS10-1966|Lead Renovation Firm|Douglass E Thomas
1|KS|Crawford|Pittsburg|Mike Stapleton|1302 Franklin Rd|6208753883|KS12-2629|Lead Renovation Firm|Mike Stapleton
1|KS|Crawford|Pittsburg|Qualls Construction|1709 N. Free King|620-704-1412|KS10-1803|Lead Renovation Firm|David Qualls
1|KS|Crawford|Pittsburg|Touchton Electric and Alarms, Inc.|111 N. Broadway|620-232-9294|KS10-1720|Lead Renovation Firm|David Touchton
1|KS|Crawford|Pittsburg|Yost Properties|105  W 4th|620-231-6190|KS10-1949|Lead Renovation Firm|Charles W Yost
1|KS|DG|BALDWIN CITY|HERITAGE WEATHERIZATION LLC|P.O. BOX 11|913-206-0613|KS10-1213|Lead Renovation Firm|JOSEPH L. SALB
1|KS|DG|Eudora|MAJAC Enterprises|1319 Tallgrass Dr.|816-365-7073|KS12-2600|Lead Renovation Firm|Aaron Haden
1|KS|DG|LAWRENCE|ABC Home Exteriors|1312 STONE MEADOWS DR.|785-232-7500|KS10-1182|Lead Renovation Firm|TOM NEUBURGER
1|KS|DG|Lawrence|Dunco Inc. dba Niehoff/Dunco Heating & Cooling|1729 Bullene Ave.|785-843-7137|KS10-1336|Lead Renovation Firm|Charles Wayne Duncan
1|KS|DG.|Lawrence|Dennis Brown Painting Inc.|806 Ohio|785-841-2460|KS10-1305|Lead Renovation Firm|Dennis J. Brown
1|KS|DICKINSON|ABILENE|MORTON DEVELOPMENT|503 NE 12TH ST.|785-200-1210|KS13-10557|Lead Renovation Firm|JASON MORTON
1|KS|DK|ABILENE|SMITH HEATING AND AIR CONDITIONING INC.|318 NE 14TH|785-263-2412|KS10-1186|Lead Renovation Firm|GREG HOTTMAN
1|KS|DK|Abilene|Four Seasons Inc.|1202 NW 5th|785-263-2922|KS11-2441|Lead Renovation Firm|Mike Meuli-Contact|Steve Rindt-Owner
1|KS|DK|Abilene|M & R Building|2560 Daisy Rd.|785-263-3043|KS10-1272|Lead Renovation Firm|Matt Elliott
1|KS|DK|Abilene|Smith Heating & Air Conditioning, Inc.|318 N.E. 14th|785-263-2412|KS10-1273|Lead Renovation Firm|Greg Hottman
1|KS|DOUGLAS|BALDWIN|Siebar Service LLC|154 E 1287 RD|785-594-6510|KS10-1264|Lead Renovation Firm|ROBERT PRINGLE|ROB PRINGLE
1|KS|DOUGLAS|BALDWIN CITY|SCOTT''S REPAIR LLC|181 EAST 1575 RD|785-594-2584|KS10-2225|Lead Renovation Firm|SCOTT BRADDOCK
1|KS|DOUGLAS|EUDORA|AIR BY KNIGHT LLC|1715 SYCAMORE CT|785-542-2628|KS11-2345|Lead Renovation Firm|LARRY KNIGHT|JAMES HAMILTON
1|KS|DOUGLAS|LAWRENCE|AIRTIGHT ENERGY AUDITS|PO BOX 1961|785-727-0209|KS11-2510|Lead Renovation Firm|ROBERT COFFMAN|NANCY SCHWARTING
1|KS|DOUGLAS|LAWRENCE|APPLE TREE HOMES, INC.|2405 OXFORD ROAD|785-832-1414|KS10-1424|Lead Renovation Firm|GREG RAU|CAROL RAU
1|KS|DOUGLAS|LAWRENCE|ARTISAN FLOOR COMPANY|3507 W. 5TH TERR.|785-691-6117|KS10-2131|Lead Renovation Firm|DUANE DORN
1|KS|DOUGLAS|LAWRENCE|Del Sol Electric LLC|494 N 1500 RD|785-887-9990|KS10-1509|Lead Renovation Firm|JACOB KOZLOWSKI
1|KS|DOUGLAS|LAWRENCE|EDEN CONSTRUCTION|6332 CANDY LANE|303-720-2556|KS11-2383|Lead Renovation Firm|JOSHUAH ALLEN
1|KS|DOUGLAS|LAWRENCE|FIRST MANAGEMENT INC/FIRST CONSTRUCTION LLC|601 N IOWA|785-841-7333|KS10-1892|Lead Renovation Firm|DOUG COMPTON|ROBERT GREEN
1|KS|DOUGLAS|LAWRENCE|GREG SPRINGER HANDYMAN|1520 W. 27TH STREET|785-423-5367|KS10-1866|Lead Renovation Firm|GREG SPRINGER|SAM SPRINGER
1|KS|DOUGLAS|LAWRENCE|J&D SERVICES LLC|2602 BELLE HAVEN DRIVE|785-979-8756|KS10-1569|Lead Renovation Firm|DAVID BALDWIN
1|KS|DOUGLAS|LAWRENCE|N. B. REMODELING LLC D/B/A NATURAL BREEZE REMODELING|1440 WAKARUSA - SUITE 800|785-749-1855|KS11-2469|Lead Renovation Firm|NEIL A. GASKIN|TERRY D FINTON
1|KS|DOUGLAS|LAWRENCE|PARADISE CARPET ONE FLOOR AND HOME|2108 WEST 27TH ST. SUITE E|785-856-8011|KS11-2320|Lead Renovation Firm|LOUIS T DAVIS|BARBARA L DAVIS
1|KS|DOUGLAS|LAWRENCE|PAUL DAVIS RESTORATION OF KANSAS CITY|1420 N 3RD STREET|785-842-0351|KS12-10156|Lead Renovation Firm|JEFFREY S. GOLDMAN
1|KS|DOUGLAS|LAWRENCE|RICARDO COLIN|1120 RHODE ISLAND|785-380-1314|KS12-2654|Lead Renovation Firm|RICARDO COLIN
1|KS|DOUGLAS|LAWRENCE|ROD WENGER INC.|1160 E 1135 RD|785-842-3357|KS10-1865|Lead Renovation Firm|ROD WENGER
1|KS|DOUGLAS|LAWRENCE|STF HANDYMAN|239 WISCONSIN|785-423-1148|KS12-2601|Lead Renovation Firm|SHAUN FLYNN
1|KS|DOUGLAS|LAWRENCE|SUNSET PAINTING CO.|453 ELDRIDGE ST.#C|785-313-1014|KS10-2064|Lead Renovation Firm|TIM ORR
1|KS|DOUGLAS|Lawrence|KB PAINTING, LLC|1835 W 27th Terrace|785-423-4464|KS10-2068|Lead Renovation Firm|KATE BOYD
1|KS|Dickinson|Abilene|Brian Lady Construction|2980 Jeep Rd.|785-598-2375|KS10-1733|Lead Renovation Firm|Brian Lady
1|KS|Dickinson|Abilene|Built-Rite Construction Inc|1150 2000 Avenue|785-263-7410|KS10-1769|Lead Renovation Firm|Blain C. Veal
1|KS|Dickinson|Abilene|Enger Construction|2891 Fair Rd.|785-388-2419|KS10-1439|Lead Renovation Firm|Bruce Enger
1|KS|Dickinson|Abilene|Geske Interiors, Inc.|110 N. Cedar Street|785-263-7984|KS10-1442|Lead Renovation Firm|Timothy Geske|Lucas Geske|Kathy Geske
1|KS|Dickinson|Ablile|Deby's Finishing Touch|1500 Jayhawk Apr #B|785-263-7941|KS12-2665|Lead Renovation Firm|Debra Wilson
1|KS|Dodge|Lecompton|Eric Wagner|1872 E. 850 Rd.|785-423-0649|KS14-2888|Lead Renovation Firm|Eric Wagner
1|KS|Douglas|Baldwin|A & H Air Conditioning and Heating Inc.|1717 College|785-594-3357|KS10-2013|Lead Renovation Firm|Alan Wright
1|KS|Douglas|Baldwin City|Driving Force, LLC|388 E 800 Rd|785-760-1170|KS11-2407|Lead Renovation Firm|Brian Gibler
1|KS|Douglas|Baldwin City|Harry North Construction|95 E 1300 Rd|785-594-3288|KS11-2288|Lead Renovation Firm|Harry A  North
1|KS|Douglas|Baldwin City|Morningstar Painting Services, Inc|1214 Palmyra Ct.|785-766-9900|KS10-2142|Lead Renovation Firm|Andrew Morgenstern
1|KS|Douglas|Baldwin City|Ron Randel|1529 N 300th|785-594-3877|KS10-1805|Lead Renovation Firm|Ron Randel
1|KS|Douglas|Baldwin City|TS's Rental & Repairs, LLC|PO Box 362|931-216-1312|KS13-2774|Lead Renovation Firm|Tillie Wood
1|KS|Douglas|Lawrence|A-Team Home Improvment, LLC|506 E. 23rd St|785-856-3039|KS14-2842|Lead Renovation Firm|William Alan Rector
1|KS|Douglas|Lawrence|A. F. Hill Contracting|PO Box 1581|785-841-3689|KS11-2426|Lead Renovation Firm|Mark Hill
1|KS|Douglas|Lawrence|A.B. Painting and Repair|2229 Killarney Ct.|785-331-6994|KS10-1608|Lead Renovation Firm|Alan Beilgart
1|KS|Douglas|Lawrence|Alpha Roofing LLC|2736 Oregon St.|785-842-2676|KS14-2814|Lead Renovation Firm|Darin Lutz
1|KS|Douglas|Lawrence|Altenbernd & Associates|PO Box 1391|785-979-2499|KS13-2748|Lead Renovation Firm|Conrad W. Altenbernd
1|KS|Douglas|Lawrence|Armor Exteriors|311 Minnesota|785-840-8902|KS10-1475|Lead Renovation Firm|Charlie S. Perdue
1|KS|KS11-2540|Lead Renovation Firm
