address2|address3|address4|city|city_flag|company_flag|company_name|county|county_flag|dba
1|AR|Garland|Royal|Windows USA, LLC","		235 Sunshine Rd","		501-767-4843|KS14-2925|Lead Renovation Firm|Eric Oliver
1|CA|ORANGE|IRVINE|COLLEGE WORKS PAINTING","		1682 LANGLEY AVENUE","		888-450-9675|KS11-2429|Lead Renovation Firm|SEAN PHELPS
1|CA|ORANGE|ORANGE|AMERICAN TECHNOLOGIES, INC.","		210 BAYWOOD AVENUE","		714-283-9990|KS11-2489|Lead Renovation Firm|GARY MOORE
1|CA|Sacramento|Gold River|Judson Enterprises Inc. dba K Designers","		2440 Gold River Rd. Ste. 100","		800-515-2788|KS10-1279|Lead Renovation Firm|Larry D. Judson
1|CO|Adams|Denver|Precision Siding & Construction Co.","		7000 Broadway, 3-300","		303-289-7952|KS10-1627|Lead Renovation Firm|Jeff Woodward					","Kendall Woodward
1|CO|BOULDER|BOULDER|WEECYCLE ENVIRONMENTAL CONSULTING, INC.","		5375 WESTERN AVE SUITE B","		303-413-0452|KS11-2457|Lead Activity Firm|JUDITH SAWITSKY					","LAUREN YORK
1|CO|Morgan|Ft. Morgan|ACR Construction","		14521 CR 21","		970-370-3122|KS10-1836|Lead Renovation Firm|Fred J. Romero
1|CO|na|Lamar|Tripple A Gutters & Construction","		1706 S. 11th St #3","		719-688-3666|KS14-2959|Lead Renovation Firm|Shane Poteet
1|FL|N/A|Fort Lauderdale|Seagull Environmental Management","		900 NW 5th Ave","		800-966-9933|KS14-2824|Lead Activity Firm|James Stump
1|FL|Volusia|Daytona Beach|Builder Services Group Inc.","		260 Jimmy Ann Drive","		386-304-2260|KS10-1516|Lead Renovation Firm|Patti Shaffer - Risk Operations					","Joseph Bolduc - Director
1|GA|COBB|ATLANTA|HOME DEPOT USA, INC.","		2455 PACES FERRY RD  C-11 COMPLIANCE","		770-433-8211|KS11-2511|Lead Renovation Firm|VANN RILEY
1|GA|COBB|ATLANTA|THD AT-HOME SERVICE INC DBA THE HOME DEPOT AT-HOME SERVICES","		2690 CUMBERLAND PKWY SUITE 300","		770-779-1453|KS10-1239|Lead Renovation Firm|CHARLES HICKEY					","PEGGY PAYNE							","ERICA OGAARD
1|GA|COBB|SMYRNA|ROMANOFF FLOOR COVERING INC","		3100 JONQUIL DR. SE","		770-980-1234|KS12-2594|Lead Renovation Firm|MARK SIMPSON					","AARON RIBNER							","PAULA GEEKIE
1|GA|NA|Norcross|National Installation Solutions, Inc","		4291 Communications Dr","		678-325-4430|KS12-2671|Lead Renovation Firm|Hillary Evans
1|IA|BLACK HAWK|WATERLOO|ADVANCED ENVIRONMENTAL TESTING AND ABATEMENT, INC.","		803 RICKER STREET","		319-287-4447|KS12-2625|Lead Renovation Firm|MICHAEL MASSEY
1|IA||Waterloo|Advanced Environmental Testing and Abatement Inc.","		803 Ricker Street","		319-287-4447|KS12-2701|Lead Activity Firm|Michael Poe
1|IL|COOK|ARLINGTON HEIGHTS|G.S. FLOOR DESIGNS, INC","		855 W UNIVERSITY DRIVE","		847-394-4000|KS11-2526|Lead Renovation Firm|REGINA PINKSTON
1|IL|Rock Island|Rock Island|Ostrom Painting & Sandblasting, Inc.","		1110 8th Avenue","		309-788-1933|KS10-1847|Lead Renovation Firm|David Ostrom
1|KS|ALLEN|IOLA|GROW LLC","		1018 MEADOWBROOK ROAD","		620-365-6900|KS10-2180|Lead Renovation Firm|MONTY ROGERS					","RYAN SPARKS
1|KS|ATCHISON|ATCHISON|MICHAEL S. HUNDLEY CONSTRUCTION INC.","		1900 MAIN STREET","		913-367-7059|KS13-10461|Lead Renovation Firm|MICHAEL S. HUNDLEY					","SHANE M. HUNDLEY
1|KS|Allen|Gas|Burton's Property Management","		118 N Taylor / PO Box 183","		620-363-2007|KS10-2028|Lead Renovation Firm|Rick Burton
1|KS|Allen|Humboldt|Fewins Real Properties, LLC","		1836 Alabama Rd.","		620-431-3477|KS10-1883|Lead Renovation Firm|David Fewins
1|KS|Allen|Humboldt|Hofer & Hofer & Associates, Inc.","		1201 N 10th Street","		620-473-3919|KS11-2353|Lead Renovation Firm|Justin Wintjen
1|KS|Allen|Humboldt|Sparkles Cleaning and Painting","		1001 Central","		620-228-2048|KS10-1827|Lead Renovation Firm|Brenda Clark
1|KS|Allen|Iola|AK Construction LLC","		1303 2200th St.","		620-228-3260|KS10-1870|Lead Renovation Firm|Kirsten M. Weide
1|KS|Allen|Iola|Boren's Roofing","		306 N State","		620-365-7663|KS11-2279|Lead Renovation Firm|Ron Boren					","Katy Boren
1|KS|Allen|LaHarpe|C & C Carpentry","		1410 2600 St","		620-496-6395|KS11-2354|Lead Renovation Firm|Nicholas R Chapman
1|KS|Allen|LaHarpe|Diebolt Lumber & Supply","		2661 Nebraska Rd","		620-496-2222|KS11-2271|Lead Renovation Firm|Don Diebolt
1|KS|An|Garnett|Crane Lift and Handyman Service","		446 N Cedar","		785-448-8203|KS11-2411|Lead Renovation Firm|Michael Crane
1|KS|Anderson|Garnett|ADM Construction","		10467 NW 2300 Rd","		785-233-2210|KS14-2922|Lead Renovation Firm|Allen P. Miller
1|KS|Anderson|Garnett|Keim & Sons Construction","		29947 NW Kentucky Rd","		785-448-3562|KS11-2272|Lead Renovation Firm|LaVern Keim
1|KS|Anderson|Garnett|Yutzy Construction LLC","		26709 NW Louisianna Rd","		785-248-1397|KS11-2261|Lead Renovation Firm|Daniel Yutzy
1|KS|Anderson|Richmond|KP Exteriors, LLC","		33992 NW Jewel Rd","		785-204-2705|KS14-2882|Lead Renovation Firm|Kenneth Pruitt
1|KS|Atchison|Atchison|Dave Lackey Painting","		402 N. 14th","		913-367-2862|KS10-1312|Lead Renovation Firm|David R. Lackey
1|KS|Atchison|Atchison|Deware Enterprises LLC","		221 North 3rd St # 26","		913-367-3750|KS14-2909|Lead Renovation Firm|David Deware
1|KS|Atchison|Atchison|Kearney Construction Inc","		6199 Osage Rd.","		913-367-1200|KS10-1844|Lead Renovation Firm|Gary Kearny Jr
1|KS|Atchison|Atchison|L & L Construction","		16083-262nd Road","		913-367-3161|KS10-1535|Lead Renovation Firm|Tesea Kearney
1|KS|Atchison|Cummings|Cummins & Sons, LLC","		2438 Osborne Rd","		913-370-0678|KS11-2428|Lead Renovation Firm|Daniel T Cummins II
1|KS|Atchison|Everest|Kimmi Construction","		11029 Finney Rd","		785-741-3170|KS10-1948|Lead Renovation Firm|Jason Kimmi
1|KS|BARTON|ELLINWOOD|TRINITY RESTORATION MOKAN INC","		1107 NE 50 ROAD","		620-564-3131|KS10-1813|Lead Renovation Firm|LAURA CLAYTON
1|KS|BARTON|GREAT BEND|MOSES PROPERTIES LLC","		2015 FOREST AVE STE 205","		620-792-8000|KS10-2136|Lead Renovation Firm|EARL MOSES
1|KS|BARTON|Great Bend|C & V HOME IMPROVEMENT, INC .","		1107 10th St.","		620-796-2500|KS10-1284|Lead Renovation Firm|MATT HOISINGTON					","CLAUDIA WESNER
1|KS|BOURBON|FORT SCOTT|GREAT EXPECTATIONS RESTORATION, LLC","		1201 S. NATIONAL AVE.","		620-223-3090|KS12-2609|Lead Renovation Firm|MATTHEW WELLS
1|KS|BOURBON|FORT SCOTT|JERRY NAFZGER","		1910 235TH","		620-719-0385|KS10-2111|Lead Renovation Firm|JERRY NAFZGER
1|KS|BR|Hiawatha|Northeast Kansas Community Action Program, Inc.","		1260 220th St., PO Box 380","		785-742-2222 ext 251|KS10-1373|Lead Renovation Firm|Jack Shaefer
1|KS|BT|Ellinwood|Exterior Designs Inc.","		102 S. Main St.","		620-564-3716|KS10-1384|Lead Renovation Firm|Joe Curtiss					","Glen Hertel
1|KS|BT|Ellinwood|Joiner Construction Inc.","		PO Box 238","		620-564-2818|KS10-1383|Lead Renovation Firm|Justin Joiner
1|KS|BT|GREAT BEND|THE SOUTHARD CORPORATION","		1222 10TH","		620-793-5434|KS10-1212|Lead Renovation Firm|JEFF FRY					","MIKE SOUTHARD
1|KS|BT|Great Bend|L&N Contracting","		622 W. Hwy 56","		620-617-6696|KS10-1416|Lead Renovation Firm|Lonnie Philbern
1|KS|BT|HOISINGTON|CHRISTIANS SPECIALTIES INC.","		532 NW 160 RD.","		620-653-7684|KS10-1197|Lead Renovation Firm|RAYMOND CHRISTIANS
1|KS|BU|AUGUSTA|AEG Handyman Services","		33 HUNTINGTON RD.","		316-866-2728|KS10-1190|Lead Renovation Firm|LAWRENCE L. KEYSER
1|KS|BU|Augusta|CM Customworks, Inc.","		9783 SW Santa Fe Lake Rd.","		316-775-0643|KS10-1376|Lead Renovation Firm|Max Reimschesel					","Cory Metzger
1|KS|BUTLER|AUGUSTA|PAGE CORPORATION","		6333 SW SANTA FE LAKE RD","		316-262-7200|KS10-1757|Lead Renovation Firm|MIKE PAGE					","KYLE HOWARD							","COLT PAGE
1|KS|Barber|Medicine Lodge|Prothe Enterprises","		7741 SE IS HWY 281","		620-886-5240|KS11-2557|Lead Renovation Firm|Craig M Prothe
1|KS|Barber|Medicine Lodge|Ruton Construction Inc.","		207 W Stolp","		620-886-3581|KS10-1546|Lead Renovation Firm|Mike Ruton
1|KS|Barton|Claflin|CenKan Lead Testing, LLC","		1371 NE 190 Rd","		620-282-3634|KS11-2346|Lead Activity Firm|kachina
1|KS|Barton|Ellinwood|Bryant Construction","		111 E. 3rd St.","		620-564-3412|KS10-1734|Lead Renovation Firm|Lyle W. Bryant
1|KS|Barton|Great Bend|ART Herren Home Repair","		4206 Railroad Ave","		620-793-8778|KS10-1637|Lead Renovation Firm|Arthur E. Herren
1|KS|Barton|Great Bend|Allen's Home Improvement","		439 Kiowa Rd.","		620-791-8345|KS10-1572|Lead Renovation Firm|Barry Allen
1|KS|Barton|Great Bend|CPS Home & Garden  DBA Jack the Handyman","		5501 9th Street Lot 99","		620-282-2819|KS15-3034|Lead Renovation Firm|Raza Manase
1|KS|Barton|Great Bend|Cusstem Painting & Contracting","		622 West Hwy 56","		620-791-7615|KS10-1520|Lead Renovation Firm|Luie Philbera
1|KS|Barton|Great Bend|Feist Construction","		PO Box 314","		620-792-2789|KS14-2942|Lead Renovation Firm|Dan Fiest					","David Feist
1|KS|Barton|Great Bend|Parr Construction LLC","		2101 US Highway 281 Bypass, PO Box 1778","		620-792-7020|KS10-1848|Lead Renovation Firm|Doug Clark
1|KS|Barton|Great Bend|Rube's Inc.","		5251 9th ST","		620-793-6769|KS10-2141|Lead Renovation Firm|Brian L Pedigo
1|KS|Barton|Great Bend|Stueder Contractors, Inc.","		3410 10th Street","		620-792-6044|KS11-2474|Lead Renovation Firm|Terry Stueder
1|KS|Barton|Great Bend|TNT Renovations, Inc.","		1400 18th St.","		620-793-3450|KS10-1711|Lead Renovation Firm|Todd A. Smith					","Theresa M. Smith
1|KS|Barton|Hoisington|TSI Laboratories","		820 N Pine Street","		620-603-0345|KS15-3022|Lead Renovation Firm|TSI Laboratories					","Tigie Stephens
1|KS|Brown|Everest|D & M  Construction","		1191 Prairie Rd","		785-548-7582|KS10-1952|Lead Renovation Firm|Donald Nigh
1|KS|Brown|Fairview|Van's Electric","		211 E. 1st St.","		785-467-8380|KS10-1721|Lead Renovation Firm|Elvon VanDalsem
1|KS|Brown|Hiawatha|Aller's LLC","		2089 Kingfisher Road","		785-741-2000|KS10-1837|Lead Renovation Firm|Patrick Aller
1|KS|Brown|Hiawatha|Eagle Sundown Services","		1114 Utah","		785-288-0364|KS10-1821|Lead Renovation Firm|Roland Keller
1|KS|Brown|Hiawatha|Knudson Construction, Inc.","		307 Choctaw Street","		785-742-2415|KS10-1863|Lead Renovation Firm|Knute Knudson
1|KS|Brown|Hiawatha|Noel Boye Construction","		309 Miami St.","		785-547-7397|KS10-1587|Lead Renovation Firm|Noel Boye
1|KS|Brown|Hiawatha|Schuster Construction","		2887 Killdeer Road","		785-742-7556|KS10-2184|Lead Renovation Firm|Gerald Schuster					","Ramona Schuster
1|KS|Brown|Hiawatha|Soden Const.","		607 Pawnee","		785-742-4276|KS10-2044|Lead Renovation Firm|Chad Soden
1|KS|Brown|Horton|Scott Rentals","		1147 Central","		785-486-3655|KS11-2405|Lead Renovation Firm|John M Scott
1|KS|Brown|Robinson|Siebenmorgen Excavating","		2345 Prairie Rd","		785-741-1820|KS10-2052|Lead Renovation Firm|Luke Siebenmorgen
1|KS|Butler|Andover|Bill Griffing Painting, Inc.","		P.O. Box 1004","		316-733-5201|KS10-2053|Lead Renovation Firm|Richard Nethercot
1|KS|Butler|Andover|Dennis Smith Construction","		422 W 10th","		316-393-8837|KS10-2162|Lead Renovation Firm|Dennis Smith
1|KS|Butler|Andover|Efficiency Exteriors, Inc.","		13922 SW US 54 Hwy","		316-733-6600|KS10-1522|Lead Renovation Firm|Linda Kitch
1|KS|Butler|Andover|Oliver Construction","		1139 W. Sumac","		316-393-8303|KS14-2886|Lead Renovation Firm|Phillip Oliver
1|KS|Butler|Andover|West & Co. Painting, LLC","		401 W. Central","		316-686-5155|KS10-1854|Lead Renovation Firm|Lawrence West
1|KS|Butler|Augusta|AEG Handyman Services, Inc","		33 Huntington Rd.","		316-866-2728|KS10-1372|Lead Renovation Firm|Lawrence L. Keyser
1|KS|Butler|Augusta|Elite Enterprises, Inc.","		1405 S. Hwy 77, PO Box 552","		316-841-2582|KS10-1438|Lead Renovation Firm|Stacey L. Bilson, President					","John R. Bilson, Vice President
1|KS|Butler|Augusta|Farm & Home Services, L.L.C.","		11202 S.W. 120th","		316-775-3840|KS10-1882|Lead Renovation Firm|Craig W. Smith
1|KS|Butler|Augusta|Time Frame","		607 Colleen St","		316-201-1603|KS10-2043|Lead Renovation Firm|Jimmy L Parker
1|KS|Butler|Augusta|Tolbert Construction","		1701 Deerborn Street","		316-258-7977|KS13-2788|Lead Renovation Firm|Marion Wesley Tolbert IV
1|KS|Butler|Augusta|Wiseman & Associates, LLC","		PO Box 517","		316-253-5085|KS11-2524|Lead Renovation Firm|Ken Wiseman					","Shannon Wiseman
1|KS|Butler|El Dorado|Briggs Home Inspection Co. L.L.C.","		8876 NW Kelli Rd","		316-323-4099|KS11-2282|Lead Renovation Firm|Trueman D Briggs
1|KS|Butler|El Dorado|Butler Home Improvements LLC","		417 S Main","		316-322-8880|KS10-1902|Lead Renovation Firm|Sarah Clements
1|KS|Butler|El Dorado|Eaton Construction","		824 N. Atchison","		316-323-2699|KS10-1775|Lead Renovation Firm|Zach Eaton
1|KS|Butler|El Dorado|Hendricks Construction Services","		#8 NE Cole Creek Rd, PO Box 191","		316-322-3937|KS10-1884|Lead Renovation Firm|Ron Hendricks
1|KS|Butler|El Dorado|Jedd Cliff","		504 Race","		316-322-5722|KS11-2443|Lead Renovation Firm|Jedd Cliff
1|KS|Butler|El Dorado|Mark II Builders","		121 Jones St","		316-321-7240|KS11-2495|Lead Renovation Firm|Mark W Long
1|KS|Butler|El Dorado|Scanlon Exteriors","		507 N Summit","		316-322-0432|KS12-2658|Lead Renovation Firm|Christopher J Scanlon
1|KS|Butler|El Dorado|Schwindt Remodeling","		3515 W. Towanda Ave.","		316-250-5387|KS10-1751|Lead Renovation Firm|Darren Schwindt
1|KS|Butler|El Dorado|Stricklin Remodeling, LLC","		1720 Payton Circle","		316-323-3498|KS10-1808|Lead Renovation Firm|Dennis Stricklin
1|KS|Butler|El Dorado|Trailwood Co., Inc.","		615 N Main","		316-321-6500|KS11-2472|Lead Renovation Firm|Eddie Dean
1|KS|Butler|El Dorado|USD 490, El Dorado Schools","		124 W Central","		316-322-4800|KS10-2197|Lead Renovation Firm|David W. Wagner- Director of Operations
1|KS|Butler|El Dorado|Wilkinson Construction LLC","		1100 S Denver","		316-321-0580|KS12-2647|Lead Renovation Firm|Wade Wilkinson
1|KS|Butler|Rose Hill|K Carpentry","		13955 SW 150th","		951-691-6395|KS11-2355|Lead Renovation Firm|Ken Kiser
1|KS|CD|CONCORDIA|GEISLER ROOFING INC.","		908 E. 6TH ","		785-243-7298|KS10-1218|Lead Renovation Firm|STEVE GEISLER					","MARK FRASER
1|KS|CD|CONCORDIA|SNELL CONTRACTING INC.","		1590 N. 146TH RD.","		785-243-5026|KS10-1220|Lead Renovation Firm|MITCHELL SNELL
1|KS|CL|ARKANSAS CITY|Morgan Painting","		3441 302ND RD.","		620-660-2151|KS10-1299|Lead Renovation Firm|JUSTIN R. MORGAN
1|KS|CLOUD|CONCORDIA|ACCENT EXTERIORS","		415 E 14TH STREET","		785-569-1375|KSop>|KS|CL|ARKANSAS CITY|Morgan Painting","		3441 302ND RD.","		620-660-2151|KS10-1299|Lead Renovation Firm|JUSTIN R. MORGAN
1|KS|CLOUD|CONCORDIA|ACCENT EXTERIORS","		415 E 14TH STREET","		785-569-1375|KS  href=mailto:info@kdheks.gov alt=Email KDHE at: Info@kdheks.gov />","","","Bureau of Environmental Health","Lead Registry","Active Firms","","","[Search Again]StateCountyCityFirmKDHE Certificate #TypeContacts		AR			Garland 			Royal	Windows USA, LLC","		235 Sunshine Rd","		501-767-4843		KS14-2925			Lead Renovation Firm			Eric Oliver							CA			ORANGE 			IRVINE	COLLEGE WORKS PAINTING","		1682 LANGLEY AVENUE","		888-450-9675		KS11-2429			Lead Renovation Firm			SEAN PHELPS							CA			ORANGE 			ORANGE	AMERICAN TECHNOLOGIES, INC.","		210 BAYWOOD AVENUE","		714-283-9990		KS11-2489			Lead Renovation Firm			GARY MOORE							CA			Sacramento 			Gold River	Judson Enterprises Inc. dba K Designers","		2440 Gold River Rd. Ste. 100","		800-515-2788		KS10-1279			Lead Renovation Firm			Larry D. Judson							CO			Adams 			Denver	Precision Siding & Construction Co.","		7000 Broadway, 3-300","		303-289-7952		KS10-1627			Lead Renovation Firm			Jeff Woodward					","Kendall Woodward							CO			BOULDER 			BOULDER	WEECYCLE ENVIRONMENTAL CONSULTING, INC.","		5375 WESTERN AVE SUITE B","		303-413-0452		KS11-2457			Lead Activity Firm			JUDITH SAWITSKY					","LAUREN YORK							CO			Morgan 			Ft. Morgan	ACR Construction","		14521 CR 21","		970-370-3122		KS10-1836			Lead Renovation Firm			Fred J. Romero							CO			na 			Lamar	Tripple A Gutters & Construction","		1706 S. 11th St #3","		719-688-3666		KS14-2959			Lead Renovation Firm			Shane Poteet							FL			N/A 			Fort Lauderdale	Seagull Environmental Management","		900 NW 5th Ave","		800-966-9933		KS14-2824			Lead Activity Firm			James Stump							FL			Volusia 			Daytona Beach	Builder Services Group Inc.","		260 Jimmy Ann Drive","		386-304-2260		KS10-1516			Lead Renovation Firm			Patti Shaffer - Risk Operations					","Joseph Bolduc - Director							GA			COBB 			ATLANTA	HOME DEPOT USA, INC.","		2455 PACES FERRY RD  C-11 COMPLIANCE","		770-433-8211		KS11-2511			Lead Renovation Firm			VANN RILEY							GA			COBB 			ATLANTA	THD AT-HOME SERVICE INC DBA THE HOME DEPOT AT-HOME SERVICES","		2690 CUMBERLAND PKWY SUITE 300","		770-779-1453		KS10-1239			Lead Renovation Firm			CHARLES HICKEY					","PEGGY PAYNE							","ERICA OGAARD					GA			COBB 			SMYRNA	ROMANOFF FLOOR COVERING INC","		3100 JONQUIL DR. SE","		770-980-1234		KS12-2594			Lead Renovation Firm			MARK SIMPSON					","AARON RIBNER							","PAULA GEEKIE					GA			NA 			Norcross	National Installation Solutions, Inc","		4291 Communications Dr","		678-325-4430		KS12-2671			Lead Renovation Firm			Hillary Evans							IA			BLACK HAWK 			WATERLOO	ADVANCED ENVIRONMENTAL TESTING AND ABATEMENT, INC.","		803 RICKER STREET","		319-287-4447		KS12-2625			Lead Renovation Firm			MICHAEL MASSEY							IA			 			Waterloo	Advanced Environmental Testing and Abatement Inc.","		803 Ricker Street","		319-287-4447		KS12-2701			Lead Activity Firm			Michael Poe							IL			COOK 			ARLINGTON HEIGHTS	G.S. FLOOR DESIGNS, INC","		855 W UNIVERSITY DRIVE","		847-394-4000		KS11-2526			Lead Renovation Firm			REGINA PINKSTON							IL			Rock Island 			Rock Island	Ostrom Painting & Sandblasting, Inc.","		1110 8th Avenue","		309-788-1933		KS10-1847			Lead Renovation Firm			David Ostrom							KS			ALLEN 			IOLA	GROW LLC","		1018 MEADOWBROOK ROAD","		620-365-6900		KS10-2180			Lead Renovation Firm			MONTY ROGERS					","RYAN SPARKS							KS			ATCHISON 			ATCHISON	MICHAEL S. HUNDLEY CONSTRUCTION INC.","		1900 MAIN STREET","		913-367-7059		KS13-10461			Lead Renovation Firm			MICHAEL S. HUNDLEY					","SHANE M. HUNDLEY							KS			Allen 			Gas	Burton's Property Management","		118 N Taylor / PO Box 183","		620-363-2007		KS10-2028			Lead Renovation Firm			Rick Burton							KS			Allen 			Humboldt	Fewins Real Properties, LLC","		1836 Alabama Rd.","		620-431-3477		KS10-1883			Lead Renovation Firm			David Fewins							KS			Allen 			Humboldt	Hofer & Hofer & Associates, Inc.","		1201 N 10th Street","		620-473-3919		KS11-2353			Lead Renovation Firm			Justin Wintjen							KS			Allen 			Humboldt	Sparkles Cleaning and Painting","		1001 Central","		620-228-2048		KS10-1827			Lead Renovation Firm			Brenda Clark							KS			Allen 			Iola	AK Construction LLC","		1303 2200th St.","		620-228-3260		KS10-1870			Lead Renovation Firm			Kirsten M. Weide							KS			Allen 			Iola	Boren's Roofing","		306 N State","		620-365-7663		KS11-2279			Lead Renovation Firm			Ron Boren					","Katy Boren							KS			Allen 			LaHarpe	C & C Carpentry","		1410 2600 St","		620-496-6395		KS11-2354			Lead Renovation Firm			Nicholas R Chapman							KS			Allen 			LaHarpe	Diebolt Lumber & Supply","		2661 Nebraska Rd","		620-496-2222		KS11-2271			Lead Renovation Firm			Don Diebolt							KS			An 			Garnett	Crane Lift and Handyman Service","		446 N Cedar","		785-448-8203		KS11-2411			Lead Renovation Firm			Michael Crane							KS			Anderson 			Garnett	ADM Construction","		10467 NW 2300 Rd","		785-233-2210		KS14-2922			Lead Renovation Firm			Allen P. Miller							KS			Anderson 			Garnett	Keim & Sons Construction","		29947 NW Kentucky Rd","		785-448-3562		KS11-2272			Lead Renovation Firm			LaVern Keim							KS			Anderson 			Garnett	Yutzy Construction LLC","		26709 NW Louisianna Rd","		785-248-1397		KS11-2261			Lead Renovation Firm			Daniel Yutzy							KS			Anderson 			Richmond	KP Exteriors, LLC","		33992 NW Jewel Rd","		785-204-2705		KS14-2882			Lead Renovation Firm			Kenneth Pruitt							KS			Atchison 			Atchison	Dave Lackey Painting","		402 N. 14th","		913-367-2862		KS10-1312			Lead Renovation Firm			David R. Lackey							KS			Atchison 			Atchison	Deware Enterprises LLC","		221 North 3rd St # 26","		913-367-3750		KS14-2909			Lead Renovation Firm			David Deware							KS			Atchison 			Atchison	Kearney Construction Inc","		6199 Osage Rd.","		913-367-1200		KS10-1844			Lead Renovation Firm			Gary Kearny Jr							KS			Atchison 			Atchison	L & L Construction","		16083-262nd Road","		913-367-3161		KS10-1535			Lead Renovation Firm			Tesea Kearney							KS			Atchison 			Cummings	Cummins & Sons, LLC","		2438 Osborne Rd","		913-370-0678		KS11-2428			Lead Renovation Firm			Daniel T Cummins II							KS			Atchison 			Everest	Kimmi Construction","		11029 Finney Rd","		785-741-3170		KS10-1948			Lead Renovation Firm			Jason Kimmi							KS			BARTON 			ELLINWOOD	TRINITY RESTORATION MOKAN INC","		1107 NE 50 ROAD","		620-564-3131		KS10-1813			Lead Renovation Firm			LAURA CLAYTON							KS			BARTON 			GREAT BEND	MOSES PROPERTIES LLC","		2015 FOREST AVE STE 205","		620-792-8000		KS10-2136			Lead Renovation Firm			EARL MOSES							KS			BARTON 			Great Bend	C & V HOME IMPROVEMENT, INC .","		1107 10th St.","		620-796-2500		KS10-1284			Lead Renovation Firm			MATT HOISINGTON					","CLAUDIA WESNER							KS			BOURBON 			FORT SCOTT	GREAT EXPECTATIONS RESTORATION, LLC","		1201 S. NATIONAL AVE.","		620-223-3090		KS12-2609			Lead Renovation Firm			MATTHEW WELLS							KS			BOURBON 			FORT SCOTT	JERRY NAFZGER","		1910 235TH","		620-719-0385		KS10-2111			Lead Renovation Firm			JERRY NAFZGER							KS			BR 			Hiawatha	Northeast Kansas Community Action Program, Inc.","		1260 220th St., PO Box 380","		785-742-2222 ext 251		KS10-1373			Lead Renovation Firm			Jack Shaefer							KS			BT 			Ellinwood	Exterior Designs Inc.","		102 S. Main St.","		620-564-3716		KS10-1384			Lead Renovation Firm			Joe Curtiss					","Glen Hertel							KS			BT 			Ellinwood	Joiner Construction Inc.","		PO Box 238","		620-564-2818		KS10-1383			Lead Renovation Firm			Justin Joiner							KS			BT 			GREAT BEND	THE SOUTHARD CORPORATION","		1222 10TH","		620-793-5434		KS10-1212			Lead Renovation Firm			JEFF FRY					","MIKE SOUTHARD							KS			BT 			Great Bend	L&N Contracting","		622 W. Hwy 56","		620-617-6696		KS10-1416			Lead Renovation Firm			Lonnie Philbern							KS			BT 			HOISINGTON	CHRISTIANS SPECIALTIES INC.","		532 NW 160 RD.","		620-653-7684		KS10-1197			Lead Renovation Firm			RAYMOND CHRISTIANS							KS			BU 			AUGUSTA	AEG Handyman Services","		33 HUNTINGTON RD.","		316-866-2728		KS10-1190			Lead Renovation Firm			LAWRENCE L. KEYSER							KS			BU 			Augusta	CM Customworks, Inc.","		9783 SW Santa Fe Lake Rd.","		316-775-0643		KS10-1376			Lead Renovation Firm			Max Reimschesel					","Cory Metzger							KS			BUTLER 			AUGUSTA	PAGE CORPORATION","		6333 SW SANTA FE LAKE RD","		316-262-7200		KS10-1757			Lead Renovation Firm			MIKE PAGE					","KYLE HOWARD							","COLT PAGE					KS			Barber 			Medicine Lodge	Prothe Enterprises","		7741 SE IS HWY 281","		620-886-5240		KS11-2557			Lead Renovation Firm			Craig M Prothe							KS			Barber 			Medicine Lodge	Ruton Construction Inc.","		207 W Stolp","		620-886-3581		KS10-1546			Lead Renovation Firm			Mike Ruton							KS			Barton 			Claflin	CenKan Lead Testing, LLC","		1371 NE 190 Rd","		620-282-3634		KS11-2346			Lead Activity Firm			kachina							KS			Barton 			Ellinwood	Bryant Construction","		111 E. 3rd St.","		620-564-3412		KS10-1734			Lead Renovation Firm			Lyle W. Bryant							KS			Barton 			Great Bend	ART Herren Home Repair","		4206 Railroad Ave","		620-793-8778		KS10-1637			Lead Renovation Firm			Arthur E. Herren							KS			Barton 			Great Bend	Allen's Home Improvement","		439 Kiowa Rd.","		620-791-8345		KS10-1572			Lead Renovation Firm			Barry Allen							KS			Barton 			Great Bend	CPS Home & Garden  DBA Jack the Handyman","		5501 9th Street Lot 99","		620-282-2819		KS15-3034			Lead Renovation Firm			Raza Manase							KS			Barton 			Great Bend	Cusstem Painting & Contracting","		622 West Hwy 56","		620-791-7615		KS10-1520			Lead Renovation Firm			Luie Philbera							KS			Barton 			Great Bend	Feist Construction","		PO Box 314","		620-792-2789		KS14-2942			Lead Renovation Firm			Dan Fiest					","David Feist							KS			Barton 			Great Bend	Parr Construction LLC","		2101 US Highway 281 Bypass, PO Box 1778","		620-792-7020		KS10-1848			Lead Renovation Firm			Doug Clark							KS			Barton 			Great Bend	Rube's Inc.","		5251 9th ST","		620-793-6769		KS10-2141			Lead Renovation Firm			Brian L Pedigo							KS			Barton 			Great Bend	Stueder Contractors, Inc.","		3410 10th Street","		620-792-6044		KS11-2474			Lead Renovation Firm			Terry Stueder							KS			Barton 			Great Bend	TNT Renovations, Inc.","		1400 18th St.","		620-793-3450		KS10-1711			Lead Renovation Firm			Todd A. Smith					","Theresa M. Smith							KS			Barton 			Hoisington	TSI Laboratories","		820 N Pine Street","		620-603-0345		KS15-3022			Lead Renovation Firm			TSI Laboratories					","Tigie Stephens							KS			Brown 			Everest	D & M  Construction","		1191 Prairie Rd","		785-548-7582		KS10-1952			Lead Renovation Firm			Donald Nigh							KS			Brown 			Fairview	Van's Electric","		211 E. 1st St.","		785-467-8380		KS10-1721			Lead Renovation Firm			Elvon VanDalsem							KS			Brown 			Hiawatha	Aller's LLC","		2089 Kingfisher Road","		785-741-2000		KS10-1837			Lead Renovation Firm			Patrick Aller							KS			Brown 			Hiawatha	Eagle Sundown Services","		1114 Utah","		785-288-0364		KS10-1821			Lead Renovation Firm			Roland Keller							KS			Brown 			Hiawatha	Knudson Construction, Inc.","		307 Choctaw Street","		785-742-2415		KS10-1863			Lead Renovation Firm			Knute Knudson							KS			Brown 			Hiawatha	Noel Boye Construction","		309 Miami St.","		785-547-7397		KS10-1587			Lead Renovation Firm			Noel Boye							KS			Brown 			Hiawatha	Schuster Construction","		2887 Killdeer Road","		785-742-7556		KS10-2184			Lead Renovation Firm			Gerald Schuster					","Ramona Schuster							KS			Brown 			Hiawatha	Soden Const.","		607 Pawnee","		785-742-4276		KS10-2044			Lead Renovation Firm			Chad Soden							KS			Brown 			Horton	Scott Rentals","		1147 Central","		785-486-3655		KS11-2405			Lead Renovation Firm			John M Scott							KS			Brown 			Robinson	Siebenmorgen Excavating","		2345 Prairie Rd","		785-741-1820		KS10-2052			Lead Renovation Firm			Luke Siebenmorgen							KS			Butler 			Andover	Bill Griffing Painting, Inc.","		P.O. Box 1004","		316-733-5201		KS10-2053			Lead Renovation Firm			Richard Nethercot							KS			Butler 			Andover	Dennis Smith Construction","		422 W 10th","		316-393-8837		KS10-2162			Lead Renovation Firm			Dennis Smith							KS			Butler 			Andover	Efficiency Exteriors, Inc.","		13922 SW US 54 Hwy","		316-733-6600		KS10-1522			Lead Renovation Firm			Linda Kitch							KS			Butler 			Andover	Oliver Construction","		1139 W. Sumac","		316-393-8303		KS14-2886			Lead Renovation Firm			Phillip Oliver							KS			Butler 			Andover	West & Co. Painting, LLC","		401 W. Central","		316-686-5155		KS10-1854			Lead Renovation Firm			Lawrence West							KS			Butler 			Augusta	AEG Handyman Services, Inc","		33 Huntington Rd.","		316-866-2728		KS10-1372			Lead Renovation Firm			Lawrence L. Keyser							KS			Butler 			Augusta	Elite Enterprises, Inc.","		1405 S. Hwy 77, PO Box 552","		316-841-2582		KS10-1438			Lead Renovation Firm			Stacey L. Bilson, President					","John R. Bilson, Vice President							KS			Butler 			Augusta	Farm & Home Services, L.L.C.","		11202 S.W. 120th","		316-775-3840		KS10-1882			Lead Renovation Firm			Craig W. Smith							KS			Butler 			Augusta	Time Frame","		607 Colleen St","		316-201-1603		KS10-2043			Lead Renovation Firm			Jimmy L Parker							KS			Butler 			Augusta	Tolbert Construction","		1701 Deerborn Street","		316-258-7977		KS13-2788			Lead Renovation Firm			Marion Wesley Tolbert IV							KS			Butler 			Augusta	Wiseman & Associates, LLC","		PO Box 517","		316-253-5085		KS11-2524			Lead Renovation Firm			Ken Wiseman					","Shannon Wiseman							KS			Butler 			El Dorado	Briggs Home Inspection Co. L.L.C.","		8876 NW Kelli Rd","		316-323-4099		KS11-2282			Lead Renovation Firm			Trueman D Briggs							KS			Butler 			El Dorado	Butler Home Improvements LLC","		417 S Main","		316-322-8880		KS10-1902			Lead Renovation Firm			Sarah Clements							KS			Butler 			El Dorado	Eaton Construction","		824 N. Atchison","		316-323-2699		KS10-1775			Lead Renovation Firm			Zach Eaton							KS			Butler 			El Dorado	Hendricks Construction Services","		#8 NE Cole Creek Rd, PO Box 191","		316-322-3937		KS10-1884			Lead Renovation Firm			Ron Hendricks							KS			Butler 			El Dorado	Jedd Cliff","		504 Race","		316-322-5722		KS11-2443			Lead Renovation Firm			Jedd Cliff							KS			Butler 			El Dorado	Mark II Builders","		121 Jones St","		316-321-7240		KS11-2495			Lead Renovation Firm			Mark W Long							KS			Butler 			El Dorado	Scanlon Exteriors","		507 N Summit","		316-322-0432		KS12-2658			Lead Renovation Firm			Christopher J Scanlon							KS			Butler 			El Dorado	Schwindt Remodeling","		3515 W. Towanda Ave.","		316-250-5387		KS10-1751			Lead Renovation Firm			Darren Schwindt							KS			Butler 			El Dorado	Stricklin Remodeling, LLC","		1720 Payton Circle","		316-323-3498		KS10-1808			Lead Renovation Firm			Dennis Stricklin							KS			Butler 			El Dorado	Trailwood Co., Inc.","		615 N Main","		316-321-6500		KS11-2472			Lead Renovation Firm			Eddie Dean							KS			Butler 			El Dorado	USD 490, El Dorado Schools","		124 W Central","		316-322-4800		KS10-2197			Lead Renovation Firm			David W. Wagner- Director of Operations							KS			Butler 			El Dorado	Wilkinson Construction LLC","		1100 S Denver","		316-321-0580		KS12-2647			Lead Renovation Firm			Wade Wilkinson							KS			Butler 			Rose Hill	K Carpentry","		13955 SW 150th","		951-691-6395		KS11-2355			Lead Renovation Firm			Ken Kiser							KS			CD 			CONCORDIA	GEISLER ROOFING INC.","		908 E. 6TH ","		785-243-7298		KS10-1218			Lead Renovation Firm			STEVE GEISLER					","MARK FRASER							KS			CD 			CONCORDIA	SNELL CONTRACTING INC.","		1590 N. 146TH RD.","		785-243-5026		KS10-1220			Lead Renovation Firm			MITCHELL SNELL							KS			CL 			ARKANSAS CITY	Morgan Painting","		3441 302ND RD.","		620-660-2151		KS10-1299			Lead Renovation Firm			JUSTIN R. MORGAN							KS			CLOUD 			CONCORDIA	ACCENT EXTERIORS","		415 E 14TH STREET","		785-569-1375		KS 		KS15-3020			Lead Renovation Firm			Nicole Bailey					","George Wood||||","","","Bureau of Environmental Health","Lead Registry","Active Firms","","","[Search Again]StateCountyCityFirmKDHE Certificate #TypeContacts		AR			Garland 			Royal	Windows USA, LLC","		235 Sunshine Rd","		501-767-4843		KS14-2925			Lead Renovation Firm			Eric Oliver							CA			ORANGE 			IRVINE	COLLEGE WORKS PAINTING","		1682 LANGLEY AVENUE","		888-450-9675		KS11-2429			Lead Renovation Firm			SEAN PHELPS							CA			ORANGE 			ORANGE	AMERICAN TECHNOLOGIES, INC.","		210 BAYWOOD AVENUE","		714-283-9990		KS11-2489			Lead Renovation Firm			GARY MOORE							CA			Sacramento 			Gold River	Judson Enterprises Inc. dba K Designers","		2440 Gold River Rd. Ste. 100","		800-515-2788		KS10-1279			Lead Renovation Firm			Larry D. Judson							CO			Adams 			Denver	Precision Siding & Construction Co.","		7000 Broadway, 3-300","		303-289-7952		KS10-1627			Lead Renovation Firm			Jeff Woodward					","Kendall Woodward							CO			BOULDER 			BOULDER	WEECYCLE ENVIRONMENTAL CONSULTING, INC.","		5375 WESTERN AVE SUITE B","		303-413-0452		KS11-2457			Lead Activity Firm			JUDITH SAWITSKY					","LAUREN YORK							CO			Morgan 			Ft. Morgan	ACR Construction","		14521 CR 21","		970-370-3122		KS10-1836			Lead Renovation Firm			Fred J. Romero							CO			na 			Lamar	Tripple A Gutters & Construction","		1706 S. 11th St #3","		719-688-3666		KS14-2959			Lead Renovation Firm			Shane Poteet							FL			N/A 			Fort Lauderdale	Seagull Environmental Management","		900 NW 5th Ave","		800-966-9933		KS14-2824			Lead Activity Firm			James Stump							FL			Volusia 			Daytona Beach	Builder Services Group Inc.","		260 Jimmy Ann Drive","		386-304-2260		KS10-1516			Lead Renovation Firm			Patti Shaffer - Risk Operations					","Joseph Bolduc - Director							GA			COBB 			ATLANTA	HOME DEPOT USA, INC.","		2455 PACES FERRY RD  C-11 COMPLIANCE","		770-433-8211		KS11-2511			Lead Renovation Firm			VANN RILEY							GA			COBB 			ATLANTA	THD AT-HOME SERVICE INC DBA THE HOME DEPOT AT-HOME SERVICES","		2690 CUMBERLAND PKWY SUITE 300","		770-779-1453		KS10-1239			Lead Renovation Firm			CHARLES HICKEY					","PEGGY PAYNE							","ERICA OGAARD					GA			COBB 			SMYRNA	ROMANOFF FLOOR COVERING INC","		3100 JONQUIL DR. SE","		770-980-1234		KS12-2594			Lead Renovation Firm			MARK SIMPSON					","AARON RIBNER							","PAULA GEEKIE					GA			NA 			Norcross	National Installation Solutions, Inc","		4291 Communications Dr","		678-325-4430		KS12-2671			Lead Renovation Firm			Hillary Evans							IA			BLACK HAWK 			WATERLOO	ADVANCED ENVIRONMENTAL TESTING AND ABATEMENT, INC.","		803 RICKER STREET","		319-287-4447		KS12-2625			Lead Renovation Firm			MICHAEL MASSEY							IA			 			Waterloo	Advanced Environmental Testing and Abatement Inc.","		803 Ricker Street","		319-287-4447		KS12-2701			Lead Activity Firm			Michael Poe							IL			COOK 			ARLINGTON HEIGHTS	G.S. FLOOR DESIGNS, INC","		855 W UNIVERSITY DRIVE","		847-394-4000		KS11-2526			Lead Renovation Firm			REGINA PINKSTON							IL			Rock Island 			Rock Island	Ostrom Painting & Sandblasting, Inc.","		1110 8th Avenue","		309-788-1933		KS10-1847			Lead Renovation Firm			David Ostrom							KS			ALLEN 			IOLA	GROW LLC","		1018 MEADOWBROOK ROAD","		620-365-6900		KS10-2180			Lead Renovation Firm			MONTY ROGERS					","RYAN SPARKS							KS			ATCHISON 			ATCHISON	MICHAEL S. HUNDLEY CONSTRUCTION INC.","		1900 MAIN STREET","		913-367-7059		KS13-10461			Lead Renovation Firm			MICHAEL S. HUNDLEY					","SHANE M. HUNDLEY							KS			Allen 			Gas	Burton's Property Management","		118 N Taylor / PO Box 183","		620-363-2007		KS10-2028			Lead Renovation Firm			Rick Burton							KS			Allen 			Humboldt	Fewins Real Properties, LLC","		1836 Alabama Rd.","		620-431-3477		KS10-1883			Lead Renovation Firm			David Fewins							KS			Allen 			Humboldt	Hofer & Hofer & Associates, Inc.","		1201 N 10th Street","		620-473-3919		KS11-2353			Lead Renovation Firm			Justin Wintjen							KS			Allen 			Humboldt	Sparkles Cleaning and Painting","		1001 Central","		620-228-2048		KS10-1827			Lead Renovation Firm			Brenda Clark							KS			Allen 			Iola	AK Construction LLC","		1303 2200th St.","		620-228-3260		KS10-1870			Lead Renovation Firm			Kirsten M. Weide							KS			Allen 			Iola	Boren's Roofing","		306 N State","		620-365-7663		KS11-2279			Lead Renovation Firm			Ron Boren					","Katy Boren							KS			Allen 			LaHarpe	C & C Carpentry","		1410 2600 St","		620-496-6395		KS11-2354			Lead Renovation Firm			Nicholas R Chapman							KS			Allen 			LaHarpe	Diebolt Lumber & Supply","		2661 Nebraska Rd","		620-496-2222		KS11-2271			Lead Renovation Firm			Don Diebolt							KS			An 			Garnett	Crane Lift and Handyman Service","		446 N Cedar","		785-448-8203		KS11-2411			Lead Renovation Firm			Michael Crane							KS			Anderson 			Garnett	ADM Construction","		10467 NW 2300 Rd","		785-233-2210		KS14-2922			Lead Renovation Firm			Allen P. Miller							KS			Anderson 			Garnett	Keim & Sons Construction","		29947 NW Kentucky Rd","		785-448-3562		KS11-2272			Lead Renovation Firm			LaVern Keim							KS			Anderson 			Garnett	Yutzy Construction LLC","		26709 NW Louisianna Rd","		785-248-1397		KS11-2261			Lead Renovation Firm			Daniel Yutzy							KS			Anderson 			Richmond	KP Exteriors, LLC","		33992 NW Jewel Rd","		785-204-2705		KS14-2882			Lead Renovation Firm			Kenneth Pruitt							KS			Atchison 			Atchison	Dave Lackey Painting","		402 N. 14th","		913-367-2862		KS10-1312			Lead Renovation Firm			David R. Lackey							KS			Atchison 			Atchison	Deware Enterprises LLC","		221 North 3rd St # 26","		913-367-3750		KS14-2909			Lead Renovation Firm			David Deware							KS			Atchison 			Atchison	Kearney Construction Inc","		6199 Osage Rd.","		913-367-1200		KS10-1844			Lead Renovation Firm			Gary Kearny Jr							KS			Atchison 			Atchison	L & L Construction","		16083-262nd Road","		913-367-3161		KS10-1535			Lead Renovation Firm			Tesea Kearney							KS			Atchison 			Cummings	Cummins & Sons, LLC","		2438 Osborne Rd","		913-370-0678		KS11-2428			Lead Renovation Firm			Daniel T Cummins II							KS			Atchison 			Everest	Kimmi Construction","		11029 Finney Rd","		785-741-3170		KS10-1948			Lead Renovation Firm			Jason Kimmi							KS			BARTON 			ELLINWOOD	TRINITY RESTORATION MOKAN INC","		1107 NE 50 ROAD","		620-564-3131		KS10-1813			Lead Renovation Firm			LAURA CLAYTON							KS			BARTON 			GREAT BEND	MOSES PROPERTIES LLC","		2015 FOREST AVE STE 205","		620-792-8000		KS10-2136			Lead Renovation Firm			EARL MOSES							KS			BARTON 			Great Bend	C & V HOME IMPROVEMENT, INC .","		1107 10th St.","		620-796-2500		KS10-1284			Lead Renovation Firm			MATT HOISINGTON					","CLAUDIA WESNER							KS			BOURBON 			FORT SCOTT	GREAT EXPECTATIONS RESTORATION, LLC","		1201 S. NATIONAL AVE.","		620-223-3090		KS12-2609			Lead Renovation Firm			MATTHEW WELLS							KS			BOURBON 			FORT SCOTT	JERRY NAFZGER","		1910 235TH","		620-719-0385		KS10-2111			Lead Renovation Firm			JERRY NAFZGER							KS			BR 			Hiawatha	Northeast Kansas Community Action Program, Inc.","		1260 220th St., PO Box 380","		785-742-2222 ext 251		KS10-1373			Lead Renovation Firm			Jack Shaefer							KS			BT 			Ellinwood	Exterior Designs Inc.","		102 S. Main St.","		620-564-3716		KS10-1384			Lead Renovation Firm			Joe Curtiss					","Glen Hertel							KS			BT 			Ellinwood	Joiner Construction Inc.","		PO Box 238","		620-564-2818		KS10-1383			Lead Renovation Firm			Justin Joiner							KS			BT 			GREAT BEND	THE SOUTHARD CORPORATION","		1222 10TH","		620-793-5434		KS10-1212			Lead Renovation Firm			JEFF FRY					","MIKE SOUTHARD							KS			BT 			Great Bend	L&N Contracting","		622 W. Hwy 56","		620-617-6696		KS10-1416			Lead Renovation Firm			Lonnie Philbern							KS			BT 			HOISINGTON	CHRISTIANS SPECIALTIES INC.","		532 NW 160 RD.","		620-653-7684		KS10-1197			Lead Renovation Firm			RAYMOND CHRISTIANS							KS			BU 			AUGUSTA	AEG Handyman Services","		33 HUNTINGTON RD.","		316-866-2728		KS10-1190			Lead Renovation Firm			LAWRENCE L. KEYSER							KS			BU 			Augusta	CM Customworks, Inc.","		9783 SW Santa Fe Lake Rd.","		316-775-0643		KS10-1376			Lead Renovation Firm			Max Reimschesel					","Cory Metzger							KS			BUTLER 			AUGUSTA	PAGE CORPORATION","		6333 SW SANTA FE LAKE RD","		316-262-7200		KS10-1757			Lead Renovation Firm			MIKE PAGE					","KYLE HOWARD							","COLT PAGE					KS			Barber 			Medicine Lodge	Prothe Enterprises","		7741 SE IS HWY 281","		620-886-5240		KS11-2557			Lead Renovation Firm			Craig M Prothe							KS			Barber 			Medicine Lodge	Ruton Construction Inc.","		207 W Stolp","		620-886-3581		KS10-1546			Lead Renovation Firm			Mike Ruton							KS			Barton 			Claflin	CenKan Lead Testing, LLC","		1371 NE 190 Rd","		620-282-3634		KS11-2346			Lead Activity Firm			kachina							KS			Barton 			Ellinwood	Bryant Construction","		111 E. 3rd St.","		620-564-3412		KS10-1734			Lead Renovation Firm			Lyle W. Bryant							KS			Barton 			Great Bend	ART Herren Home Repair","		4206 Railroad Ave","		620-793-8778		KS10-1637			Lead Renovation Firm			Arthur E. Herren							KS			Barton 			Great Bend	Allen's Home Improvement","		439 Kiowa Rd.","		620-791-8345		KS10-1572			Lead Renovation Firm			Barry Allen							KS			Barton 			Great Bend	CPS Home & Garden  DBA Jack the Handyman","		5501 9th Street Lot 99","		620-282-2819		KS15-3034			Lead Renovation Firm			Raza Manase							KS			Barton 			Great Bend	Cusstem Painting & Contracting","		622 West Hwy 56","		620-791-7615		KS10-1520			Lead Renovation Firm			Luie Philbera							KS			Barton 			Great Bend	Feist Construction","		PO Box 314","		620-792-2789		KS14-2942			Lead Renovation Firm			Dan Fiest					","David Feist							KS			Barton 			Great Bend	Parr Construction LLC","		2101 US Highway 281 Bypass, PO Box 1778","		620-792-7020		KS10-1848			Lead Renovation Firm			Doug Clark							KS			Barton 			Great Bend	Rube's Inc.","		5251 9th ST","		620-793-6769		KS10-2141			Lead Renovation Firm			Brian L Pedigo							KS			Barton 			Great Bend	Stueder Contractors, Inc.","		3410 10th Street","		620-792-6044		KS11-2474			Lead Renovation Firm			Terry Stueder							KS			Barton 			Great Bend	TNT Renovations, Inc.","		1400 18th St.","		620-793-3450		KS10-1711			Lead Renovation Firm			Todd A. Smith					","Theresa M. Smith							KS			Barton 			Hoisington	TSI Laboratories","		820 N Pine Street","		620-603-0345		KS15-3022			Lead Renovation Firm			TSI Laboratories					","Tigie Stephens							KS			Brown 			Everest	D & M  Construction","		1191 Prairie Rd","		785-548-7582		KS10-1952			Lead Renovation Firm			Donald Nigh							KS			Brown 			Fairview	Van's Electric","		211 E. 1st St.","		785-467-8380		KS10-1721			Lead Renovation Firm			Elvon VanDalsem							KS			Brown 			Hiawatha	Aller's LLC","		2089 Kingfisher Road","		785-741-2000		KS10-1837			Lead Renovation Firm			Patrick Aller							KS			Brown 			Hiawatha	Eagle Sundown Services","		1114 Utah","		785-288-0364		KS10-1821			Lead Renovation Firm			Roland Keller							KS			Brown 			Hiawatha	Knudson Construction, Inc.","		307 Choctaw Street","		785-742-2415		KS10-1863			Lead Renovation Firm			Knute Knudson							KS			Brown 			Hiawatha	Noel Boye Construction","		309 Miami St.","		785-547-7397		KS10-1587			Lead Renovation Firm			Noel Boye							KS			Brown 			Hiawatha	Schuster Construction","		2887 Killdeer Road","		785-742-7556		KS10-2184			Lead Renovation Firm			Gerald Schuster					","Ramona Schuster							KS			Brown 			Hiawatha	Soden Const.","		607 Pawnee","		785-742-4276		KS10-2044			Lead Renovation Firm			Chad Soden							KS			Brown 			Horton	Scott Rentals","		1147 Central","		785-486-3655		KS11-2405			Lead Renovation Firm			John M Scott							KS			Brown 			Robinson	Siebenmorgen Excavating","		2345 Prairie Rd","		785-741-1820		KS10-2052			Lead Renovation Firm			Luke Siebenmorgen							KS			Butler 			Andover	Bill Griffing Painting, Inc.","		P.O. Box 1004","		316-733-5201		KS10-2053			Lead Renovation Firm			Richard Nethercot							KS			Butler 			Andover	Dennis Smith Construction","		422 W 10th","		316-393-8837		KS10-2162			Lead Renovation Firm			Dennis Smith							KS			Butler 			Andover	Efficiency Exteriors, Inc.","		13922 SW US 54 Hwy","		316-733-6600		KS10-1522			Lead Renovation Firm			Linda Kitch							KS			Butler 			Andover	Oliver Construction","		1139 W. Sumac","		316-393-8303		KS14-2886			Lead Renovation Firm			Phillip Oliver							KS			Butler 			Andover	West & Co. Painting, LLC","		401 W. Central","		316-686-5155		KS10-1854			Lead Renovation Firm			Lawrence West							KS			Butler 			Augusta	AEG Handyman Services, Inc","		33 Huntington Rd.","		316-866-2728		KS10-1372			Lead Renovation Firm			Lawrence L. Keyser							KS			Butler 			Augusta	Elite Enterprises, Inc.","		1405 S. Hwy 77, PO Box 552","		316-841-2582		KS10-1438			Lead Renovation Firm			Stacey L. Bilson, President					","John R. Bilson, Vice President							KS			Butler 			Augusta	Farm & Home Services, L.L.C.","		11202 S.W. 120th","		316-775-3840		KS10-1882			Lead Renovation Firm			Craig W. Smith							KS			Butler 			Augusta	Time Frame","		607 Colleen St","		316-201-1603		KS10-2043			Lead Renovation Firm			Jimmy L Parker							KS			Butler 			Augusta	Tolbert Construction","		1701 Deerborn Street","		316-258-7977		KS13-2788			Lead Renovation Firm			Marion Wesley Tolbert IV							KS			Butler 			Augusta	Wiseman & Associates, LLC","		PO Box 517","		316-253-5085		KS11-2524			Lead Renovation Firm			Ken Wiseman					","Shannon Wiseman							KS			Butler 			El Dorado	Briggs Home Inspection Co. L.L.C.","		8876 NW Kelli Rd","		316-323-4099		KS11-2282			Lead Renovation Firm			Trueman D Briggs							KS			Butler 			El Dorado	Butler Home Improvements LLC","		417 S Main","		316-322-8880		KS10-1902			Lead Renovation Firm			Sarah Clements							KS			Butler 			El Dorado	Eaton Construction","		824 N. Atchison","		316-323-2699		KS10-1775			Lead Renovation Firm			Zach Eaton							KS			Butler 			El Dorado	Hendricks Construction Services","		#8 NE Cole Creek Rd, PO Box 191","		316-322-3937		KS10-1884			Lead Renovation Firm			Ron Hendricks							KS			Butler 			El Dorado	Jedd Cliff","		504 Race","		316-322-5722		KS11-2443			Lead Renovation Firm			Jedd Cliff							KS			Butler 			El Dorado	Mark II Builders","		121 Jones St","		316-321-7240		KS11-2495			Lead Renovation Firm			Mark W Long							KS			Butler 			El Dorado	Scanlon Exteriors","		507 N Summit","		316-322-0432		KS12-2658			Lead Renovation Firm			Christopher J Scanlon							KS			Butler 			El Dorado	Schwindt Remodeling","		3515 W. Towanda Ave.","		316-250-5387		KS10-1751			Lead Renovation Firm			Darren Schwindt							KS			Butler 			El Dorado	Stricklin Remodeling, LLC","		1720 Payton Circle","		316-323-3498		KS10-1808			Lead Renovation Firm			Dennis Stricklin							KS			Butler 			El Dorado	Trailwood Co., Inc.","		615 N Main","		316-321-6500		KS11-2472			Lead Renovation Firm			Eddie Dean							KS			Butler 			El Dorado	USD 490, El Dorado Schools","		124 W Central","		316-322-4800		KS10-2197			Lead Renovation Firm			David W. Wagner- Director of Operations							KS			Butler 			El Dorado	Wilkinson Construction LLC","		1100 S Denver","		316-321-0580		KS12-2647			Lead Renovation Firm			Wade Wilkinson							KS			Butler 			Rose Hill	K Carpentry","		13955 SW 150th","		951-691-6395		KS11-2355			Lead Renovation Firm			Ken Kiser							KS			CD 			CONCORDIA	GEISLER ROOFING INC.","		908 E. 6TH ","		785-243-7298		KS10-1218			Lead Renovation Firm			STEVE GEISLER					","MARK FRASER							KS			CD 			CONCORDIA	SNELL CONTRACTING INC.","		1590 N. 146TH RD.","		785-243-5026		KS10-1220			Lead Renovation Firm			MITCHELL SNELL							KS			CL 			ARKANSAS CITY	Morgan Painting","		3441 302ND RD.","		620-660-2151		KS10-1299			Lead Renovation Firm			JUSTIN R. MORGAN							KS			CLOUD 			CONCORDIA	ACCENT EXTERIORS","		415 E 14TH STREET","		785-569-1375		KS 		KS15-3020			Lead Renovation Firm			Nicole Bailey					","George Wood|AR|Garland|Royal|Windows USA, LLC","		235 Sunshine Rd","		501-767-4843|KS14-2925|Lead Renovation Firm|Eric Oliver|CA|ORANGE|IRVINE|COLLEGE WORKS PAINTING","		1682 LANGLEY AVENUE","		888-450-9675|KS11-2429|Lead Renovation Firm|SEAN PHELPS|CA|ORANGE|ORANGE|AMERICAN TECHNOLOGIES, INC.","		210 BAYWOOD AVENUE","		714-283-9990|KS11-2489|Lead Renovation Firm|GARY MOORE|CA|Sacramento|Gold River|Judson Enterprises Inc. dba K Designers","		2440 Gold River Rd. Ste. 100","		800-515-2788|KS10-1279|Lead Renovation Firm|Larry D. Judson|CO|Adams|Denver|Precision Siding & Construction Co.","		7000 Broadway, 3-300","		303-289-7952|KS10-1627|Lead Renovation Firm|Jeff Woodward					","Kendall Woodward|CO|BOULDER|BOULDER|WEECYCLE ENVIRONMENTAL CONSULTING, INC.","		5375 WESTERN AVE SUITE B","		303-413-0452|KS11-2457|Lead Activity Firm|JUDITH SAWITSKY					","LAUREN YORK|CO|Morgan|Ft. Morgan|ACR Construction","		14521 CR 21","		970-370-3122|KS10-1836|Lead Renovation Firm|Fred J. Romero|CO|na|Lamar|Tripple A Gutters & Construction","		1706 S. 11th St #3","		719-688-3666|KS14-2959|Lead Renovation Firm|Shane Poteet|FL|N/A|Fort Lauderdale|Seagull Environmental Management","		900 NW 5th Ave","		800-966-9933|KS14-2824|Lead Activity Firm|James Stump|FL|Volusia|Daytona Beach|Builder Services Group Inc.","		260 Jimmy Ann Drive","		386-304-2260|KS10-1516|Lead Renovation Firm|Patti Shaffer - Risk Operations					","Joseph Bolduc - Director|GA|COBB|ATLANTA|HOME DEPOT USA, INC.","		2455 PACES FERRY RD  C-11 COMPLIANCE","		770-433-8211|KS11-2511|Lead Renovation Firm|VANN RILEY|GA|COBB|ATLANTA|THD AT-HOME SERVICE INC DBA THE HOME DEPOT AT-HOME SERVICES","		2690 CUMBERLAND PKWY SUITE 300","		770-779-1453|KS10-1239|Lead Renovation Firm|CHARLES HICKEY					","PEGGY PAYNE							","ERICA OGAARD|GA|COBB|SMYRNA|ROMANOFF FLOOR COVERING INC","		3100 JONQUIL DR. SE","		770-980-1234|KS12-2594|Lead Renovation Firm|MARK SIMPSON					","AARON RIBNER							","PAULA GEEKIE|GA|NA|Norcross|National Installation Solutions, Inc","		4291 Communications Dr","		678-325-4430|KS12-2671|Lead Renovation Firm|Hillary Evans|IA|BLACK HAWK|WATERLOO|ADVANCED ENVIRONMENTAL TESTING AND ABATEMENT, INC.","		803 RICKER STREET","		319-287-4447|KS12-2625|Lead Renovation Firm|MICHAEL MASSEY|IA||Waterloo|Advanced Environmental Testing and Abatement Inc.","		803 Ricker Street","		319-287-4447|KS12-2701|Lead Activity Firm|Michael Poe|IL|COOK|ARLINGTON HEIGHTS|G.S. FLOOR DESIGNS, INC","		855 W UNIVERSITY DRIVE","		847-394-4000|KS11-2526|Lead Renovation Firm|REGINA PINKSTON|IL|Rock Island|Rock Island|Ostrom Painting & Sandblasting, Inc.","		1110 8th Avenue","		309-788-1933|KS10-1847|Lead Renovation Firm|David Ostrom|KS|ALLEN|IOLA|GROW LLC","		1018 MEADOWBROOK ROAD","		620-365-6900|KS10-2180|Lead Renovation Firm|MONTY ROGERS					","RYAN SPARKS|KS|ATCHISON|ATCHISON|MICHAEL S. HUNDLEY CONSTRUCTION INC.","		1900 MAIN STREET","		913-367-7059|KS13-10461|Lead Renovation Firm|MICHAEL S. HUNDLEY					","SHANE M. HUNDLEY|KS|Allen|Gas|Burton's Property Management","		118 N Taylor / PO Box 183","		620-363-2007|KS10-2028|Lead Renovation Firm|Rick Burton|KS|Allen|Humboldt|Fewins Real Properties, LLC","		1836 Alabama Rd.","		620-431-3477|KS10-1883|Lead Renovation Firm|David Fewins|KS|Allen|Humboldt|Hofer & Hofer & Associates, Inc.","		1201 N 10th Street","		620-473-3919|KS11-2353|Lead Renovation Firm|Justin Wintjen|KS|Allen|Humboldt|Sparkles Cleaning and Painting","		1001 Central","		620-228-2048|KS10-1827|Lead Renovation Firm|Brenda Clark|KS|Allen|Iola|AK Construction LLC","		1303 2200th St.","		620-228-3260|KS10-1870|Lead Renovation Firm|Kirsten M. Weide|KS|Allen|Iola|Boren's Roofing","		306 N State","		620-365-7663|KS11-2279|Lead Renovation Firm|Ron Boren					","Katy Boren|KS|Allen|LaHarpe|C & C Carpentry","		1410 2600 St","		620-496-6395|KS11-2354|Lead Renovation Firm|Nicholas R Chapman|KS|Allen|LaHarpe|Diebolt Lumber & Supply","		2661 Nebraska Rd","		620-496-2222|KS11-2271|Lead Renovation Firm|Don Diebolt|KS|An|Garnett|Crane Lift and Handyman Service","		446 N Cedar","		785-448-8203|KS11-2411|Lead Renovation Firm|Michael Crane|KS|Anderson|Garnett|ADM Construction","		10467 NW 2300 Rd","		785-233-2210|KS14-2922|Lead Renovation Firm|Allen P. Miller|KS|Anderson|Garnett|Keim & Sons Construction","		29947 NW Kentucky Rd","		785-448-3562|KS11-2272|Lead Renovation Firm|LaVern Keim|KS|Anderson|Garnett|Yutzy Construction LLC","		26709 NW Louisianna Rd","		785-248-1397|KS11-2261|Lead Renovation Firm|Daniel Yutzy|KS|Anderson|Richmond|KP Exteriors, LLC","		33992 NW Jewel Rd","		785-204-2705|KS14-2882|Lead Renovation Firm|Kenneth Pruitt|KS|Atchison|Atchison|Dave Lackey Painting","		402 N. 14th","		913-367-2862|KS10-1312|Lead Renovation Firm|David R. Lackey|KS|Atchison|Atchison|Deware Enterprises LLC","		221 North 3rd St # 26","		913-367-3750|KS14-2909|Lead Renovation Firm|David Deware|KS|Atchison|Atchison|Kearney Construction Inc","		6199 Osage Rd.","		913-367-1200|KS10-1844|Lead Renovation Firm|Gary Kearny Jr|KS|Atchison|Atchison|L & L Construction","		16083-262nd Road","		913-367-3161|KS10-1535|Lead Renovation Firm|Tesea Kearney|KS|Atchison|Cummings|Cummins & Sons, LLC","		2438 Osborne Rd","		913-370-0678|KS11-2428|Lead Renovation Firm|Daniel T Cummins II|KS|Atchison|Everest|Kimmi Construction","		11029 Finney Rd","		785-741-3170|KS10-1948|Lead Renovation Firm|Jason Kimmi|KS|BARTON|ELLINWOOD|TRINITY RESTORATION MOKAN INC","		1107 NE 50 ROAD","		620-564-3131|KS10-1813|Lead Renovation Firm|LAURA CLAYTON|KS|BARTON|GREAT BEND|MOSES PROPERTIES LLC","		2015 FOREST AVE STE 205","		620-792-8000|KS10-2136|Lead Renovation Firm|EARL MOSES|KS|BARTON|Great Bend|C & V HOME IMPROVEMENT, INC .","		1107 10th St.","		620-796-2500|KS10-1284|Lead Renovation Firm|MATT HOISINGTON					","CLAUDIA WESNER|KS|BOURBON|FORT SCOTT|GREAT EXPECTATIONS RESTORATION, LLC","		1201 S. NATIONAL AVE.","		620-223-3090|KS12-2609|Lead Renovation Firm|MATTHEW WELLS|KS|BOURBON|FORT SCOTT|JERRY NAFZGER","		1910 235TH","		620-719-0385|KS10-2111|Lead Renovation Firm|JERRY NAFZGER|KS|BR|Hiawatha|Northeast Kansas Community Action Program, Inc.","		1260 220th St., PO Box 380","		785-742-2222 ext 251|KS10-1373|Lead Renovation Firm|Jack Shaefer|KS|BT|Ellinwood|Exterior Designs Inc.","		102 S. Main St.","		620-564-3716|KS10-1384|Lead Renovation Firm|Joe Curtiss					","Glen Hertel|KS|BT|Ellinwood|Joiner Construction Inc.","		PO Box 238","		620-564-2818|KS10-1383|Lead Renovation Firm|Justin Joiner|KS|BT|GREAT BEND|THE SOUTHARD CORPORATION","		1222 10TH","		620-793-5434|KS10-1212|Lead Renovation Firm|JEFF FRY					","MIKE SOUTHARD|KS|BT|Great Bend|L&N Contracting","		622 W. Hwy 56","		620-617-6696|KS10-1416|Lead Renovation Firm|Lonnie Philbern|KS|BT|HOISINGTON|CHRISTIANS SPECIALTIES INC.","		532 NW 160 RD.","		620-653-7684|KS10-1197|Lead Renovation Firm|RAYMOND CHRISTIANS|KS|BU|AUGUSTA|AEG Handyman Services","		33 HUNTINGTON RD.","		316-866-2728|KS10-1190|Lead Renovation Firm|LAWRENCE L. KEYSER|KS|BU|Augusta|CM Customworks, Inc.","		9783 SW Santa Fe Lake Rd.","		316-775-0643|KS10-1376|Lead Renovation Firm|Max Reimschesel					","Cory Metzger|KS|BUTLER|AUGUSTA|PAGE CORPORATION","		6333 SW SANTA FE LAKE RD","		316-262-7200|KS10-1757|Lead Renovation Firm|MIKE PAGE					","KYLE HOWARD							","COLT PAGE|KS|Barber|Medicine Lodge|Prothe Enterprises","		7741 SE IS HWY 281","		620-886-5240|KS11-2557|Lead Renovation Firm|Craig M Prothe|KS|Barber|Medicine Lodge|Ruton Construction Inc.","		207 W Stolp","		620-886-3581|KS10-1546|Lead Renovation Firm|Mike Ruton|KS|Barton|Claflin|CenKan Lead Testing, LLC","		1371 NE 190 Rd","		620-282-3634|KS11-2346|Lead Activity Firm|kachina|KS|Barton|Ellinwood|Bryant Construction","		111 E. 3rd St.","		620-564-3412|KS10-1734|Lead Renovation Firm|Lyle W. Bryant|KS|Barton|Great Bend|ART Herren Home Repair","		4206 Railroad Ave","		620-793-8778|KS10-1637|Lead Renovation Firm|Arthur E. Herren|KS|Barton|Great Bend|Allen's Home Improvement","		439 Kiowa Rd.","		620-791-8345|KS10-1572|Lead Renovation Firm|Barry Allen|KS|Barton|Great Bend|CPS Home & Garden  DBA Jack the Handyman","		5501 9th Street Lot 99","		620-282-2819|KS15-3034|Lead Renovation Firm|Raza Manase|KS|Barton|Great Bend|Cusstem Painting & Contracting","		622 West Hwy 56","		620-791-7615|KS10-1520|Lead Renovation Firm|Luie Philbera|KS|Barton|Great Bend|Feist Construction","		PO Box 314","		620-792-2789|KS14-2942|Lead Renovation Firm|Dan Fiest					","David Feist|KS|Barton|Great Bend|Parr Construction LLC","		2101 US Highway 281 Bypass, PO Box 1778","		620-792-7020|KS10-1848|Lead Renovation Firm|Doug Clark|KS|Barton|Great Bend|Rube's Inc.","		5251 9th ST","		620-793-6769|KS10-2141|Lead Renovation Firm|Brian L Pedigo|KS|Barton|Great Bend|Stueder Contractors, Inc.","		3410 10th Street","		620-792-6044|KS11-2474|Lead Renovation Firm|Terry Stueder|KS|Barton|Great Bend|TNT Renovations, Inc.","		1400 18th St.","		620-793-3450|KS10-1711|Lead Renovation Firm|Todd A. Smith					","Theresa M. Smith|KS|Barton|Hoisington|TSI Laboratories","		820 N Pine Street","		620-603-0345|KS15-3022|Lead Renovation Firm|TSI Laboratories					","Tigie Stephens|KS|Brown|Everest|D & M  Construction","		1191 Prairie Rd","		785-548-7582|KS10-1952|Lead Renovation Firm|Donald Nigh|KS|Brown|Fairview|Van's Electric","		211 E. 1st St.","		785-467-8380|KS10-1721|Lead Renovation Firm|Elvon VanDalsem|KS|Brown|Hiawatha|Aller's LLC","		2089 Kingfisher Road","		785-741-2000|KS10-1837|Lead Renovation Firm|Patrick Aller|KS|Brown|Hiawatha|Eagle Sundown Services","		1114 Utah","		785-288-0364|KS10-1821|Lead Renovation Firm|Roland Keller|KS|Brown|Hiawatha|Knudson Construction, Inc.","		307 Choctaw Street","		785-742-2415|KS10-1863|Lead Renovation Firm|Knute Knudson|KS|Brown|Hiawatha|Noel Boye Construction","		309 Miami St.","		785-547-7397|KS10-1587|Lead Renovation Firm|Noel Boye|KS|Brown|Hiawatha|Schuster Construction","		2887 Killdeer Road","		785-742-7556|KS10-2184|Lead Renovation Firm|Gerald Schuster					","Ramona Schuster|KS|Brown|Hiawatha|Soden Const.","		607 Pawnee","		785-742-4276|KS10-2044|Lead Renovation Firm|Chad Soden|KS|Brown|Horton|Scott Rentals","		1147 Central","		785-486-3655|KS11-2405|Lead Renovation Firm|John M Scott|KS|Brown|Robinson|Siebenmorgen Excavating","		2345 Prairie Rd","		785-741-1820|KS10-2052|Lead Renovation Firm|Luke Siebenmorgen|KS|Butler|Andover|Bill Griffing Painting, Inc.","		P.O. Box 1004","		316-733-5201|KS10-2053|Lead Renovation Firm|Richard Nethercot|KS|Butler|Andover|Dennis Smith Construction","		422 W 10th","		316-393-8837|KS10-2162|Lead Renovation Firm|Dennis Smith|KS|Butler|Andover|Efficiency Exteriors, Inc.","		13922 SW US 54 Hwy","		316-733-6600|KS10-1522|Lead Renovation Firm|Linda Kitch|KS|Butler|Andover|Oliver Construction","		1139 W. Sumac","		316-393-8303|KS14-2886|Lead Renovation Firm|Phillip Oliver|KS|Butler|Andover|West & Co. Painting, LLC","		401 W. Central","		316-686-5155|KS10-1854|Lead Renovation Firm|Lawrence West|KS|Butler|Augusta|AEG Handyman Services, Inc","		33 Huntington Rd.","		316-866-2728|KS10-1372|Lead Renovation Firm|Lawrence L. Keyser|KS|Butler|Augusta|Elite Enterprises, Inc.","		1405 S. Hwy 77, PO Box 552","		316-841-2582|KS10-1438|Lead Renovation Firm|Stacey L. Bilson, President					","John R. Bilson, Vice President|KS|Butler|Augusta|Farm & Home Services, L.L.C.","		11202 S.W. 120th","		316-775-3840|KS10-1882|Lead Renovation Firm|Craig W. Smith|KS|Butler|Augusta|Time Frame","		607 Colleen St","		316-201-1603|KS10-2043|Lead Renovation Firm|Jimmy L Parker|KS|Butler|Augusta|Tolbert Construction","		1701 Deerborn Street","		316-258-7977|KS13-2788|Lead Renovation Firm|Marion Wesley Tolbert IV|KS|Butler|Augusta|Wiseman & Associates, LLC","		PO Box 517","		316-253-5085|KS11-2524|Lead Renovation Firm|Ken Wiseman					","Shannon Wiseman|KS|Butler|El Dorado|Briggs Home Inspection Co. L.L.C.","		8876 NW Kelli Rd","		316-323-4099|KS11-2282|Lead Renovation Firm|Trueman D Briggs|KS|Butler|El Dorado|Butler Home Improvements LLC","		417 S Main","		316-322-8880|KS10-1902|Lead Renovation Firm|Sarah Clements|KS|Butler|El Dorado|Eaton Construction","		824 N. Atchison","		316-323-2699|KS10-1775|Lead Renovation Firm|Zach Eaton|KS|Butler|El Dorado|Hendricks Construction Services","		#8 NE Cole Creek Rd, PO Box 191","		316-322-3937|KS10-1884|Lead Renovation Firm|Ron Hendricks|KS|Butler|El Dorado|Jedd Cliff","		504 Race","		316-322-5722|KS11-2443|Lead Renovation Firm|Jedd Cliff|KS|Butler|El Dorado|Mark II Builders","		121 Jones St","		316-321-7240|KS11-2495|Lead Renovation Firm|Mark W Long|KS|Butler|El Dorado|Scanlon Exteriors","		507 N Summit","		316-322-0432|KS12-2658|Lead Renovation Firm|Christopher J Scanlon|KS|Butler|El Dorado|Schwindt Remodeling","		3515 W. Towanda Ave.","		316-250-5387|KS10-1751|Lead Renovation Firm|Darren Schwindt|KS|Butler|El Dorado|Stricklin Remodeling, LLC","		1720 Payton Circle","		316-323-3498|KS10-1808|Lead Renovation Firm|Dennis Stricklin|KS|Butler|El Dorado|Trailwood Co., Inc.","		615 N Main","		316-321-6500|KS11-2472|Lead Renovation Firm|Eddie Dean|KS|Butler|El Dorado|USD 490, El Dorado Schools","		124 W Central","		316-322-4800|KS10-2197|Lead Renovation Firm|David W. Wagner- Director of Operations|KS|Butler|El Dorado|Wilkinson Construction LLC","		1100 S Denver","		316-321-0580|KS12-2647|Lead Renovation Firm|Wade Wilkinson|KS|Butler|Rose Hill|K Carpentry","		13955 SW 150th","		951-691-6395|KS11-2355|Lead Renovation Firm|Ken Kiser|KS|CD|CONCORDIA|GEISLER ROOFING INC.","		908 E. 6TH ","		785-243-7298|KS10-1218|Lead Renovation Firm|STEVE GEISLER					","MARK FRASER|KS|CD|CONCORDIA|SNELL CONTRACTING INC.","		1590 N. 146TH RD.","		785-243-5026|KS10-1220|Lead Renovation Firm|MITCHELL SNELL|KS|CL|ARKANSAS CITY|Morgan Painting","		3441 302ND RD.","		620-660-2151|KS10-1299|Lead Renovation Firm|JUSTIN R. MORGAN|KS|CLOUD|CONCORDIA|ACCENT EXTERIORS","		415 E 14TH STREET","		785-569-1375|KS|KS15-3020|Lead Renovation Firm|Nicole Bailey					","George Wood|
1||
1|
1|","","","Bureau of Environmental Health","Lead Registry","Active Firms","","","[Search Again]StateCountyCityFirmKDHE Certificate #TypeContacts		AR			Garland 			Royal	Windows USA, LLC","		235 Sunshine Rd","		501-767-4843		KS14-2925			Lead Renovation Firm			Eric Oliver							CA			ORANGE 			IRVINE	COLLEGE WORKS PAINTING","		1682 LANGLEY AVENUE","		888-450-9675		KS11-2429			Lead Renovation Firm			SEAN PHELPS							CA			ORANGE 			ORANGE	AMERICAN TECHNOLOGIES, INC.","		210 BAYWOOD AVENUE","		714-283-9990		KS11-2489			Lead Renovation Firm			GARY MOORE							CA			Sacramento 			Gold River	Judson Enterprises Inc. dba K Designers","		2440 Gold River Rd. Ste. 100","		800-515-2788		KS10-1279			Lead Renovation Firm			Larry D. Judson							CO			Adams 			Denver	Precision Siding & Construction Co.","		7000 Broadway, 3-300","		303-289-7952		KS10-1627			Lead Renovation Firm			Jeff Woodward					","Kendall Woodward							CO			BOULDER 			BOULDER	WEECYCLE ENVIRONMENTAL CONSULTING, INC.","		5375 WESTERN AVE SUITE B","		303-413-0452		KS11-2457			Lead Activity Firm			JUDITH SAWITSKY					","LAUREN YORK							CO			Morgan 			Ft. Morgan	ACR Construction","		14521 CR 21","		970-370-3122		KS10-1836			Lead Renovation Firm			Fred J. Romero							CO			na 			Lamar	Tripple A Gutters & Construction","		1706 S. 11th St #3","		719-688-3666		KS14-2959			Lead Renovation Firm			Shane Poteet							FL			N/A 			Fort Lauderdale	Seagull Environmental Management","		900 NW 5th Ave","		800-966-9933		KS14-2824			Lead Activity Firm			James Stump							FL			Volusia 			Daytona Beach	Builder Services Group Inc.","		260 Jimmy Ann Drive","		386-304-2260		KS10-1516			Lead Renovation Firm			Patti Shaffer - Risk Operations					","Joseph Bolduc - Director							GA			COBB 			ATLANTA	HOME DEPOT USA, INC.","		2455 PACES FERRY RD  C-11 COMPLIANCE","		770-433-8211		KS11-2511			Lead Renovation Firm			VANN RILEY							GA			COBB 			ATLANTA	THD AT-HOME SERVICE INC DBA THE HOME DEPOT AT-HOME SERVICES","		2690 CUMBERLAND PKWY SUITE 300","		770-779-1453		KS10-1239			Lead Renovation Firm			CHARLES HICKEY					","PEGGY PAYNE							","ERICA OGAARD					GA			COBB 			SMYRNA	ROMANOFF FLOOR COVERING INC","		3100 JONQUIL DR. SE","		770-980-1234		KS12-2594			Lead Renovation Firm			MARK SIMPSON					","AARON RIBNER							","PAULA GEEKIE					GA			NA 			Norcross	National Installation Solutions, Inc","		4291 Communications Dr","		678-325-4430		KS12-2671			Lead Renovation Firm			Hillary Evans							IA			BLACK HAWK 			WATERLOO	ADVANCED ENVIRONMENTAL TESTING AND ABATEMENT, INC.","		803 RICKER STREET","		319-287-4447		KS12-2625			Lead Renovation Firm			MICHAEL MASSEY							IA			 			Waterloo	Advanced Environmental Testing and Abatement Inc.","		803 Ricker Street","		319-287-4447		KS12-2701			Lead Activity Firm			Michael Poe							IL			COOK 			ARLINGTON HEIGHTS	G.S. FLOOR DESIGNS, INC","		855 W UNIVERSITY DRIVE","		847-394-4000		KS11-2526			Lead Renovation Firm			REGINA PINKSTON							IL			Rock Island 			Rock Island	Ostrom Painting & Sandblasting, Inc.","		1110 8th Avenue","		309-788-1933		KS10-1847			Lead Renovation Firm			David Ostrom							KS			ALLEN 			IOLA	GROW LLC","		1018 MEADOWBROOK ROAD","		620-365-6900		KS10-2180			Lead Renovation Firm			MONTY ROGERS					","RYAN SPARKS							KS			ATCHISON 			ATCHISON	MICHAEL S. HUNDLEY CONSTRUCTION INC.","		1900 MAIN STREET","		913-367-7059		KS13-10461			Lead Renovation Firm			MICHAEL S. HUNDLEY					","SHANE M. HUNDLEY							KS			Allen 			Gas	Burton's Property Management","		118 N Taylor / PO Box 183","		620-363-2007		KS10-2028			Lead Renovation Firm			Rick Burton							KS			Allen 			Humboldt	Fewins Real Properties, LLC","		1836 Alabama Rd.","		620-431-3477		KS10-1883			Lead Renovation Firm			David Fewins							KS			Allen 			Humboldt	Hofer & Hofer & Associates, Inc.","		1201 N 10th Street","		620-473-3919		KS11-2353			Lead Renovation Firm			Justin Wintjen							KS			Allen 			Humboldt	Sparkles Cleaning and Painting","		1001 Central","		620-228-2048		KS10-1827			Lead Renovation Firm			Brenda Clark							KS			Allen 			Iola	AK Construction LLC","		1303 2200th St.","		620-228-3260		KS10-1870			Lead Renovation Firm			Kirsten M. Weide							KS			Allen 			Iola	Boren's Roofing","		306 N State","		620-365-7663		KS11-2279			Lead Renovation Firm			Ron Boren					","Katy Boren							KS			Allen 			LaHarpe	C & C Carpentry","		1410 2600 St","		620-496-6395		KS11-2354			Lead Renovation Firm			Nicholas R Chapman							KS			Allen 			LaHarpe	Diebolt Lumber & Supply","		2661 Nebraska Rd","		620-496-2222		KS11-2271			Lead Renovation Firm			Don Diebolt							KS			An 			Garnett	Crane Lift and Handyman Service","		446 N Cedar","		785-448-8203		KS11-2411			Lead Renovation Firm			Michael Crane							KS			Anderson 			Garnett	ADM Construction","		10467 NW 2300 Rd","		785-233-2210		KS14-2922			Lead Renovation Firm			Allen P. Miller							KS			Anderson 			Garnett	Keim & Sons Construction","		29947 NW Kentucky Rd","		785-448-3562		KS11-2272			Lead Renovation Firm			LaVern Keim							KS			Anderson 			Garnett	Yutzy Construction LLC","		26709 NW Louisianna Rd","		785-248-1397		KS11-2261			Lead Renovation Firm			Daniel Yutzy							KS			Anderson 			Richmond	KP Exteriors, LLC","		33992 NW Jewel Rd","		785-204-2705		KS14-2882			Lead Renovation Firm			Kenneth Pruitt							KS			Atchison 			Atchison	Dave Lackey Painting","		402 N. 14th","		913-367-2862		KS10-1312			Lead Renovation Firm			David R. Lackey							KS			Atchison 			Atchison	Deware Enterprises LLC","		221 North 3rd St # 26","		913-367-3750		KS14-2909			Lead Renovation Firm			David Deware							KS			Atchison 			Atchison	Kearney Construction Inc","		6199 Osage Rd.","		913-367-1200		KS10-1844			Lead Renovation Firm			Gary Kearny Jr							KS			Atchison 			Atchison	L & L Construction","		16083-262nd Road","		913-367-3161		KS10-1535			Lead Renovation Firm			Tesea Kearney							KS			Atchison 			Cummings	Cummins & Sons, LLC","		2438 Osborne Rd","		913-370-0678		KS11-2428			Lead Renovation Firm			Daniel T Cummins II							KS			Atchison 			Everest	Kimmi Construction","		11029 Finney Rd","		785-741-3170		KS10-1948			Lead Renovation Firm			Jason Kimmi							KS			BARTON 			ELLINWOOD	TRINITY RESTORATION MOKAN INC","		1107 NE 50 ROAD","		620-564-3131		KS10-1813			Lead Renovation Firm			LAURA CLAYTON							KS			BARTON 			GREAT BEND	MOSES PROPERTIES LLC","		2015 FOREST AVE STE 205","		620-792-8000		KS10-2136			Lead Renovation Firm			EARL MOSES							KS			BARTON 			Great Bend	C & V HOME IMPROVEMENT, INC .","		1107 10th St.","		620-796-2500		KS10-1284			Lead Renovation Firm			MATT HOISINGTON					","CLAUDIA WESNER							KS			BOURBON 			FORT SCOTT	GREAT EXPECTATIONS RESTORATION, LLC","		1201 S. NATIONAL AVE.","		620-223-3090		KS12-2609			Lead Renovation Firm			MATTHEW WELLS							KS			BOURBON 			FORT SCOTT	JERRY NAFZGER","		1910 235TH","		620-719-0385		KS10-2111			Lead Renovation Firm			JERRY NAFZGER							KS			BR 			Hiawatha	Northeast Kansas Community Action Program, Inc.","		1260 220th St., PO Box 380","		785-742-2222 ext 251		KS10-1373			Lead Renovation Firm			Jack Shaefer							KS			BT 			Ellinwood	Exterior Designs Inc.","		102 S. Main St.","		620-564-3716		KS10-1384			Lead Renovation Firm			Joe Curtiss					","Glen Hertel							KS			BT 			Ellinwood	Joiner Construction Inc.","		PO Box 238","		620-564-2818		KS10-1383			Lead Renovation Firm			Justin Joiner							KS			BT 			GREAT BEND	THE SOUTHARD CORPORATION","		1222 10TH","		620-793-5434		KS10-1212			Lead Renovation Firm			JEFF FRY					","MIKE SOUTHARD							KS			BT 			Great Bend	L&N Contracting","		622 W. Hwy 56","		620-617-6696		KS10-1416			Lead Renovation Firm			Lonnie Philbern							KS			BT 			HOISINGTON	CHRISTIANS SPECIALTIES INC.","		532 NW 160 RD.","		620-653-7684		KS10-1197			Lead Renovation Firm			RAYMOND CHRISTIANS							KS			BU 			AUGUSTA	AEG Handyman Services","		33 HUNTINGTON RD.","		316-866-2728		KS10-1190			Lead Renovation Firm			LAWRENCE L. KEYSER							KS			BU 			Augusta	CM Customworks, Inc.","		9783 SW Santa Fe Lake Rd.","		316-775-0643		KS10-1376			Lead Renovation Firm			Max Reimschesel					","Cory Metzger							KS			BUTLER 			AUGUSTA	PAGE CORPORATION","		6333 SW SANTA FE LAKE RD","		316-262-7200		KS10-1757			Lead Renovation Firm			MIKE PAGE					","KYLE HOWARD							","COLT PAGE					KS			Barber 			Medicine Lodge	Prothe Enterprises","		7741 SE IS HWY 281","		620-886-5240		KS11-2557			Lead Renovation Firm			Craig M Prothe							KS			Barber 			Medicine Lodge	Ruton Construction Inc.","		207 W Stolp","		620-886-3581		KS10-1546			Lead Renovation Firm			Mike Ruton							KS			Barton 			Claflin	CenKan Lead Testing, LLC","		1371 NE 190 Rd","		620-282-3634		KS11-2346			Lead Activity Firm			kachina							KS			Barton 			Ellinwood	Bryant Construction","		111 E. 3rd St.","		620-564-3412		KS10-1734			Lead Renovation Firm			Lyle W. Bryant							KS			Barton 			Great Bend	ART Herren Home Repair","		4206 Railroad Ave","		620-793-8778		KS10-1637			Lead Renovation Firm			Arthur E. Herren							KS			Barton 			Great Bend	Allen's Home Improvement","		439 Kiowa Rd.","		620-791-8345		KS10-1572			Lead Renovation Firm			Barry Allen							KS			Barton 			Great Bend	CPS Home & Garden  DBA Jack the Handyman","		5501 9th Street Lot 99","		620-282-2819		KS15-3034			Lead Renovation Firm			Raza Manase							KS			Barton 			Great Bend	Cusstem Painting & Contracting","		622 West Hwy 56","		620-791-7615		KS10-1520			Lead Renovation Firm			Luie Philbera							KS			Barton 			Great Bend	Feist Construction","		PO Box 314","		620-792-2789		KS14-2942			Lead Renovation Firm			Dan Fiest					","David Feist							KS			Barton 			Great Bend	Parr Construction LLC","		2101 US Highway 281 Bypass, PO Box 1778","		620-792-7020		KS10-1848			Lead Renovation Firm			Doug Clark							KS			Barton 			Great Bend	Rube's Inc.","		5251 9th ST","		620-793-6769		KS10-2141			Lead Renovation Firm			Brian L Pedigo							KS			Barton 			Great Bend	Stueder Contractors, Inc.","		3410 10th Street","		620-792-6044		KS11-2474			Lead Renovation Firm			Terry Stueder							KS			Barton 			Great Bend	TNT Renovations, Inc.","		1400 18th St.","		620-793-3450		KS10-1711			Lead Renovation Firm			Todd A. Smith					","Theresa M. Smith							KS			Barton 			Hoisington	TSI Laboratories","		820 N Pine Street","		620-603-0345		KS15-3022			Lead Renovation Firm			TSI Laboratories					","Tigie Stephens							KS			Brown 			Everest	D & M  Construction","		1191 Prairie Rd","		785-548-7582		KS10-1952			Lead Renovation Firm			Donald Nigh							KS			Brown 			Fairview	Van's Electric","		211 E. 1st St.","		785-467-8380		KS10-1721			Lead Renovation Firm			Elvon VanDalsem							KS			Brown 			Hiawatha	Aller's LLC","		2089 Kingfisher Road","		785-741-2000		KS10-1837			Lead Renovation Firm			Patrick Aller							KS			Brown 			Hiawatha	Eagle Sundown Services","		1114 Utah","		785-288-0364		KS10-1821			Lead Renovation Firm			Roland Keller							KS			Brown 			Hiawatha	Knudson Construction, Inc.","		307 Choctaw Street","		785-742-2415		KS10-1863			Lead Renovation Firm			Knute Knudson							KS			Brown 			Hiawatha	Noel Boye Construction","		309 Miami St.","		785-547-7397		KS10-1587			Lead Renovation Firm			Noel Boye							KS			Brown 			Hiawatha	Schuster Construction","		2887 Killdeer Road","		785-742-7556		KS10-2184			Lead Renovation Firm			Gerald Schuster					","Ramona Schuster							KS			Brown 			Hiawatha	Soden Const.","		607 Pawnee","		785-742-4276		KS10-2044			Lead Renovation Firm			Chad Soden							KS			Brown 			Horton	Scott Rentals","		1147 Central","		785-486-3655		KS11-2405			Lead Renovation Firm			John M Scott							KS			Brown 			Robinson	Siebenmorgen Excavating","		2345 Prairie Rd","		785-741-1820		KS10-2052			Lead Renovation Firm			Luke Siebenmorgen							KS			Butler 			Andover	Bill Griffing Painting, Inc.","		P.O. Box 1004","		316-733-5201		KS10-2053			Lead Renovation Firm			Richard Nethercot							KS			Butler 			Andover	Dennis Smith Construction","		422 W 10th","		316-393-8837		KS10-2162			Lead Renovation Firm			Dennis Smith							KS			Butler 			Andover	Efficiency Exteriors, Inc.","		13922 SW US 54 Hwy","		316-733-6600		KS10-1522			Lead Renovation Firm			Linda Kitch							KS			Butler 			Andover	Oliver Construction","		1139 W. Sumac","		316-393-8303		KS14-2886			Lead Renovation Firm			Phillip Oliver							KS			Butler 			Andover	West & Co. Painting, LLC","		401 W. Central","		316-686-5155		KS10-1854			Lead Renovation Firm			Lawrence West							KS			Butler 			Augusta	AEG Handyman Services, Inc","		33 Huntington Rd.","		316-866-2728		KS10-1372			Lead Renovation Firm			Lawrence L. Keyser							KS			Butler 			Augusta	Elite Enterprises, Inc.","		1405 S. Hwy 77, PO Box 552","		316-841-2582		KS10-1438			Lead Renovation Firm			Stacey L. Bilson, President					","John R. Bilson, Vice President							KS			Butler 			Augusta	Farm & Home Services, L.L.C.","		11202 S.W. 120th","		316-775-3840		KS10-1882			Lead Renovation Firm			Craig W. Smith							KS			Butler 			Augusta	Time Frame","		607 Colleen St","		316-201-1603		KS10-2043			Lead Renovation Firm			Jimmy L Parker							KS			Butler 			Augusta	Tolbert Construction","		1701 Deerborn Street","		316-258-7977		KS13-2788			Lead Renovation Firm			Marion Wesley Tolbert IV							KS			Butler 			Augusta	Wiseman & Associates, LLC","		PO Box 517","		316-253-5085		KS11-2524			Lead Renovation Firm			Ken Wiseman					","Shannon Wiseman							KS			Butler 			El Dorado	Briggs Home Inspection Co. L.L.C.","		8876 NW Kelli Rd","		316-323-4099		KS11-2282			Lead Renovation Firm			Trueman D Briggs							KS			Butler 			El Dorado	Butler Home Improvements LLC","		417 S Main","		316-322-8880		KS10-1902			Lead Renovation Firm			Sarah Clements							KS			Butler 			El Dorado	Eaton Construction","		824 N. Atchison","		316-323-2699		KS10-1775			Lead Renovation Firm			Zach Eaton							KS			Butler 			El Dorado	Hendricks Construction Services","		#8 NE Cole Creek Rd, PO Box 191","		316-322-3937		KS10-1884			Lead Renovation Firm			Ron Hendricks							KS			Butler 			El Dorado	Jedd Cliff","		504 Race","		316-322-5722		KS11-2443			Lead Renovation Firm			Jedd Cliff							KS			Butler 			El Dorado	Mark II Builders","		121 Jones St","		316-321-7240		KS11-2495			Lead Renovation Firm			Mark W Long							KS			Butler 			El Dorado	Scanlon Exteriors","		507 N Summit","		316-322-0432		KS12-2658			Lead Renovation Firm			Christopher J Scanlon							KS			Butler 			El Dorado	Schwindt Remodeling","		3515 W. Towanda Ave.","		316-250-5387		KS10-1751			Lead Renovation Firm			Darren Schwindt							KS			Butler 			El Dorado	Stricklin Remodeling, LLC","		1720 Payton Circle","		316-323-3498		KS10-1808			Lead Renovation Firm			Dennis Stricklin							KS			Butler 			El Dorado	Trailwood Co., Inc.","		615 N Main","		316-321-6500		KS11-2472			Lead Renovation Firm			Eddie Dean							KS			Butler 			El Dorado	USD 490, El Dorado Schools","		124 W Central","		316-322-4800		KS10-2197			Lead Renovation Firm			David W. Wagner- Director of Operations							KS			Butler 			El Dorado	Wilkinson Construction LLC","		1100 S Denver","		316-321-0580		KS12-2647			Lead Renovation Firm			Wade Wilkinson							KS			Butler 			Rose Hill	K Carpentry","		13955 SW 150th","		951-691-6395		KS11-2355			Lead Renovation Firm			Ken Kiser							KS			CD 			CONCORDIA	GEISLER ROOFING INC.","		908 E. 6TH ","		785-243-7298		KS10-1218			Lead Renovation Firm			STEVE GEISLER					","MARK FRASER							KS			CD 			CONCORDIA	SNELL CONTRACTING INC.","		1590 N. 146TH RD.","		785-243-5026		KS10-1220			Lead Renovation Firm			MITCHELL SNELL							KS			CL 			ARKANSAS CITY	Morgan Painting","		3441 302ND RD.","		620-660-2151		KS10-1299			Lead Renovation Firm			JUSTIN R. MORGAN							KS			CLOUD 			CONCORDIA	ACCENT EXTERIORS","		415 E 14TH STREET","		785-569-1375		KS 		KS15-3020			Lead Renovation Firm			Nicole Bailey					","George Wood|AR|Garland|Royal|Windows USA, LLC","		235 Sunshine Rd","		501-767-4843|KS14-2925|Lead Renovation Firm|Eric Oliver|CA|ORANGE|IRVINE|COLLEGE WORKS PAINTING","		1682 LANGLEY AVENUE","		888-450-9675|KS11-2429|Lead Renovation Firm|SEAN PHELPS|CA|ORANGE|ORANGE|AMERICAN TECHNOLOGIES, INC.","		210 BAYWOOD AVENUE","		714-283-9990|KS11-2489|Lead Renovation Firm|GARY MOORE|CA|Sacramento|Gold River|Judson Enterprises Inc. dba K Designers","		2440 Gold River Rd. Ste. 100","		800-515-2788|KS10-1279|Lead Renovation Firm|Larry D. Judson|CO|Adams|Denver|Precision Siding & Construction Co.","		7000 Broadway, 3-300","		303-289-7952|KS10-1627|Lead Renovation Firm|Jeff Woodward					","Kendall Woodward|CO|BOULDER|BOULDER|WEECYCLE ENVIRONMENTAL CONSULTING, INC.","		5375 WESTERN AVE SUITE B","		303-413-0452|KS11-2457|Lead Activity Firm|JUDITH SAWITSKY					","LAUREN YORK|CO|Morgan|Ft. Morgan|ACR Construction","		14521 CR 21","		970-370-3122|KS10-1836|Lead Renovation Firm|Fred J. Romero|CO|na|Lamar|Tripple A Gutters & Construction","		1706 S. 11th St #3","		719-688-3666|KS14-2959|Lead Renovation Firm|Shane Poteet|FL|N/A|Fort Lauderdale|Seagull Environmental Management","		900 NW 5th Ave","		800-966-9933|KS14-2824|Lead Activity Firm|James Stump|FL|Volusia|Daytona Beach|Builder Services Group Inc.","		260 Jimmy Ann Drive","		386-304-2260|KS10-1516|Lead Renovation Firm|Patti Shaffer - Risk Operations					","Joseph Bolduc - Director|GA|COBB|ATLANTA|HOME DEPOT USA, INC.","		2455 PACES FERRY RD  C-11 COMPLIANCE","		770-433-8211|KS11-2511|Lead Renovation Firm|VANN RILEY|GA|COBB|ATLANTA|THD AT-HOME SERVICE INC DBA THE HOME DEPOT AT-HOME SERVICES","		2690 CUMBERLAND PKWY SUITE 300","		770-779-1453|KS10-1239|Lead Renovation Firm|CHARLES HICKEY					","PEGGY PAYNE							","ERICA OGAARD|GA|COBB|SMYRNA|ROMANOFF FLOOR COVERING INC","		3100 JONQUIL DR. SE","		770-980-1234|KS12-2594|Lead Renovation Firm|MARK SIMPSON					","AARON RIBNER							","PAULA GEEKIE|GA|NA|Norcross|National Installation Solutions, Inc","		4291 Communications Dr","		678-325-4430|KS12-2671|Lead Renovation Firm|Hillary Evans|IA|BLACK HAWK|WATERLOO|ADVANCED ENVIRONMENTAL TESTING AND ABATEMENT, INC.","		803 RICKER STREET","		319-287-4447|KS12-2625|Lead Renovation Firm|MICHAEL MASSEY|IA||Waterloo|Advanced Environmental Testing and Abatement Inc.","		803 Ricker Street","		319-287-4447|KS12-2701|Lead Activity Firm|Michael Poe|IL|COOK|ARLINGTON HEIGHTS|G.S. FLOOR DESIGNS, INC","		855 W UNIVERSITY DRIVE","		847-394-4000|KS11-2526|Lead Renovation Firm|REGINA PINKSTON|IL|Rock Island|Rock Island|Ostrom Painting & Sandblasting, Inc.","		1110 8th Avenue","		309-788-1933|KS10-1847|Lead Renovation Firm|David Ostrom|KS|ALLEN|IOLA|GROW LLC","		1018 MEADOWBROOK ROAD","		620-365-6900|KS10-2180|Lead Renovation Firm|MONTY ROGERS					","RYAN SPARKS|KS|ATCHISON|ATCHISON|MICHAEL S. HUNDLEY CONSTRUCTION INC.","		1900 MAIN STREET","		913-367-7059|KS13-10461|Lead Renovation Firm|MICHAEL S. HUNDLEY					","SHANE M. HUNDLEY|KS|Allen|Gas|Burton's Property Management","		118 N Taylor / PO Box 183","		620-363-2007|KS10-2028|Lead Renovation Firm|Rick Burton|KS|Allen|Humboldt|Fewins Real Properties, LLC","		1836 Alabama Rd.","		620-431-3477|KS10-1883|Lead Renovation Firm|David Fewins|KS|Allen|Humboldt|Hofer & Hofer & Associates, Inc.","		1201 N 10th Street","		620-473-3919|KS11-2353|Lead Renovation Firm|Justin Wintjen|KS|Allen|Humboldt|Sparkles Cleaning and Painting","		1001 Central","		620-228-2048|KS10-1827|Lead Renovation Firm|Brenda Clark|KS|Allen|Iola|AK Construction LLC","		1303 2200th St.","		620-228-3260|KS10-1870|Lead Renovation Firm|Kirsten M. Weide|KS|Allen|Iola|Boren's Roofing","		306 N State","		620-365-7663|KS11-2279|Lead Renovation Firm|Ron Boren					","Katy Boren|KS|Allen|LaHarpe|C & C Carpentry","		1410 2600 St","		620-496-6395|KS11-2354|Lead Renovation Firm|Nicholas R Chapman|KS|Allen|LaHarpe|Diebolt Lumber & Supply","		2661 Nebraska Rd","		620-496-2222|KS11-2271|Lead Renovation Firm|Don Diebolt|KS|An|Garnett|Crane Lift and Handyman Service","		446 N Cedar","		785-448-8203|KS11-2411|Lead Renovation Firm|Michael Crane|KS|Anderson|Garnett|ADM Construction","		10467 NW 2300 Rd","		785-233-2210|KS14-2922|Lead Renovation Firm|Allen P. Miller|KS|Anderson|Garnett|Keim & Sons Construction","		29947 NW Kentucky Rd","		785-448-3562|KS11-2272|Lead Renovation Firm|LaVern Keim|KS|Anderson|Garnett|Yutzy Construction LLC","		26709 NW Louisianna Rd","		785-248-1397|KS11-2261|Lead Renovation Firm|Daniel Yutzy|KS|Anderson|Richmond|KP Exteriors, LLC","		33992 NW Jewel Rd","		785-204-2705|KS14-2882|Lead Renovation Firm|Kenneth Pruitt|KS|Atchison|Atchison|Dave Lackey Painting","		402 N. 14th","		913-367-2862|KS10-1312|Lead Renovation Firm|David R. Lackey|KS|Atchison|Atchison|Deware Enterprises LLC","		221 North 3rd St # 26","		913-367-3750|KS14-2909|Lead Renovation Firm|David Deware|KS|Atchison|Atchison|Kearney Construction Inc","		6199 Osage Rd.","		913-367-1200|KS10-1844|Lead Renovation Firm|Gary Kearny Jr|KS|Atchison|Atchison|L & L Construction","		16083-262nd Road","		913-367-3161|KS10-1535|Lead Renovation Firm|Tesea Kearney|KS|Atchison|Cummings|Cummins & Sons, LLC","		2438 Osborne Rd","		913-370-0678|KS11-2428|Lead Renovation Firm|Daniel T Cummins II|KS|Atchison|Everest|Kimmi Construction","		11029 Finney Rd","		785-741-3170|KS10-1948|Lead Renovation Firm|Jason Kimmi|KS|BARTON|ELLINWOOD|TRINITY RESTORATION MOKAN INC","		1107 NE 50 ROAD","		620-564-3131|KS10-1813|Lead Renovation Firm|LAURA CLAYTON|KS|BARTON|GREAT BEND|MOSES PROPERTIES LLC","		2015 FOREST AVE STE 205","		620-792-8000|KS10-2136|Lead Renovation Firm|EARL MOSES|KS|BARTON|Great Bend|C & V HOME IMPROVEMENT, INC .","		1107 10th St.","		620-796-2500|KS10-1284|Lead Renovation Firm|MATT HOISINGTON					","CLAUDIA WESNER|KS|BOURBON|FORT SCOTT|GREAT EXPECTATIONS RESTORATION, LLC","		1201 S. NATIONAL AVE.","		620-223-3090|KS12-2609|Lead Renovation Firm|MATTHEW WELLS|KS|BOURBON|FORT SCOTT|JERRY NAFZGER","		1910 235TH","		620-719-0385|KS10-2111|Lead Renovation Firm|JERRY NAFZGER|KS|BR|Hiawatha|Northeast Kansas Community Action Program, Inc.","		1260 220th St., PO Box 380","		785-742-2222 ext 251|KS10-1373|Lead Renovation Firm|Jack Shaefer|KS|BT|Ellinwood|Exterior Designs Inc.","		102 S. Main St.","		620-564-3716|KS10-1384|Lead Renovation Firm|Joe Curtiss					","Glen Hertel|KS|BT|Ellinwood|Joiner Construction Inc.","		PO Box 238","		620-564-2818|KS10-1383|Lead Renovation Firm|Justin Joiner|KS|BT|GREAT BEND|THE SOUTHARD CORPORATION","		1222 10TH","		620-793-5434|KS10-1212|Lead Renovation Firm|JEFF FRY					","MIKE SOUTHARD|KS|BT|Great Bend|L&N Contracting","		622 W. Hwy 56","		620-617-6696|KS10-1416|Lead Renovation Firm|Lonnie Philbern|KS|BT|HOISINGTON|CHRISTIANS SPECIALTIES INC.","		532 NW 160 RD.","		620-653-7684|KS10-1197|Lead Renovation Firm|RAYMOND CHRISTIANS|KS|BU|AUGUSTA|AEG Handyman Services","		33 HUNTINGTON RD.","		316-866-2728|KS10-1190|Lead Renovation Firm|LAWRENCE L. KEYSER|KS|BU|Augusta|CM Customworks, Inc.","		9783 SW Santa Fe Lake Rd.","		316-775-0643|KS10-1376|Lead Renovation Firm|Max Reimschesel					","Cory Metzger|KS|BUTLER|AUGUSTA|PAGE CORPORATION","		6333 SW SANTA FE LAKE RD","		316-262-7200|KS10-1757|Lead Renovation Firm|MIKE PAGE					","KYLE HOWARD							","COLT PAGE|KS|Barber|Medicine Lodge|Prothe Enterprises","		7741 SE IS HWY 281","		620-886-5240|KS11-2557|Lead Renovation Firm|Craig M Prothe|KS|Barber|Medicine Lodge|Ruton Construction Inc.","		207 W Stolp","		620-886-3581|KS10-1546|Lead Renovation Firm|Mike Ruton|KS|Barton|Claflin|CenKan Lead Testing, LLC","		1371 NE 190 Rd","		620-282-3634|KS11-2346|Lead Activity Firm|kachina|KS|Barton|Ellinwood|Bryant Construction","		111 E. 3rd St.","		620-564-3412|KS10-1734|Lead Renovation Firm|Lyle W. Bryant|KS|Barton|Great Bend|ART Herren Home Repair","		4206 Railroad Ave","		620-793-8778|KS10-1637|Lead Renovation Firm|Arthur E. Herren|KS|Barton|Great Bend|Allen's Home Improvement","		439 Kiowa Rd.","		620-791-8345|KS10-1572|Lead Renovation Firm|Barry Allen|KS|Barton|Great Bend|CPS Home & Garden  DBA Jack the Handyman","		5501 9th Street Lot 99","		620-282-2819|KS15-3034|Lead Renovation Firm|Raza Manase|KS|Barton|Great Bend|Cusstem Painting & Contracting","		622 West Hwy 56","		620-791-7615|KS10-1520|Lead Renovation Firm|Luie Philbera|KS|Barton|Great Bend|Feist Construction","		PO Box 314","		620-792-2789|KS14-2942|Lead Renovation Firm|Dan Fiest					","David Feist|KS|Barton|Great Bend|Parr Construction LLC","		2101 US Highway 281 Bypass, PO Box 1778","		620-792-7020|KS10-1848|Lead Renovation Firm|Doug Clark|KS|Barton|Great Bend|Rube's Inc.","		5251 9th ST","		620-793-6769|KS10-2141|Lead Renovation Firm|Brian L Pedigo|KS|Barton|Great Bend|Stueder Contractors, Inc.","		3410 10th Street","		620-792-6044|KS11-2474|Lead Renovation Firm|Terry Stueder|KS|Barton|Great Bend|TNT Renovations, Inc.","		1400 18th St.","		620-793-3450|KS10-1711|Lead Renovation Firm|Todd A. Smith					","Theresa M. Smith|KS|Barton|Hoisington|TSI Laboratories","		820 N Pine Street","		620-603-0345|KS15-3022|Lead Renovation Firm|TSI Laboratories					","Tigie Stephens|KS|Brown|Everest|D & M  Construction","		1191 Prairie Rd","		785-548-7582|KS10-1952|Lead Renovation Firm|Donald Nigh|KS|Brown|Fairview|Van's Electric","		211 E. 1st St.","		785-467-8380|KS10-1721|Lead Renovation Firm|Elvon VanDalsem|KS|Brown|Hiawatha|Aller's LLC","		2089 Kingfisher Road","		785-741-2000|KS10-1837|Lead Renovation Firm|Patrick Aller|KS|Brown|Hiawatha|Eagle Sundown Services","		1114 Utah","		785-288-0364|KS10-1821|Lead Renovation Firm|Roland Keller|KS|Brown|Hiawatha|Knudson Construction, Inc.","		307 Choctaw Street","		785-742-2415|KS10-1863|Lead Renovation Firm|Knute Knudson|KS|Brown|Hiawatha|Noel Boye Construction","		309 Miami St.","		785-547-7397|KS10-1587|Lead Renovation Firm|Noel Boye|KS|Brown|Hiawatha|Schuster Construction","		2887 Killdeer Road","		785-742-7556|KS10-2184|Lead Renovation Firm|Gerald Schuster					","Ramona Schuster|KS|Brown|Hiawatha|Soden Const.","		607 Pawnee","		785-742-4276|KS10-2044|Lead Renovation Firm|Chad Soden|KS|Brown|Horton|Scott Rentals","		1147 Central","		785-486-3655|KS11-2405|Lead Renovation Firm|John M Scott|KS|Brown|Robinson|Siebenmorgen Excavating","		2345 Prairie Rd","		785-741-1820|KS10-2052|Lead Renovation Firm|Luke Siebenmorgen|KS|Butler|Andover|Bill Griffing Painting, Inc.","		P.O. Box 1004","		316-733-5201|KS10-2053|Lead Renovation Firm|Richard Nethercot|KS|Butler|Andover|Dennis Smith Construction","		422 W 10th","		316-393-8837|KS10-2162|Lead Renovation Firm|Dennis Smith|KS|Butler|Andover|Efficiency Exteriors, Inc.","		13922 SW US 54 Hwy","		316-733-6600|KS10-1522|Lead Renovation Firm|Linda Kitch|KS|Butler|Andover|Oliver Construction","		1139 W. Sumac","		316-393-8303|KS14-2886|Lead Renovation Firm|Phillip Oliver|KS|Butler|Andover|West & Co. Painting, LLC","		401 W. Central","		316-686-5155|KS10-1854|Lead Renovation Firm|Lawrence West|KS|Butler|Augusta|AEG Handyman Services, Inc","		33 Huntington Rd.","		316-866-2728|KS10-1372|Lead Renovation Firm|Lawrence L. Keyser|KS|Butler|Augusta|Elite Enterprises, Inc.","		1405 S. Hwy 77, PO Box 552","		316-841-2582|KS10-1438|Lead Renovation Firm|Stacey L. Bilson, President					","John R. Bilson, Vice President|KS|Butler|Augusta|Farm & Home Services, L.L.C.","		11202 S.W. 120th","		316-775-3840|KS10-1882|Lead Renovation Firm|Craig W. Smith|KS|Butler|Augusta|Time Frame","		607 Colleen St","		316-201-1603|KS10-2043|Lead Renovation Firm|Jimmy L Parker|KS|Butler|Augusta|Tolbert Construction","		1701 Deerborn Street","		316-258-7977|KS13-2788|Lead Renovation Firm|Marion Wesley Tolbert IV|KS|Butler|Augusta|Wiseman & Associates, LLC","		PO Box 517","		316-253-5085|KS11-2524|Lead Renovation Firm|Ken Wiseman					","Shannon Wiseman|KS|Butler|El Dorado|Briggs Home Inspection Co. L.L.C.","		8876 NW Kelli Rd","		316-323-4099|KS11-2282|Lead Renovation Firm|Trueman D Briggs|KS|Butler|El Dorado|Butler Home Improvements LLC","		417 S Main","		316-322-8880|KS10-1902|Lead Renovation Firm|Sarah Clements|KS|Butler|El Dorado|Eaton Construction","		824 N. Atchison","		316-323-2699|KS10-1775|Lead Renovation Firm|Zach Eaton|KS|Butler|El Dorado|Hendricks Construction Services","		#8 NE Cole Creek Rd, PO Box 191","		316-322-3937|KS10-1884|Lead Renovation Firm|Ron Hendricks|KS|Butler|El Dorado|Jedd Cliff","		504 Race","		316-322-5722|KS11-2443|Lead Renovation Firm|Jedd Cliff|KS|Butler|El Dorado|Mark II Builders","		121 Jones St","		316-321-7240|KS11-2495|Lead Renovation Firm|Mark W Long|KS|Butler|El Dorado|Scanlon Exteriors","		507 N Summit","		316-322-0432|KS12-2658|Lead Renovation Firm|Christopher J Scanlon|KS|Butler|El Dorado|Schwindt Remodeling","		3515 W. Towanda Ave.","		316-250-5387|KS10-1751|Lead Renovation Firm|Darren Schwindt|KS|Butler|El Dorado|Stricklin Remodeling, LLC","		1720 Payton Circle","		316-323-3498|KS10-1808|Lead Renovation Firm|Dennis Stricklin|KS|Butler|El Dorado|Trailwood Co., Inc.","		615 N Main","		316-321-6500|KS11-2472|Lead Renovation Firm|Eddie Dean|KS|Butler|El Dorado|USD 490, El Dorado Schools","		124 W Central","		316-322-4800|KS10-2197|Lead Renovation Firm|David W. Wagner- Director of Operations|KS|Butler|El Dorado|Wilkinson Construction LLC","		1100 S Denver","		316-321-0580|KS12-2647|Lead Renovation Firm|Wade Wilkinson|KS|Butler|Rose Hill|K Carpentry","		13955 SW 150th","		951-691-6395|KS11-2355|Lead Renovation Firm|Ken Kiser|KS|CD|CONCORDIA|GEISLER ROOFING INC.","		908 E. 6TH ","		785-243-7298|KS10-1218|Lead Renovation Firm|STEVE GEISLER					","MARK FRASER|KS|CD|CONCORDIA|SNELL CONTRACTING INC.","		1590 N. 146TH RD.","		785-243-5026|KS10-1220|Lead Renovation Firm|MITCHELL SNELL|KS|CL|ARKANSAS CITY|Morgan Painting","		3441 302ND RD.","		620-660-2151|KS10-1299|Lead Renovation Firm|JUSTIN R. MORGAN|KS|CLOUD|CONCORDIA|ACCENT EXTERIORS","		415 E 14TH STREET","		785-569-1375|KS|KS15-3020|Lead Renovation Firm|Nicole Bailey					","George Wood|
1
1|AR|Garland|Royal|Windows USA, LLC","		235 Sunshine Rd","		501-767-4843|KS14-2925|Lead Renovation Firm|Eric Oliver
1|CA|ORANGE|IRVINE|COLLEGE WORKS PAINTING","		1682 LANGLEY AVENUE","		888-450-9675|KS11-2429|Lead Renovation Firm|SEAN PHELPS
1|CA|ORANGE|ORANGE|AMERICAN TECHNOLOGIES, INC.","		210 BAYWOOD AVENUE","		714-283-9990|KS11-2489|Lead Renovation Firm|GARY MOORE
1|CA|Sacramento|Gold River|Judson Enterprises Inc. dba K Designers","		2440 Gold River Rd. Ste. 100","		800-515-2788|KS10-1279|Lead Renovation Firm|Larry D. Judson
1|CO|Adams|Denver|Precision Siding & Construction Co.","		7000 Broadway, 3-300","		303-289-7952|KS10-1627|Lead Renovation Firm|Jeff Woodward					","Kendall Woodward
1|CO|BOULDER|BOULDER|WEECYCLE ENVIRONMENTAL CONSULTING, INC.","		5375 WESTERN AVE SUITE B","		303-413-0452|KS11-2457|Lead Activity Firm|JUDITH SAWITSKY					","LAUREN YORK
1|CO|Morgan|Ft. Morgan|ACR Construction","		14521 CR 21","		970-370-3122|KS10-1836|Lead Renovation Firm|Fred J. Romero
1|CO|na|Lamar|Tripple A Gutters & Construction","		1706 S. 11th St #3","		719-688-3666|KS14-2959|Lead Renovation Firm|Shane Poteet
1|FL|N/A|Fort Lauderdale|Seagull Environmental Management","		900 NW 5th Ave","		800-966-9933|KS14-2824|Lead Activity Firm|James Stump
1|FL|Volusia|Daytona Beach|Builder Services Group Inc.","		260 Jimmy Ann Drive","		386-304-2260|KS10-1516|Lead Renovation Firm|Patti Shaffer - Risk Operations					","Joseph Bolduc - Director
1|GA|COBB|ATLANTA|HOME DEPOT USA, INC.","		2455 PACES FERRY RD  C-11 COMPLIANCE","		770-433-8211|KS11-2511|Lead Renovation Firm|VANN RILEY
1|GA|COBB|ATLANTA|THD AT-HOME SERVICE INC DBA THE HOME DEPOT AT-HOME SERVICES","		2690 CUMBERLAND PKWY SUITE 300","		770-779-1453|KS10-1239|Lead Renovation Firm|CHARLES HICKEY					","PEGGY PAYNE							","ERICA OGAARD
1|GA|COBB|SMYRNA|ROMANOFF FLOOR COVERING INC","		3100 JONQUIL DR. SE","		770-980-1234|KS12-2594|Lead Renovation Firm|MARK SIMPSON					","AARON RIBNER							","PAULA GEEKIE
1|GA|NA|Norcross|National Installation Solutions, Inc","		4291 Communications Dr","		678-325-4430|KS12-2671|Lead Renovation Firm|Hillary Evans
1|IA|BLACK HAWK|WATERLOO|ADVANCED ENVIRONMENTAL TESTING AND ABATEMENT, INC.","		803 RICKER STREET","		319-287-4447|KS12-2625|Lead Renovation Firm|MICHAEL MASSEY
1|IA||Waterloo|Advanced Environmental Testing and Abatement Inc.","		803 Ricker Street","		319-287-4447|KS12-2701|Lead Activity Firm|Michael Poe
1|IL|COOK|ARLINGTON HEIGHTS|G.S. FLOOR DESIGNS, INC","		855 W UNIVERSITY DRIVE","		847-394-4000|KS11-2526|Lead Renovation Firm|REGINA PINKSTON
1|IL|Rock Island|Rock Island|Ostrom Painting & Sandblasting, Inc.","		1110 8th Avenue","		309-788-1933|KS10-1847|Lead Renovation Firm|David Ostrom
1|KS|ALLEN|IOLA|GROW LLC","		1018 MEADOWBROOK ROAD","		620-365-6900|KS10-2180|Lead Renovation Firm|MONTY ROGERS					","RYAN SPARKS
1|KS|ATCHISON|ATCHISON|MICHAEL S. HUNDLEY CONSTRUCTION INC.","		1900 MAIN STREET","		913-367-7059|KS13-10461|Lead Renovation Firm|MICHAEL S. HUNDLEY					","SHANE M. HUNDLEY
1|KS|Allen|Gas|Burton's Property Management","		118 N Taylor / PO Box 183","		620-363-2007|KS10-2028|Lead Renovation Firm|Rick Burton
1|KS|Allen|Humboldt|Fewins Real Properties, LLC","		1836 Alabama Rd.","		620-431-3477|KS10-1883|Lead Renovation Firm|David Fewins
1|KS|Allen|Humboldt|Hofer & Hofer & Associates, Inc.","		1201 N 10th Street","		620-473-3919|KS11-2353|Lead Renovation Firm|Justin Wintjen
1|KS|Allen|Humboldt|Sparkles Cleaning and Painting","		1001 Central","		620-228-2048|KS10-1827|Lead Renovation Firm|Brenda Clark
1|KS|Allen|Iola|AK Construction LLC","		1303 2200th St.","		620-228-3260|KS10-1870|Lead Renovation Firm|Kirsten M. Weide
1|KS|Allen|Iola|Boren's Roofing","		306 N State","		620-365-7663|KS11-2279|Lead Renovation Firm|Ron Boren					","Katy Boren
1|KS|Allen|LaHarpe|C & C Carpentry","		1410 2600 St","		620-496-6395|KS11-2354|Lead Renovation Firm|Nicholas R Chapman
1|KS|Allen|LaHarpe|Diebolt Lumber & Supply","		2661 Nebraska Rd","		620-496-2222|KS11-2271|Lead Renovation Firm|Don Diebolt
1|KS|An|Garnett|Crane Lift and Handyman Service","		446 N Cedar","		785-448-8203|KS11-2411|Lead Renovation Firm|Michael Crane
1|KS|Anderson|Garnett|ADM Construction","		10467 NW 2300 Rd","		785-233-2210|KS14-2922|Lead Renovation Firm|Allen P. Miller
1|KS|Anderson|Garnett|Keim & Sons Construction","		29947 NW Kentucky Rd","		785-448-3562|KS11-2272|Lead Renovation Firm|LaVern Keim
1|KS|Anderson|Garnett|Yutzy Construction LLC","		26709 NW Louisianna Rd","		785-248-1397|KS11-2261|Lead Renovation Firm|Daniel Yutzy
1|KS|Anderson|Richmond|KP Exteriors, LLC","		33992 NW Jewel Rd","		785-204-2705|KS14-2882|Lead Renovation Firm|Kenneth Pruitt
1|KS|Atchison|Atchison|Dave Lackey Painting","		402 N. 14th","		913-367-2862|KS10-1312|Lead Renovation Firm|David R. Lackey
1|KS|Atchison|Atchison|Deware Enterprises LLC","		221 North 3rd St # 26","		913-367-3750|KS14-2909|Lead Renovation Firm|David Deware
1|KS|Atchison|Atchison|Kearney Construction Inc","		6199 Osage Rd.","		913-367-1200|KS10-1844|Lead Renovation Firm|Gary Kearny Jr
1|KS|Atchison|Atchison|L & L Construction","		16083-262nd Road","		913-367-3161|KS10-1535|Lead Renovation Firm|Tesea Kearney
1|KS|Atchison|Cummings|Cummins & Sons, LLC","		2438 Osborne Rd","		913-370-0678|KS11-2428|Lead Renovation Firm|Daniel T Cummins II
1|KS|Atchison|Everest|Kimmi Construction","		11029 Finney Rd","		785-741-3170|KS10-1948|Lead Renovation Firm|Jason Kimmi
1|KS|BARTON|ELLINWOOD|TRINITY RESTORATION MOKAN INC","		1107 NE 50 ROAD","		620-564-3131|KS10-1813|Lead Renovation Firm|LAURA CLAYTON
1|KS|BARTON|GREAT BEND|MOSES PROPERTIES LLC","		2015 FOREST AVE STE 205","		620-792-8000|KS10-2136|Lead Renovation Firm|EARL MOSES
1|KS|BARTON|Great Bend|C & V HOME IMPROVEMENT, INC .","		1107 10th St.","		620-796-2500|KS10-1284|Lead Renovation Firm|MATT HOISINGTON					","CLAUDIA WESNER
1|KS|BOURBON|FORT SCOTT|GREAT EXPECTATIONS RESTORATION, LLC","		1201 S. NATIONAL AVE.","		620-223-3090|KS12-2609|Lead Renovation Firm|MATTHEW WELLS
1|KS|BOURBON|FORT SCOTT|JERRY NAFZGER","		1910 235TH","		620-719-0385|KS10-2111|Lead Renovation Firm|JERRY NAFZGER
1|KS|BR|Hiawatha|Northeast Kansas Community Action Program, Inc.","		1260 220th St., PO Box 380","		785-742-2222 ext 251|KS10-1373|Lead Renovation Firm|Jack Shaefer
1|KS|BT|Ellinwood|Exterior Designs Inc.","		102 S. Main St.","		620-564-3716|KS10-1384|Lead Renovation Firm|Joe Curtiss					","Glen Hertel
1|KS|BT|Ellinwood|Joiner Construction Inc.","		PO Box 238","		620-564-2818|KS10-1383|Lead Renovation Firm|Justin Joiner
1|KS|BT|GREAT BEND|THE SOUTHARD CORPORATION","		1222 10TH","		620-793-5434|KS10-1212|Lead Renovation Firm|JEFF FRY					","MIKE SOUTHARD
1|KS|BT|Great Bend|L&N Contracting","		622 W. Hwy 56","		620-617-6696|KS10-1416|Lead Renovation Firm|Lonnie Philbern
1|KS|BT|HOISINGTON|CHRISTIANS SPECIALTIES INC.","		532 NW 160 RD.","		620-653-7684|KS10-1197|Lead Renovation Firm|RAYMOND CHRISTIANS
1|KS|BU|AUGUSTA|AEG Handyman Services","		33 HUNTINGTON RD.","		316-866-2728|KS10-1190|Lead Renovation Firm|LAWRENCE L. KEYSER
1|KS|BU|Augusta|CM Customworks, Inc.","		9783 SW Santa Fe Lake Rd.","		316-775-0643|KS10-1376|Lead Renovation Firm|Max Reimschesel					","Cory Metzger
1|KS|BUTLER|AUGUSTA|PAGE CORPORATION","		6333 SW SANTA FE LAKE RD","		316-262-7200|KS10-1757|Lead Renovation Firm|MIKE PAGE					","KYLE HOWARD							","COLT PAGE
1|KS|Barber|Medicine Lodge|Prothe Enterprises","		7741 SE IS HWY 281","		620-886-5240|KS11-2557|Lead Renovation Firm|Craig M Prothe
1|KS|Barber|Medicine Lodge|Ruton Construction Inc.","		207 W Stolp","		620-886-3581|KS10-1546|Lead Renovation Firm|Mike Ruton
1|KS|Barton|Claflin|CenKan Lead Testing, LLC","		1371 NE 190 Rd","		620-282-3634|KS11-2346|Lead Activity Firm|kachina
1|KS|Barton|Ellinwood|Bryant Construction","		111 E. 3rd St.","		620-564-3412|KS10-1734|Lead Renovation Firm|Lyle W. Bryant
1|KS|Barton|Great Bend|ART Herren Home Repair","		4206 Railroad Ave","		620-793-8778|KS10-1637|Lead Renovation Firm|Arthur E. Herren
1|KS|Barton|Great Bend|Allen's Home Improvement","		439 Kiowa Rd.","		620-791-8345|KS10-1572|Lead Renovation Firm|Barry Allen
1|KS|Barton|Great Bend|CPS Home & Garden  DBA Jack the Handyman","		5501 9th Street Lot 99","		620-282-2819|KS15-3034|Lead Renovation Firm|Raza Manase
1|KS|Barton|Great Bend|Cusstem Painting & Contracting","		622 West Hwy 56","		620-791-7615|KS10-1520|Lead Renovation Firm|Luie Philbera
1|KS|Barton|Great Bend|Feist Construction","		PO Box 314","		620-792-2789|KS14-2942|Lead Renovation Firm|Dan Fiest					","David Feist
1|KS|Barton|Great Bend|Parr Construction LLC","		2101 US Highway 281 Bypass, PO Box 1778","		620-792-7020|KS10-1848|Lead Renovation Firm|Doug Clark
1|KS|Barton|Great Bend|Rube's Inc.","		5251 9th ST","		620-793-6769|KS10-2141|Lead Renovation Firm|Brian L Pedigo
1|KS|Barton|Great Bend|Stueder Contractors, Inc.","		3410 10th Street","		620-792-6044|KS11-2474|Lead Renovation Firm|Terry Stueder
1|KS|Barton|Great Bend|TNT Renovations, Inc.","		1400 18th St.","		620-793-3450|KS10-1711|Lead Renovation Firm|Todd A. Smith					","Theresa M. Smith
1|KS|Barton|Hoisington|TSI Laboratories","		820 N Pine Street","		620-603-0345|KS15-3022|Lead Renovation Firm|TSI Laboratories					","Tigie Stephens
1|KS|Brown|Everest|D & M  Construction","		1191 Prairie Rd","		785-548-7582|KS10-1952|Lead Renovation Firm|Donald Nigh
1|KS|Brown|Fairview|Van's Electric","		211 E. 1st St.","		785-467-8380|KS10-1721|Lead Renovation Firm|Elvon VanDalsem
1|KS|Brown|Hiawatha|Aller's LLC","		2089 Kingfisher Road","		785-741-2000|KS10-1837|Lead Renovation Firm|Patrick Aller
1|KS|Brown|Hiawatha|Eagle Sundown Services","		1114 Utah","		785-288-0364|KS10-1821|Lead Renovation Firm|Roland Keller
1|KS|Brown|Hiawatha|Knudson Construction, Inc.","		307 Choctaw Street","		785-742-2415|KS10-1863|Lead Renovation Firm|Knute Knudson
1|KS|Brown|Hiawatha|Noel Boye Construction","		309 Miami St.","		785-547-7397|KS10-1587|Lead Renovation Firm|Noel Boye
1|KS|Brown|Hiawatha|Schuster Construction","		2887 Killdeer Road","		785-742-7556|KS10-2184|Lead Renovation Firm|Gerald Schuster					","Ramona Schuster
1|KS|Brown|Hiawatha|Soden Const.","		607 Pawnee","		785-742-4276|KS10-2044|Lead Renovation Firm|Chad Soden
1|KS|Brown|Horton|Scott Rentals","		1147 Central","		785-486-3655|KS11-2405|Lead Renovation Firm|John M Scott
1|KS|Brown|Robinson|Siebenmorgen Excavating","		2345 Prairie Rd","		785-741-1820|KS10-2052|Lead Renovation Firm|Luke Siebenmorgen
1|KS|Butler|Andover|Bill Griffing Painting, Inc.","		P.O. Box 1004","		316-733-5201|KS10-2053|Lead Renovation Firm|Richard Nethercot
1|KS|Butler|Andover|Dennis Smith Construction","		422 W 10th","		316-393-8837|KS10-2162|Lead Renovation Firm|Dennis Smith
1|KS|Butler|Andover|Efficiency Exteriors, Inc.","		13922 SW US 54 Hwy","		316-733-6600|KS10-1522|Lead Renovation Firm|Linda Kitch
1|KS|Butler|Andover|Oliver Construction","		1139 W. Sumac","		316-393-8303|KS14-2886|Lead Renovation Firm|Phillip Oliver
1|KS|Butler|Andover|West & Co. Painting, LLC","		401 W. Central","		316-686-5155|KS10-1854|Lead Renovation Firm|Lawrence West
1|KS|Butler|Augusta|AEG Handyman Services, Inc","		33 Huntington Rd.","		316-866-2728|KS10-1372|Lead Renovation Firm|Lawrence L. Keyser
1|KS|Butler|Augusta|Elite Enterprises, Inc.","		1405 S. Hwy 77, PO Box 552","		316-841-2582|KS10-1438|Lead Renovation Firm|Stacey L. Bilson, President					","John R. Bilson, Vice President
1|KS|Butler|Augusta|Farm & Home Services, L.L.C.","		11202 S.W. 120th","		316-775-3840|KS10-1882|Lead Renovation Firm|Craig W. Smith
1|KS|Butler|Augusta|Time Frame","		607 Colleen St","		316-201-1603|KS10-2043|Lead Renovation Firm|Jimmy L Parker
1|KS|Butler|Augusta|Tolbert Construction","		1701 Deerborn Street","		316-258-7977|KS13-2788|Lead Renovation Firm|Marion Wesley Tolbert IV
1|KS|Butler|Augusta|Wiseman & Associates, LLC","		PO Box 517","		316-253-5085|KS11-2524|Lead Renovation Firm|Ken Wiseman					","Shannon Wiseman
1|KS|Butler|El Dorado|Briggs Home Inspection Co. L.L.C.","		8876 NW Kelli Rd","		316-323-4099|KS11-2282|Lead Renovation Firm|Trueman D Briggs
1|KS|Butler|El Dorado|Butler Home Improvements LLC","		417 S Main","		316-322-8880|KS10-1902|Lead Renovation Firm|Sarah Clements
1|KS|Butler|El Dorado|Eaton Construction","		824 N. Atchison","		316-323-2699|KS10-1775|Lead Renovation Firm|Zach Eaton
1|KS|Butler|El Dorado|Hendricks Construction Services","		#8 NE Cole Creek Rd, PO Box 191","		316-322-3937|KS10-1884|Lead Renovation Firm|Ron Hendricks
1|KS|Butler|El Dorado|Jedd Cliff","		504 Race","		316-322-5722|KS11-2443|Lead Renovation Firm|Jedd Cliff
1|KS|Butler|El Dorado|Mark II Builders","		121 Jones St","		316-321-7240|KS11-2495|Lead Renovation Firm|Mark W Long
1|KS|Butler|El Dorado|Scanlon Exteriors","		507 N Summit","		316-322-0432|KS12-2658|Lead Renovation Firm|Christopher J Scanlon
1|KS|Butler|El Dorado|Schwindt Remodeling","		3515 W. Towanda Ave.","		316-250-5387|KS10-1751|Lead Renovation Firm|Darren Schwindt
1|KS|Butler|El Dorado|Stricklin Remodeling, LLC","		1720 Payton Circle","		316-323-3498|KS10-1808|Lead Renovation Firm|Dennis Stricklin
1|KS|Butler|El Dorado|Trailwood Co., Inc.","		615 N Main","		316-321-6500|KS11-2472|Lead Renovation Firm|Eddie Dean
1|KS|Butler|El Dorado|USD 490, El Dorado Schools","		124 W Central","		316-322-4800|KS10-2197|Lead Renovation Firm|David W. Wagner- Director of Operations
1|KS|Butler|El Dorado|Wilkinson Construction LLC","		1100 S Denver","		316-321-0580|KS12-2647|Lead Renovation Firm|Wade Wilkinson
1|KS|Butler|Rose Hill|K Carpentry","		13955 SW 150th","		951-691-6395|KS11-2355|Lead Renovation Firm|Ken Kiser
1|KS|CD|CONCORDIA|GEISLER ROOFING INC.","		908 E. 6TH ","		785-243-7298|KS10-1218|Lead Renovation Firm|STEVE GEISLER					","MARK FRASER
1|KS|CD|CONCORDIA|SNELL CONTRACTING INC.","		1590 N. 146TH RD.","		785-243-5026|KS10-1220|Lead Renovation Firm|MITCHELL SNELL
1|KS|CL|ARKANSAS CITY|Morgan Painting","		3441 302ND RD.","		620-660-2151|KS10-1299|Lead Renovation Firm|JUSTIN R. MORGAN
1|KS|CLOUD|CONCORDIA|ACCENT EXTERIORS","		415 E 14TH STREET","		785-569-1375|KS|KS15-3020|Lead Renovation Firm|Nicole Bailey					","George Wood
1|
