company_name|license_number|qualifying_individual|company_name|address1|City/State/Zip|county|phone|fax|email|web_site
1st Choice Maintenance, Inc.|C-700|Mr. Kenneth A Leimone|1st Choice Maintenance, Inc.|9005 Roxboro Rd.|Bahama, NC 27503|County: Durham, Orange, Person|(919) 477-5887 (phone)|(919) 477-5887 (fax)|kl1stchoice@aol.com
3D Landscapes, Inc.|C-521|Mr. Michael  Wetter|3D Landscapes, Inc.|6711 Sisk Carter Rd.|Rockwell, NC 28138|County: Rowan|(704) 720-7736 (phone)|(704) 209-6486 (fax)|3dlandscapes@qualitystandsout.com
A+ Lawn Care & Landscaping, Inc.|C-655|Mr. Scott Allen Shehan|A+ Lawn Care & Landscaping, Inc.|1812 E Ozark Avenue|Gastonia, NC 28054|County: Gaston, Lincoln, Mecklenburg|(704) 853-1107 (phone)|(704) 853-7968 (fax)|apluslawncare@hotmail.com|www.apluslawnandlandscapinginc.com
A-1 Landscaping & Lot Clearing, Inc.|C-645|Ms. Heather  Purple|A-1 Landscaping & Lot Clearing, Inc.|PO Box 1251|Hope Mills, NC 28348|County: Robeson, Cumberland, Hoke|(910) 858-0003 (phone)|(910) 858-0004 (fax)|hpdpcp@aol.com
AA TexLawn Company, Inc.|C-319|Mr. Mark Griffin Lay|AA TexLawn Company, Inc.|P.O. Box 2488|Indian Trail, NC 28079|County: Union, Mecklenburg|(704) 821-0708 (phone)|(704) 821-1989 (fax)|marklay@aatexlawn.com|www.aatexlawn.com
AAI Repair Service, Inc.|C-710|Mr. Bobby Lee Richardson|AAI Repair Service, Inc.|956 T.P. Sowers Road|Lexington, NC 27295|County: Davidson|(336) 761-8877 (phone)|bob.richardson67@yahoo.com
Advance Landscapes, LLC|C-767|Mr. Grayson C. Pfeffer|Advance Landscapes, LLC|P.O. Box 53222|Fayetteville, NC 28305|(910) 309-4418 (phone)|(910) 263-8189 (fax)|advancelandscapes@yahoo.com
Advanced Irrigation Repair, Inc.|C-132|Mr. David  Walker|Advanced Irrigation Repair, Inc.|5448 Apex Parkway, Suite 302|Apex, NC 27502|County: Wake|(919) 329-7447 (phone)|(919) 285-3158 (fax)|info@advancedirrigationrepair.com|www.advancedirrigationrepair.com
Advanced Irrigation, Inc.|C-029|Mr. Thomas  Helgesen|Advanced Irrigation, Inc.|PO Box 12266|Wilmington , NC 28405|County: New Hanover, Brunswick, Pender|(910) 681-0202 (phone)|advancedirrigation@ec.rr.com|www.advanced-irrigation.com
Albemarle Irrigation, LLC|C-570|Mr. Paul Albert Lacher|Albemarle Irrigation, LLC|105 Ashley Drive|Elizabeth City, NC 27909|County: Pasquotank|(252) 338-5831 (phone)|(252) 264-2767 (fax)|albemarleirrigation@yahoo.com
Alivescapes, Inc.|C-554|Mr. Christopher Hamilton Smith|Alivescapes, Inc.|1533 Crag Burn Lane|Raleigh, NC 27604|County: Wake, Orange, Durham|(919)264-9331 (phone)|alivescapes@gmail.com
All About Irrigation, Inc.|C-222|Mr. William Kirby Flake|All About Irrigation, Inc.|956 T.P. Sowers Road|Lexington, NC 27295|County: Davidson|(336) 761-8877 (phone)|tresflake@hotmail.com
All Pro Irrigation, Inc.|C-376|Mr. Jeremy D. Raeburn|All Pro Irrigation, Inc.|356 Collinsworth Drive|Clayton, NC 27527|County: Johnston|(919) 550-8700 (phone)|jeremyandsam@aol.com
Allgreen Grounds Management, Inc.|C-768|Mr. Ronald Scott Monteith|Allgreen Grounds Management, Inc.|P.O. Box 904|Paw Creek, NC 28130|County: Mecklenburg|(704) 394-8971 (phone)|(704) 394-4516 (fax)|ron@allgreen-irrigation.com|www.allgreen-irrigation.com
Allscapes by Tyndall, Inc.|C-466|Mr. Nathan Wayne Tyndall|Allscapes by Tyndall, Inc.|1545 Bethel Drive|High Point, NC 27260|County: Guilford|(336) 472-4747 (phone)|(336) 885-8767 (fax)|allscapesinc@gmail.com
Alpha Advantage, Inc.|C-111|Mr. Robert Ashley Walde|Alpha Advantage, Inc.|891 Emeline Lane|Kitty Hawk, NC 27949|County: Dare|(252) 441-3766 (phone)|(252) 441-8922 (fax)|alphaadvantage@yahoo.com
American Nursery & Landscaping Co.|C-351|Mr. Shawn Matthew Sazama|American Nursery & Landscaping Co.|P.O. Box 1771|Southern Pines, NC 28388|County: Moore|(910) 295-1252 (phone)|(910) 295-7099 (fax)|ssazama@nc.rr.com|www.americanlandscapesnc.com
AMLDCO, Inc.|C-173|Mr. Ray Langston Denny|AMLDCO, Inc.|4624 Dawnwood Drive|Charlotte, NC 28217|County: Mecklenburg, Union, Lincoln|(704) 622-3092 (phone)|(704) 531-6239 (fax)|amldcoinc@gmail.com
Antoine's Sprinkler Repair Service|C-670|Mr. Gaby  Mathieu|Antoine's Sprinkler Repair Service|6623 Marion Lavern Rd.|Huntersville, NC 28078|County: Mecklenburg, Iredell, Stanley|(704) 516-3847 (phone)|(704) 464-1080 (fax)|gmathieu@carolina.rr.com|www.antoinesprinkler.com
Apex Nurseries, Inc.|C-350|Mr. William Ragan Copeland|Apex Nurseries, Inc.|2925 NC Hwy 751|Apex, NC 27523|County: Wake, Chatham, Oraonge|(919) 362-8315 (phone)|(919) 387-9455 (fax)|wrcapex@gmail.com
Appalachian Naturescapes, Inc.|C-527|Ms. Dina T. Boyd|Appalachian Naturescapes, Inc.|P.O. Box 857|Morganton, NC 28680|County: Burke|(828) 438-8243 (phone)|(828) 438-8246 (fax)|dina@appalachiannaturescapes.com|www.appalachiannaturescapes.com
Aqua Underground, Inc.|C-627|Mr. Russell Ryan Gold|Aqua Underground, Inc.|315#C Northpoint Parkway|Acworth, GA 30102|County: Bartow, Cobb|(770) 424-4402 (phone)|(770) 429-9036 (fax)|rgold@aquaunderground.com|www.aquaunderground.com
Aquasmart Landscape & Irrigation, LLC|C-759|Mr. Robert Scott Smith|Aquasmart Landscape & Irrigation, LLC|P.O. Box 1992|Denver, NC 28037|(704) 936-6517 (phone)|aquasmart@icloud.com
Arbor Enterprises, Inc.|C-306|Ms. Paige C. Moody|Arbor Enterprises, Inc.|P.O. Box 1429|Pittsboro,  NC 27312|County: Chatham, Wake, Orange|(919) 362-1047 (phone)|(919) 362-1047 (fax)|arborent@aol.com|www.arborenterprises.com
Arborescent Gardens, Inc.|C-502|Ms. Kristie A. M. Broadway|Arborescent Gardens, Inc.|10250 Barringer Court|Mount Pleasant, NC 28124|County: Cabarrus|(704) 369-9750 (phone)|None (fax)|chrisaginc@aol.com|www.welikegreen.com
Arborscapes, Inc.|C-293|Mr. Jason Patrick Tebben|Arborscapes, Inc.|P.O. Box 1198|Pineville, NC 28134|County: Mecklenburg|(704) 525-7148 (phone)|(704) 504-0977 (fax)|arborscapes@carolina.rr.com
Armstrong Lawn, Inc.|C-218|Mr. Gregory T. Armstrong|Armstrong Lawn, Inc.|227 Crestview Acres Road|Statesville, NC 28677|County: Iredell, Mecklenburg, Catawba|(704) 622-1417 (phone)|(704) 380-3950 (fax)|armstronglawn@gmail.com
Arnold Irrigation & Lighting, Inc.|C-388|Mr. Tony Ray Arnold|Arnold Irrigation & Lighting, Inc.|3512 Kipling Road|Fuquay Varina, NC 27526|County: Wake, Orange, Durham|(919) 552-4204 (phone)|(919) 552-9132 (fax)|arnoldirrigation@embarqmail.com
Artisan Irrigation & Landscape Co., Inc.|C-152|Mr. Francis  McCleneghen|Artisan Irrigation & Landscape Co., Inc.|P.O. Box 387|Cary, NC 27512|County: Wake, Durham, Orange|(919) 460-7501 (phone)|(919) 460-7501 (fax)|artisansm@aol.com|www.artisan-irrigation.com
As You Like It Landscapes, Inc.|C-169|Ms. Abby Christine Catoe|As You Like It Landscapes, Inc.|4121 Apperson Road|East Bend, NC 27018|County: Yadkin, Forsyth|(336) 699-5020 (phone)|(336) 699-5020 (fax)|as.youlikeit@live.com
Asheville Irrigation, LLC|C-620|Mr. William Brandon Laughinghouse|Asheville Irrigation, LLC|P.O. Box 1787|Weaverville, NC 28787|County: Buncombe, Haywood, Henderson|(828) 545-0603 (phone)|(828) 484-9551 (fax)|ashevilleirrigation@gmail.com
Atlantic Elite Crete & Landscapes|C-671|Mr. John C. Coble|Atlantic Elite Crete & Landscapes|P.O. Box 7616|Ocean Isle Beach, NC 28469|County: Brunswick, New Hanover, Horry|(910) 575-0044 (phone)|(910) 575-1039 (fax)|info@atlanticelite.com|www.atlanticelite.com
Atlantic Irrigation South, LLC|C-689|Mr. Jacob James Schaus|Atlantic Irrigation South, LLC|3112 Kitty Hawk Rd.|Wilmington, NC 28405|County: Mecklenburg|(252) 482-5551 (phone)|(252) 482-5580 (fax)|jschaus@atlanticirrigation.com|www.atlanticirrigation.com
Atlantis Sprinklers, Inc.|C-303|Mr. Robert  Mazzucco|Atlantis Sprinklers, Inc.|P.O. Box 806|Waxhaw, NC 28173|County: Union|(704) 243-4455 (phone)|(704) 243-4455 (fax)|rmazz@carolina.rr.com
Aurora Hills Landscaping, LLC|C-377|Mr. Thomas James Howe|Aurora Hills Landscaping, LLC|986 South Currant Street|Pinebluff, NC 28373|County: Moore, Hoke, Richmond|(910) 281-3388 (phone)|(910) 281-4559 (fax)|tommyhowe-aurorahills@hotmail.com
Autrey Tree & Landscaping Co., Inc.|C-253|Mr. Adam T. Banks|Autrey Tree & Landscaping Co., Inc.|P.O. Box 449|Micaville, NC 28755|County: Yancey, Buncombe, Madison|(828) 675-5311 (phone)|(828) 675-1770 (fax)|sautrey@autreylandscaping.com|www.autreylandscaping.com
B & L Irrigation Services, LLC|C-629|Mr. Bobby Joe Chapman|B & L Irrigation Services, LLC|204 Glenview Dr.|Greensboro, NC 27406|County: Guilford, Alamancy, Forsyth|(336) 272-9872 (phone)|(336) 676-7034 (fax)|bchapman@blservices.net
Baker's Professional Lawn, Inc.|C-769|Mr. Dan Owen Baker|Baker's Professional Lawn, Inc.|4601 Baker Road|Nashville, NC 27856|(252) 314-3639 (phone)|(252) 443-6619 (fax)|danbakerpro@gmail.com|www.bakersprolawn.com
Bandy's Landscape Management, Inc.|C-690|Mr. Kirk H. Bandy|Bandy's Landscape Management, Inc.|139 Short Dog Dr.|Statesville, NC 28625|County: Iredell|(704) 902-1415 (phone)|anoble@birch.net
Barefoot Lawnscape, Inc.|C-146|Mr. Donald W. Bradford|Barefoot Lawnscape, Inc.|329 Wilshire Ave.|Concord, NC 28025|County: Cabarrus, Mecklenburg, Iredell|(704) 782-7906 (phone)|(704) 782-1729 (fax)|carolbradford329@gmail.com|www.barefootlawnscape.com
Barefoot's Lawn Maintenance, Inc.|C-009|Mr. James Darnay Barefoot|Barefoot's Lawn Maintenance, Inc.|1571 West New Hope Road|Goldsboro, NC 27534|County: Wayne|(919) 778-3489 (phone)|jdbarefoot@nc.rr.com
Barringer & Barringer, Inc.|C-195|Mr. John Laurence Barringer|Barringer & Barringer, Inc.|235 West Liddell Street|Charlotte, NC 28206|County: Mecklenburg|(704) 335-3775 (phone)|(704) 335-3774 (fax)|jbarringer@barringerlandscape.com
Barry Cosgrove Landscaping, Inc.|C-139|Mr. Barry  Cosgrove|Barry Cosgrove Landscaping, Inc.|332 Antler Spring Drive|Horse Shoe, NC 28742|County: Henderson, Buncombe|(828) 891-7080 (phone)|(828) 891-7099 (fax)|barrycos@hughes.net|www.barrycosgrovelandscaping.com
Bay Area Irrigation Co.|C-716|Mr. James M. Painter|Bay Area Irrigation Co.|744 Shillelagh Rd.|Chesapeake, VA 23323|(757) 548-0822 (phone)|(757) 549-1566 (fax)|bayareairrigation@cox.net|www.bayareairrigation.net
BB Barns Landscape Company|C-396|Mr. Hunter Lamar Stubbs|BB Barns Landscape Company|92 Crayton Road|Asheville, NC 28803|County: Buncombe, Henderson, Haywood|(828) 684-9190 (phone)|bbdesign@bellsouth.net
Beach Country Landscaping, LLC|C-770|Ms. Jenny V. Cox|Beach Country Landscaping, LLC|1707 Bent Tree Trail SW|Ocean Isle Beach, NC 28469|County: Brunswick|(910) 579-5290 (phone)|(910) 754-4136 (fax)
Beach Mowing & Services|C-469|Ms. Mildred “Millie” Byrum|Beach Mowing & Services|P.O. Box 1565|Nags Head, NC 28540|County: Dare, Currituck|(252) 441-7117 (phone)|(252) 255-1725 (fax)|oceansidefarm@aol.com
Bear Creek Landscape Development, LLC|C-691|Mr. David R. Peters|Bear Creek Landscape Development, LLC|10538 NC 902 Hwy.|Bear Creek, NC 27207|County: Chatham, Lee, Moore|(919) 200-3930 (phone)|(919) 837-2999 (fax)|bearcreekld@aol.com
Ben's Creek Nursery|C-044|Mr. Robert  Neville|Ben's Creek Nursery|177 Odell Littleton Rd.|Littleton, NC 27850|County: Halifax, Warren, Franklin|(888) 782-2288 (phone)|(252) 586-6159 (fax)|robert@benscreeknursery.com
Bennett's Lawn Care, Inc.|C-352|Mr. Steven H. Bennett|Bennett's Lawn Care, Inc.|3594 Maple Ridge Lane|Maiden, NC 28650|County: Lincoln/Catawba|(828) 428-4293 (phone)|stevenhbennett@bellsouth.net
Berrier Select Landscapes, Inc.|C-286|Mr. Jonathan Neil Berrier|Berrier Select Landscapes, Inc.|P.O. Box 17927|Asheville, NC 28816|County: Buncombe, Henderson, McDowell|(828) 273-7156 (phone)|jberrier@berrierselect.com
Bertie Garden Discount, LLC|C-037|Mr. Robert Lee Bowling|Bertie Garden Discount, LLC|230-B Blanchards Road|Windsor, NC 27983|County: Bertie, Martin, Chowan|(252) 724-2017 (phone)|(252) 794-5442 call 1st (fax)|bertiegardendiscount@gmail.com|www.bertiegardendiscount.com
Biggers Lawn & Landscape, Inc.|C-295|Mr. John L. Biggers|Biggers Lawn & Landscape, Inc.|420 Highway 24/27 West|Midland, NC 28107|County: Cabarrus, Mecklenberg, Union|(704) 888-4789 (phone)|(704) 888-5647 (fax)|john@biggerslandscape.com|www.biggerslandscape.com
Blackstone Irrigation & Lighting, LLC|C-771|Mr. Richard A. Schwartz|Blackstone Irrigation & Lighting, LLC|4910 Stough Road|Concord, NC 28027|(704) 788-1250 (phone)|(704) 788-1251 (fax)|ras2451@aol.com|www.landscapesolutionsnc.com
Blackwell Landscaping, LLC|C-701|Mr. Chris Michael Blackwell|Blackwell Landscaping, LLC|P.O. Box 810|Hope Mills, NC 28348|County: Cumberland, Hoke, Moore|(910) 424-4272 (phone)|tblackwell@embarqmail.com
Bland Landscaping Co., Inc.|C-163|Mr. Kurt H. Bland|Bland Landscaping Co., Inc.|P.O. Box 727|Apex, NC 27502|County: Wake, Durham, Orange|(919) 387-0010 (phone)|(919) 387-0690 (fax)|kbland@blandlandscaping.com|www.blandlandscaping.com
Blue Ridge Irrigation & Lawn, Inc.|C-613|Mr. Percival Robert Bennett|Blue Ridge Irrigation & Lawn, Inc.|P.O. Box 353|Lake Toxaway, NC 28747|County: Transylvania, Jackson, Macon|(828) 577-7324 (phone)|bril@comporium.net
Bluebird Landscaping, LLC|C-394|Mr. Jeffrey A. Foss|Bluebird Landscaping, LLC|P.O. Box 7301|Wilmington, NC 28406|County: New Hanover|(910) 470-8240 (phone)|(910) 790-4560 (fax)|470bluebird@bellsouth.net
Bobby Hardee Lawn Maintenance & Landscaping|C-225|Mr. Bobby  Hardee|Bobby Hardee Lawn Maintenance & Landscaping|2019 Hardee Lane|Clayton, NC 27520|County: Johnston|(919) 553-6626 (phone)|(919) 553-9075 (fax)|bobbyhardeelawn@hotmail.com
Bobby's Tree Service, Inc.|C-681|Mr. Tony  Westmoreland|Bobby's Tree Service, Inc.|6540 Holder Road|Clemmons, NC 27012|County: Forsyth|(336) 766-7261 (phone)|(336) 458-9352 (fax)|tony@bobbystreesvc.com|www.bobbystreesvc.com
Boulder Creek Landscape & Design, Inc.|C-264|Mr. Mike A. Sticco|Boulder Creek Landscape & Design, Inc.|2594 Berne Lane|Sherills Ford, NC 28673|County: Catawba, Iredell, Lincoln|(828) 217-6889 (phone)|(828) 478-3301 (fax)|msmikeantland@aaol.com
Boyd's Landscaping, Inc.|C-692|Mr. Jason  Boyd|Boyd's Landscaping, Inc.|1309 Phillips Avenue|New Bern, NC 28562|County: Craven|252-633-6606 (phone)|boydslandscapinginc@gmail.com
Brad Fisher Landscapes, Inc.|C-772|Mr. Bradley Ryan Fisher|Brad Fisher Landscapes, Inc.|P.O. Box 5123|Eden, NC 27289|(336) 623-1055 (phone)|brad@golawnworks.com|golawnworks.com
Broadway Commercial Services, Inc.|C-186|Mr. Charles A. Broadway|Broadway Commercial Services, Inc.|4408 Medlin Road|Monroe, NC 28112|County: Union|(704) 764-7848 (phone)|(704) 764-9048 (fax)|office@bcsgroup.bz
Bryan Smith's Landscaping, Inc.|C-399|Ms. Kathy  Smith|Bryan Smith's Landscaping, Inc.|5273 NC 33E|Greenville, NC 27858|County: Pitt|(252) 752-8480 (phone)|bryansmithslandscaping@embarqmail.com
Bryant's Turf & Landscaping, Inc.|C-555|Mr. Don Mansel Bryant|Bryant's Turf & Landscaping, Inc.|427 Long Drive|Rockingham, NC 28379|County: Rockingham|(910) 997-5952 (phone)|(910) 997-2441 (fax)|bryantsturf@att.net
BT Carawan, Inc.|C-605|Mr. Brian T. Carawan|BT Carawan, Inc.|101 Squire Drive|Winterville, NC 28590|County: Pitt|(252) 714-1426 (phone)|btclawncare@hotmail.com
Budget Sprinkler Landscaping, Inc.|C-766|Mr. David  Landers|Budget Sprinkler Landscaping, Inc.|P.O. Box 211963|Augusta, GA 30917|County: Columbia|(803) 279-2981 (phone)|(803) 279-2903 (fax)|david.budgetinc@gmail.com
Butler's Outdoor Design, LLC|C-773|Mr. Jason Kenneth Butler|Butler's Outdoor Design, LLC|700 Sandhurst Dr.|Kings Mountain, NC 28086|(704) 692-0858 (phone)|grass.nc@gmail.com|www.blsnc.com
C & C Irrigation & Lighting, Inc.|C-331|Mr. William Curtis Clark|C & C Irrigation & Lighting, Inc.|7323 Sherrill Baggett Road|Dunn, NC 28334|County: Cumberland, Sampson, Harnett|(910) 980-1535 (phone)|(910) 980-0276 (fax)|cla9w@aol.com
Camden Landscape Group, Inc.|C-672|Mr. Jim A. Humphries|Camden Landscape Group, Inc.|4016 H. Battleground Ave #323|Greensboro, NC 27410|County: Guilford, Forsyth, Alamance|(336) 808-1309 (phone)|(336) 218-0047 (fax)|cherylhumphries@triad.rr.com
Cameron's Lawn & Landscaping, Inc.|C-449|Mr. Cameron Brent Helms|Cameron's Lawn & Landscaping, Inc.|113 Indian Trail Road, #274|Indian Trail, NC 28079|County: Union|(704) 684-3377 (phone)|(704) 684-3378 (fax)|jeremy@camerons-inc.com
Campbell's Underground, Inc.|C-212|Mr. Kelly D. Campbell|Campbell's Underground, Inc.|5974 Taurus Drive|Denver, NC 28037|County: Lincoln, Catawba|(704) 201-9795 (phone)|(704) 966-0054 (fax)|campbellsunderground@charter.net
Cardinal Landscaping, Inc.|C-354|Mr. Wesley Alan Meredith|Cardinal Landscaping, Inc.|P.O. Box 26210|Fayetteville, NC 28314|County: Cumberland|(910) 867-9595 (phone)|(910) 867-3344 (fax)|cardinallandscaping@nc.rr.com
Carolina Coast Landscapes|C-176|Mr. Watis Andrew Edge|Carolina Coast Landscapes|P. O. Box 468|Supply, NC 28462|County: Brunswick|none (phone)|danaedge@yahoo.com
Carolina Creations Landscapes, Inc.|C-077|Mr. Arthur Bryan Miller|Carolina Creations Landscapes, Inc.|P.O. Box 2327|Shallotte, NC 28459|County: Brunswick, New Hanover|(910) 755-6411 (phone)|(910) 755-6167 (fax)|artmiller@carolinacreations.biz|www.carolinacreations.biz
Carolina Curb Appeal, Inc.|C-743|Mr. Jonathan H. Creech|Carolina Curb Appeal, Inc.|58 Pine Tree Road|Selma, NC 27576|County: Johnston, Wake, Wayne|(919) 351-0900 (phone)|jonny@ccalandscape.com|www.ccalandscape.com
Carolina East Landscaping, Inc.|C-400|Ms. Amber Phelps Hudson|Carolina East Landscaping, Inc.|141 Shady Banks Beach Road|Washington, NC 27889|County: Pitt, Beaufort, Martin|(252) 353-4405 (phone)|(252) 974-7789 (fax)|celinc54@aol.com
Carolina Greenscapes, Inc.|C-372|Mr. Martin Lee Bradsher|Carolina Greenscapes, Inc.|P.O. Box 984|Henderson, NC 27536|County: Vance|(252) 492-6966 (phone)|(252) 433-8060 (fax)|caroscapes@centurylink.net
Carolina Land Consultants|C-149|Mr. Bradley Scott Vice|Carolina Land Consultants|P.O. Box 3084|Huntersville, NC 28070|County: Mecklenburg, Cabarrus, Iredell|704) 400-3132 (phone)|(877) 286-0290 (fax)|carolinaland@bellsouth.net
Carolina Landscape Associates, Inc.|C-561|Mr. Thomas W. Stecher|Carolina Landscape Associates, Inc.|P.O. Box 1122|Summerfield, NC 27358|County: Guilford|(336) 362-4438 (phone)|(336) 644-6624 (fax)|clalandscape@aol.com
Carolina Landscape, Inc.|C-091|Mr. Terence  Earle|Carolina Landscape, Inc.|991 Dalton Road|Lewisville, NC 27023|County: Forsyth, Guilford, Yadkin|(336) 945-2088 (phone)|(910) 945-2088 (fax)|tearle@triad.rr.com
Carolina Outdoor Care, Inc.|C-288|Mr. Christopher L. Lambert|Carolina Outdoor Care, Inc.|6608 Six Forks Road, Suite 103|Raleigh, NC 27615-6522|County: Wake|(919) 847-1975 (phone)|(919) 846-7533 (fax)|info@carolinaoutdoorcare.com
Carolina Sprinkler Systems, Inc.|C-269|Mr. William F. Gilbert|Carolina Sprinkler Systems, Inc.|9438 Nugget Hill Road|Charlotte, NC 28227|County: Mecklenburg|(704) 573-9100 (phone)|(704) 573-1605 (fax)|wfgilbert88@gmail.com
Cedar Fork Landscaping, Inc.|C-718|Mr. Anthony V. Chiotakis|Cedar Fork Landscaping, Inc.|401 Luke Meadow Lane|Cary , NC 27519|County: Wake, Durham, Johnson|(919) 812-2724 (phone)|(919) 362-6560 (fax)|cedarforkinc@bellsouth.net
Central Garden Center and Nursery|C-535|Mr. David N. Pritchard|Central Garden Center and Nursery|6285 Croatan Hwy.|Kitty Hawk, NC 27949|County: Dare, Currituck, Pasquotank|(252) 261-7195 (phone)|(252) 261-5792 (fax)|centralgarden@embarqmail.com
Certified Grounds Management, Inc.|C-339|Mr. Thomas M. Blythe|Certified Grounds Management, Inc.|P.O. Box 671|Huntersville, NC 28070|County: Mecklenburg|(704) 509-9040 (phone)|(704) 509-0990 (fax)|cgm@certifiedgrounds.com
Champion Landscapes, Inc.|C-598|Mr. James Bryan Turner|Champion Landscapes, Inc.|10328 Robinson Church Rd.|Charlotte, NC 28215|County: Mecklenburg, Cabarrus, Union|(704) 567-7629 (phone)|(704) 567-5822 (fax)|champscapes@yahoo.com|www.championlandscapesinc.com
Charles W Hughes Construction, LLC|C-625|Mr. Charles William Hughes|Charles W Hughes Construction, LLC|4675 Ben Dail Road|LaGrange, NC 28551|County: Lenoir, Onslow, Pitt|(252) 566-5040 (phone)|(252) 566-5033 (fax)|cwhughes@embarqmail.com
Choice Irrigation, Inc.|C-744|Mr. William Jerry Pritchett|Choice Irrigation, Inc.|P.O. Box 550772|Gastonia, NC 28056|(704) 813-7686 (phone)|choiceirrigation@gmail.com
Chris Caviness Landscaping, LLC|C-553|Mr. John Christopher Caviness|Chris Caviness Landscaping, LLC|715 W. Johnson St. Suite 203|Raleigh, NC 27603|County: Wake|(919) 868-9343 (phone)|(919) 782-7256 (fax)|cavinesslandscaping@gmail.com
Church Irrigation Co., Inc.|C-096|Mr. David William Church|Church Irrigation Co., Inc.|P.O. Box 711|Mount Holly, NC 28120|County: Gaston|(704) 827-1959 (phone)|(704) 827-2994 (fax)|churchirrigation333@gmail.com
Clark & Co. Landscape Services|C-194|Mr. Richard Burrell Clark|Clark & Co. Landscape Services|P.O. Box 1547|Franklin, NC 28744|County: Macon, Jackson, Swain|(828) 369-2505 (phone)|ccls.richard@gmail.com
Clark Landscape Group, Inc.|C-307|Mr. John Mark Clark|Clark Landscape Group, Inc.|3230 Stump Lake  Drive|Monroe, NC 28110|County: Union, Orange, Durham|(704) 226-0004 (phone)|(704) 226-1121 (fax)|mclarkgroup@aol.com
Classic Landscapes|C-072|Mr. James A. Parker|Classic Landscapes|P.O. Box 10819|Wilmington, NC 28404|County: New Hanover|(910) 395-2500 (phone)|(910) 395-2572 (fax)|customerservice@classiclandscapesnc.com|www.classiclandscapesnc.com
Classic Lawn & Landscape, LTD.|C-643|Ms. Bethany  Hardy|Classic Lawn & Landscape, LTD.|111 Earls Rd.|Baltimore, MD 21220|410-335-6868 (phone)|410-335-6867 (fax)|office@classiclandscape.com|www.classiclandscape.com
Clero Landscaping, Inc.|C-052|Mr. Frank Powell Fox|Clero Landscaping, Inc.|319 Forest Road|Oxford, NC 27565|County: Granville, Wake, Warren|(919) 693-7449 (phone)|(252) 456-4973 (fax)|clerolandscaping@yahoo.com|www.clerolandscaping.com
Cloer Nursery Co., Inc.|C-404|Mr. Thomas G. Cloer|Cloer Nursery Co., Inc.|8405 Green Level Church Road|Cary, NC 27519|County: Wake|(919) 387-7647 (phone)|(919) 387-7676 (fax)|cloernursery@att.net
Coastal Landesign, Inc.|C-378|Mr. Ryan Y. Bradshaw|Coastal Landesign, Inc.|125 Heather Lane|Kure Beach, NC 28449|County: New Hanover, Brunswick|(910) 233-9506 (phone)|ryegrass@charter.net
Coats Lawn Service, Inc.|C-129|Mr. Charles Terry Coats|Coats Lawn Service, Inc.|360 Johnson Estate Road|Clayton, NC 27520|County: Johnston, Wake|(919) 553-2333 (phone)|(919) 553-1327 (fax)|coatslawn@aol.com|www.coatslawnservice.com
Coinjock Landscaping, Inc.|C-652|Ms. Andrea  Kight-Bradley|Coinjock Landscaping, Inc.|P.O. Box 33|Coinjock, NC 27923|County: Currituck, Dare|(252) 453-4041 (phone)|(252) 453-4652 (fax)|obxbeachgrass@aol.com
Cole Brothers Landscaping & Septic Tank, Inc.|C-083|Mr. William Gene Cole|Cole Brothers Landscaping & Septic Tank, Inc.|3723 Henley Road|Sanford, NC 27330|County: Lee|(919) 775-3198 (phone)|(919) 775-7463 (fax)|willcole@windstream.net
Coleman Burnett, Inc.|C-590|Mr. Coleman  Burnett|Coleman Burnett, Inc.|P.O. Box 472085|Charlotte, NC 28247|County: Mecklenburg|(704) 588-4500 (phone)|(704) 588-9999 (fax)|colman@colemanburnett.com|www.colemanburnett.com
Color Landscapes by Michael Dickey, Inc.|C-528|Mr. Michael L. Dickey|Color Landscapes by Michael Dickey, Inc.|2360 Luckstone Road|Burlington, NC 27217|County: Alamance|(336) 578-9884 (phone)|(336) 578-9699 (fax)|mdickey@colorlandscapes.com|www.colorlandscapes.com
Commercial Landscape Management, Inc.|C-504|Mr. John Warren Rosser|Commercial Landscape Management, Inc.|P.O. Box 99305|Raleigh, NC 27624|County: Wake|(919) 862-2002 (phone)|(919) 847-1808 (fax)|jrosserclm@gmail.com
Commercial Landscape Services, Inc.|C-596|Mr. Randall K Trumpler|Commercial Landscape Services, Inc.|P.O. Box 167|Morrisville, NC 27560|County: Wake|(919) 524-5444 (phone)|(413) 683-2165 (fax)|rtrumpler@commerciallandscapeservices.com
Commercial Plant Management, LLC|C-646|Mr. David  Kreutzer|Commercial Plant Management, LLC|4015 Shopton Road|Charlotte, NC 28217|County: Mecklenburg, Wake|(704) 319-8326 (phone)|(704) 319-9802 (fax)|tmt@tmt-usa.com
Consolidated Landscaping, Inc.|C-137|Mr. Russell Edward Dionne|Consolidated Landscaping, Inc.|210 Altay Drive|Winston-Salem, NC 27106|County: Forsyth|(336) 924-0171 (phone)|(336) 922-4909 (fax)|russell@reynoldanursery.com
Corporate Impressions Landscapes, Inc.|C-302|Mr. Greg A. Derwitz|Corporate Impressions Landscapes, Inc.|P.O. Box 1416|Garner, NC 27529|County: Wake|(919) 639-5255 (phone)|(919) 639-6606 (fax)|derekmclean@embarqmail.com
Country Care Landscaping, LLC|C-753|Mr. Nicholas Alexander Hill|Country Care Landscaping, LLC|P.O. Box 472|Richfield, NC 28137|County: Stanly|(704) 463-0303 (phone)|(704) 985-1620 (fax)|nic@countrycarelandscaping.com|www.countrycarelandscaping.com
Cox Landscape Management|C-507|Mr. Ron Franklin Cox|Cox Landscape Management|P.O. Box 296|Newell, NC 28126|County: Mecklenburg|(704) 596-4488 (phone)|(704) 599-9693 (fax)|ron@coxservicesinc.com
Creation Landscapes, LLC|C-238|Mr. Tobin Frederick Wagner|Creation Landscapes, LLC|P.O. Box 12586|Wilmington, NC 28405|County: New Hanover, Brunswick, Pender|(910) 452-2550 (phone)|twagner2@ec.rr.com
Creative Carolina Landscapes, Inc.|C-216|Mr. William G. Simpson|Creative Carolina Landscapes, Inc.|7420 Secrest Shortcut Road|Indian Trail, NC 28079|County: Union, Mecklenburg|(704) 882-0155 (phone)|(704) 882-0160 (fax)|creativecarolina@yahoo.com
Creative Gardens, LLC|C-338|Mr. Carleton Dean Owen|Creative Gardens, LLC|5036 Winterville Parkway|Winterville, NC 28590|County: Pitt, Green Beaufort|(252) 756-7788 (phone)|deano@suddenlink.net
Creative NatureScapes, Inc.|C-346|Mr. William R. Hawkins|Creative NatureScapes, Inc.|1806 Bogey Court|Matthews, NC 28104|County: Mecklenburg|(704) 309-3359 (phone)|(704) 882-3744 (fax)|cni@windstream.net
Creative Outdoor Expression, LLC|C-680|Mr. Peter A. Schenone|Creative Outdoor Expression, LLC|3915 Gordon Street|Terrell, NC 28682|County: Iredell, Mecklenburg|(704) 421-0488 (phone)|(704) 997-6260 (fax)|peterschenone@aol.com
Creative Yards & Maintenance, Inc.|C-578|Mr. Walter Lee McLawhorn|Creative Yards & Maintenance, Inc.|203 Andrew Lane|Winterville, NC 28590|County: Pitt|(252) 717-3692 (phone)|(252) 355-6277 (fax)|creativeyards@suddenlink.net
CRI Irrigation Services|C-637|Mr. Russell  Hulsey|CRI Irrigation Services|1198 W. Shadburn Avenue|Bufurd, GA 30518|County: Forsyth|(678) 679-0192 (phone)|(678) 765-8331 (fax)|rhulsey@cri-irr.com|www.cri-irr.com
Crystal Coast Landscapes, Inc.|C-328|Mr. Peter  Hargett|Crystal Coast Landscapes, Inc.|206 North 15th Street|Morehead City, NC 28557|County: Carteret|(252) 247-6333 (phone)|(252) 247-6333 (fax)|crystalcoastls@embarqmail.com
Cscapes, LLC|C-389|Mr. William C. Warren|Cscapes, LLC|P.O. Box 1235|Robersonville, NC 27871|County: Martin, Pitt, Beaufort|(252) 795-5140 (phone)|(252) 795-5502 (fax)|cscapes@embarqmail.com
Currituck Caretaker, LLC|C-060|Mr. William David Knoch|Currituck Caretaker, LLC|574 Ocean Trail|Corolla, NC 27927|County: Currituck|(252) 599-1689 (phone)|(252) 453-9527 (fax)|currituckcaretakerllc@yahoo.com
Custis Nursery, Inc.|C-020|Ms. Arthur (Jay) Custis|Custis Nursery, Inc.|3908 Quarry Road|Zebulon, NC 27597|County: Wake|(919) 556-1040 (phone)|(919) 556-1040 (fax)|jaycustis@embarqmail.com
Custom Creations Landscaping, Inc.|C-325|Mr. Joshua Mark Brown|Custom Creations Landscaping, Inc.|P.O. Box 6237|Gastonia, NC 28056|County: Gaston, Mecklenburg, Cleveland|(704) 913-4363 (phone)|NONE (fax)|josh@customcreationslandscapinginc.com
Custom Lawn Service|C-148|Mr. Terry  Hogue|Custom Lawn Service|7604 Townsend Drive|Denver, NC 28037|County: Lincoln, Mecklenburg, Iredell|(704) 483-6006 (phone)|(704) 483-6210 (fax)|customlandscapesnc@gmail.com
D & D Landscape & Nursery|C-356|Mr. Horace  Davis|D & D Landscape & Nursery|8516 Noah Helms Rd.|Indian Trail, NC 28079|County: Union|(704) 882-2902 (phone)|(704) 882-2902 (fax)|ddlandscnursery@aol.com
DalaCasa Landscaping & Designs, LLC|C-631|Mr. Peter R. Casatelli|DalaCasa Landscaping & Designs, LLC|628 Oak Ridge Farm Highway|Mooresville, NC 28115|County: Iredell, Mecklenburg|(704) 248-6294 (phone)|(704) 831-5439-6303 (fax)|peterc@dalacasa.com|www.dalacasa.com
Dan Andrews Lawn Service, Inc.|C-719|Mr. John Daniel Andrews|Dan Andrews Lawn Service, Inc.|6068 US Hwy 13|Farmville, NC 27828|County: Pitt, Greene|(252) 321-1251 (phone)|(252) 756-0134 (fax)|ballxroad@yahoo.com
DASCO Landscapes & More, LLC|C-653|Mr. Duane Allan Smith|DASCO Landscapes & More, LLC|816 Rainer Ct.|Garner, NC 27529|County: Wake|(919) 520-4603 (phone)|Dasco1120@gmail.com
Davenport Landscaping, Inc.|C-024|Mr. Damon Carl Davenport|Davenport Landscaping, Inc.|2616 Branston Way|Apex, NC 27539|County: Wake, Mecklenburg, Durham|(919) 662-8436 (phone)|(919) 662-8427 (fax)|damon@davenportlandscaping.com
Davidson Landscape Nursery, Inc.|C-688|Mr. James Richard Coffey|Davidson Landscape Nursery, Inc.|P.O. Box 6062|High Point, NC 27262|County: Guilford, Davidson, Forsyth|(336) 869-7888 (phone)|dlnursery@gmail.com
Davis Landscape, LTD|C-145|Mr. Russell Scott Meharg|Davis Landscape, LTD|60 Rupert Rd.|Raleigh, NC 27603|County: Wake, Durham, Orange|(919) 662-1009 (phone)|(919) 662-3877 (fax)|scottmeharg@davislandscapeltd.com|www.davislandscapeltd.com
Deason Landscape & Irrigation|C-150|Mr. James Graham Deason|Deason Landscape & Irrigation|3731 South New Hope Road|Gastonia, NC 28056|County: Gaston|(704) 824-3363 (phone)|(704) 824-3398 (fax)|deason3731@yahoo.com
Deffenbaugh Environmental Services, LLC|C-314|Mr. Forrest Blair Deffenbaugh|Deffenbaugh Environmental Services, LLC|P.O. Box 159|Candler, NC 28715|County: Buncombe|(828) 667-2199 (phone)|(828) 667-2199 (fax)|fdef@aol.com
Designer Landscapes, Inc.|C-202|Mr. Gregory R. Sims|Designer Landscapes, Inc.|P.O. Box 61276|Durham, NC 27715|County: Durham|(919) 602-5719 (phone)|simsdli@aol.com
DeSignia, Inc.|C-097|Mr. Matthew Joseph Posvar|DeSignia, Inc.|919 Exchange St.|Charlotte, NC 28208|County: Mecklenburg, Union, Cabarrus|(704) 494-8877 (phone)|(704) 494-8878 (fax)|mattposvar@gmail.com
Distinctive Group, Inc.|C-774|Mr. Kenneth Henry Waterfield|Distinctive Group, Inc.|1210 Ocean Trail|Corolla, NC 27927|County: Currituck|(252) 453-4255 (phone)|(877) 564-6334 (fax)|ken@distinctivegroup.net|www.distinctivegroup.net
Distinctive Naturescapes, Inc.|C-004|Mr. Dwight David Collins|Distinctive Naturescapes, Inc.|3870 South Main Street|Salisbury, NC 28147|County: Rowan, Mecklenburg, Guilford, Iredell, Cabarrus, Davidson|704-630-0007 (phone)|dcollins@distinctivenaturescapes.com
DLI Services|C-287|Mr. Terry Lee Turbyfill|DLI Services|P.O. Box 812|Denver, NC 28037|County: Lincoln|(704) 827-0766 (phone)|(704) 822-6242 (fax)|dliservicesinc@yahoo.com
Doctor Sprinkler, LLC|C-544|Mr. Benjamin Michael Graf|Doctor Sprinkler, LLC|4441 Six Forks Road, Suite 106-222|Raleigh, NC 27609|County: Wake|(919) 337-5073 (phone)|n/a (fax)|ben@doctor-sprinkler.com|www.doctor-sprinkler.com
Dogwood Landscaping and Design, Inc.|C-242|Mr. Gregory Brian Todd|Dogwood Landscaping and Design, Inc.|6447 Old Jenks Road|Apex, NC 27523|County: Wake|(919) 387-8660 (phone)|(919) 303-5963 (fax)|dogwoodl@bellsouth.net
Donnie Williard's Lawn Care, Inc.|C-467|Mr. Donnie  Williard|Donnie Williard's Lawn Care, Inc.|270 Chestnut Lane|Winston-Salem, NC 27107|County: Forsyth|(336) 784-1526 (phone)|(336) 784-4550 (fax)|lilsonshine24051@aol.com
Dorsey Landscape & Irrigation|C-188|Mr. Tommy Dorsey Hunt|Dorsey Landscape & Irrigation|P.O. Box 3608|Pembroke, NC 28372|County: Robeson|(910) 521-0860 (phone)|(910) 521-0970 (fax)|dorseyland@bellsouth.net
Down to Earth Designs, Inc.|C-251|Mr. Benjamin F. Case|Down to Earth Designs, Inc.|3109 Gresham Lake Road|Raleigh, NC 27615|County: Wake, Chatham, Orange|(919) 875-8008 (phone)|(919) 875-8022 (fax)|bcase@raleighlandscape.com|www.raleighlandscape.com
Dudley Landscaping & Tree Service, Inc.|C-050|Mr. Claude Stuart Dudley|Dudley Landscaping & Tree Service, Inc.|320 Haven Street|Washington, NC 27889|County: Beaufort, Pitt, Martin|(252) 946-9346 (phone)|(252) 946-3227 (fax)|dlandts@embarqmail.com
Dunlap Lawn Service, Inc.|C-406|Ms. Shannon  Dunlap|Dunlap Lawn Service, Inc.|P.O. Box 39597|Greensboro, NC 27438|County: Guilford|(336) 282-3636 (phone)|(336) 282-3637 (fax)|dlsinc@dunlaplawnservice.com
Duplin Sod Farms, Inc.|C-702|Mr. Barry S. Evans|Duplin Sod Farms, Inc.|394 E Wards Bridge Rd.|Kenansville, NC 28349|County: Duplin, Wayne, Onslow|(910) 296-1355 (phone)|bevans@intrstar.net|www.duplinsod.com
E.D. Ward Landscaping, Inc.|C-450|Mr. Timothy Sean Ward|E.D. Ward Landscaping, Inc.|112 Sion Court|Rocky Mount, NC 27803|County: Nash|(252) 908-1508 (phone)|(252) 937-4010 (fax)|slimtim252@suddenlink.net
EarthAmerica, LLC|C-547|Mr. Farokh  Ghassemi|EarthAmerica, LLC|P.O. Box 307|Mt. Holly, NC 28120-0307|County: Henderson, Gaston, Mecklenburg, Lincoln|(704) 458-1201 (phone)|(704) 822-8281 (fax)|earthamerica@carolina.rr.com
East Carolina Services, Inc.|C-720|Mr. Steven Douglas Barts|East Carolina Services, Inc.|218 W. Fort Macon Road|Atlantic Beach, NC 28512|County: Carteret|(252) 240-1117 (phone)|(252) 240-1117 (fax)|steven@eastcarolinaservices.com|www.eastcarolinaservices.com
Eco Irrigation, Inc.|C-001|Mr. John L. Marmorato|Eco Irrigation, Inc.|6300-100 Limousine Drive|Raleigh, NC 27617|County: Wake, Orange, Durham|(919) 788-8569 (phone)|(919) 788-7850 (fax)|jm@ecoirr.com
Eco Turf of the Triad, Inc.|C-775|Mr. Brian  Murphy|Eco Turf of the Triad, Inc.|P.O. Box 155|Whitsett, NC 27377|(336) 362-6236 (phone)|keith@ecoturfnc.com
Ecoscape Solutions Group, Inc.|C-101|Mr. Jason  Farland|Ecoscape Solutions Group, Inc.|P.O. Box 3328|Huntersville, NC 28070|County: Mecklenburg|(704) 509-0020 (phone)|(704) 509-0034 (fax)|jfarland@ecoscape.com|www.ecoscape.com
Elegant Space Design|C-599|Mr. Charles Jeff Triece|Elegant Space Design|614 Orphanage Rd.|Concord, NC 28027|County: Mecklenburg, Iredell, Cabarrus|(980) 721-1788 (phone)|None (fax)|jeff.triece@hotmail.com
Element Land Design & Care, LLC|C-740|Mr. Michael Leon Perozzi|Element Land Design & Care, LLC|P.O. Box 2714|Surf City, NC 28445|County: Pender, Onslow, New Hanover|(910) 279-4896 (phone)|elementldc@hotmail.com|www.elementldc.com
Element Outdoor Living, Inc.|C-754|Mr. C. Blair Walton|Element Outdoor Living, Inc.|1901 Castle Hayne Road|Wilmington, NC 28401|(910) 297-3999 (phone)|blair@element-outdoorliving.com|www.element-outdoorliving.com
Elite Irrigation, LLC.|C-721|Mr. Richard  Ratcliff|Elite Irrigation, LLC.|322 Patricia Avenue|Harrisburg, NC 28075|County: Mecklenburg, Iredell, Cabarrus|(704) 886-4240 (phone)|elitelandscapingnc@hotmail.com|www.elitelandscapenc.com
Elite Landscape Service & Nursery, Inc.|C-239|Mr. Orval Wall Jones|Elite Landscape Service & Nursery, Inc.|5590 Seward Road|Pfafftown, NC 27040|County: Forsyth|(336) 924-1492 (phone)|(336) 924-4339 (fax)|orvalwjones@gmail.com
Emerald View Landscaping & Design, Inc|C-181|Mr. Michael Roger Cobb|Emerald View Landscaping & Design, Inc|P.O. Box 679|Garner, NC 27529|County: Wake|(919) 291-5952 (phone)|emeraldview@nc.rr.com|www.emeraldviewlandscape.com
EnhanceScapes, Inc.|C-407|Mr. Timothy C. Mastin|EnhanceScapes, Inc.|P.O. Box 577|Cary, NC 27512|County: Wake|(919) 773-8838 (phone)|(919) 773-4808 (fax)|enhancescapes@nc.rr.com
Environmental Landkeepers|C-762|Mr. Ryan  Newell|Environmental Landkeepers|8437 Buffaloe Road|Knightdale, NC 27545|(919) 261-9174 (phone)|(919) 261-9176 (fax)|office@environmentallandkeepers.com
Environmental Property Services, Inc.|C-380|Mr. Stephen Edward Ribble|Environmental Property Services, Inc.|11509 John Allen Road|Raleigh, NC 27614|County: Wake, Durham, Franklin|(919) 270-5080 (phone)|(866) 499-9607 (fax)|brandonk@nc.rr.com
Etheridge Landscape & Design, Inc.|C-227|Mr. Jeffrey Thomas Etheridge|Etheridge Landscape & Design, Inc.|7657 Hwy 211 West|Pinehurst, NC 28370|County: Moore|(910) 235-5208 (phone)|(910) 235-5212 (fax)|elandd@embarqmail.com
Ever Green Landscape Management, Inc.|C-283|Mr. Scott David Clontz|Ever Green Landscape Management, Inc.|3127 Sulphur Springs Road|Hickory, NC 28601|County: Catawba, Alexander, Caldwell|(828) 312-2546 (phone)|(828) 256-2207 (fax)|sprinkleurlawn@aol.com
Evergreen Irrigation Systems, Inc.|C-673|Mr. Gary Michael Jones|Evergreen Irrigation Systems, Inc.|1815 O'Berry Center Road|Goldsboro, NC 27530|County: Wayne, Johnston, Duplin|(919) 580-9315 (phone)|(919) 580-0812 (fax)|redsoxjones@icloud.com
Evergreen Landscaping & Maintenance, Inc.|C-233|Mr. Tommy Walker McAlister|Evergreen Landscaping & Maintenance, Inc.|P.O. Box 280|Marshville, NC 28103|County: Union|(704) 624-4018 (phone)|(704) 624-4028 (fax)|cmcalister@elmcarolina.com
Fairway Irrigation Management, Inc.|C-626|Mr. Stephen A. Lukachyk|Fairway Irrigation Management, Inc.|709 Plummer Drive|Greensboro, NC 27410|County: Guilford, Forsyth|(336) 218-1100 (phone)|None (fax)|fairwayirrigation@hotmail.com|www.fairwayirrigation.com
Fayetteville Landscaping & Lawn Care, Inc.|C-634|Mr. Timothy B. McMillan|Fayetteville Landscaping & Lawn Care, Inc.|P.O. Box 9988|Fayetteville, NC 28311|County: Cumberland|(910) 488-6380 (phone)|(910) 488-6381 (fax)|fayettevillelandscaping@centurylink.net|www.fayettevillelandscaping.com
Fire & Rain, LLC|C-002|Mr. Walter Charles Nieman|Fire & Rain, LLC|146 Waterside Lane|Nags Head, NC 27959|County: Dare, Currituck, Pasquotank|(252) 202-4532 (phone)|(252) 480-3514 (fax)|charlie@fireandrainirrigation.com
First Impressions Lawn and Garden, Inc.|C-572|Mr. Matthew L. Tuttle|First Impressions Lawn and Garden, Inc.|2361 Farrington Point Road|Chapel Hill, NC 27517|County: Durham, Orange, Chatham|(919) 636-1920 (phone)|matt@firstimpressionslawn.com
Flat Rock Landscaping, LLC|C-408|Mr. John Henry Williamson|Flat Rock Landscaping, LLC|6824 Sleeping Meadow Lane|Holly Springs, NC 27540|County: Wake|(919) 441-5623 (phone)|(866) 349-5031 (fax)|john@flatrocklandscaping.com
Fling Irrigation, Inc.|C-409|Mr. Michael  Fling|Fling Irrigation, Inc.|P.O. Box 506|Fort Mill, SC 29716|County: York|(803) 547-5303 (phone)|(803) 547-2159 (fax)
Flora Landscapes, LLC|C-312|Mr. Brock Alan Chisholm|Flora Landscapes, LLC|1313 Old Lamplighter Way|Wilmington, NC 28403|County: New Hanover, Pender, Brunswick|(910) 350-3297 (phone)|(910) 350-3297 (fax)|brock@floralandscapes.com|www.floralandscapes.com
Flying Grass, Inc.|C-497|Mr. Jeffery L. Finlen|Flying Grass, Inc.|2923 Iron Works Road|Reidsville, NC 27320|County: Rockingham, Guilford|(336) 215-7396 (phone)|(336) 951-3600 (fax)|mylandscaperjeff@gmail.com
Flynt Hill Farm, Inc.|C-166|Mr. Neil Dixon Flynt|Flynt Hill Farm, Inc.|2411 US Hwy 64 W. Business|Pittsboro, NC 27312|County: Chatham|(919) 542-5308 (phone)|(919) 542-4914 (fax)|ndf923@aol.com
Fontaine Landscaping Co., Inc.|C-153|Mr. Kevin B. Fontaine|Fontaine Landscaping Co., Inc.|P.O. Box 5824|Cary, NC 27512|County: Wake|(919) 380-8286 (phone)|kevin@fontainelandscaping.com
Foothills Irrigation, Inc.|C-116|Mr. Joshua Aaron Pfaff|Foothills Irrigation, Inc.|547 Juney Beauchamp Rd.|Advance, NC 27006|County: Davie|(336) 817-2348 (phone)|foothillsirrigation@gmail.com
Foothills Sportsturf, Inc.|C-304|Mr. Leif Charles Hamrick|Foothills Sportsturf, Inc.|P.O. Box 565|Boiling Springs, NC 28017|County: Cleveland|(704) 472-6365 (phone)|lhamrickgwv@gmail.com
Forest Creek Golf Club|C-557|Mr. Edgar Lee Bunch|Forest Creek Golf Club|200 Meyer Farm Drive|Pinehurst, NC 28374|County: Moore|(910) 693-1373 (phone)|(910) 693-1020 (fax)|bunchforestcreek@yahoo.com
Fountain Landscaping, Inc.|C-138|Mr. Joseph Pender Fountain|Fountain Landscaping, Inc.|9619 John White Road|Midland, NC 28107|County: Cabarrus, Mecklenburg, Union|(704) 366-4551 (phone)|joe@fountainlandscaping.com
Four Seasons Complete Lawn Care Incorporated|C-125|Mr. Eric Gregory Smith|Four Seasons Complete Lawn Care Incorporated|852 Laurie Ellis Road|Winterville, NC 28590|County: Pitt|(252) 756-0617 (phone)|(252) 756-0617 (fax)|fourseasonsclc@msn.com
Four Seasons Landscaping Management, Inc.|C-171|Ms. Brenda  Cheatham|Four Seasons Landscaping Management, Inc.|3709 Cole Mill Road|Durham, NC 27712|County: Durham|(919) 220-5704 (phone)|(919) 220-5717 (fax)|brenda.fourseasons@gmail.com
Frazier Landscaping, Inc.|C-410|Mr. James Ransom Frazier|Frazier Landscaping, Inc.|3900 Pea Ridge Road|New Hill, NC 27562|County: Wake|919-542-0468 (phone)|james.frazier@frazierlandscaping.com
Freeman Landscape, Inc.|C-039|Mr. James Stewart Freeman|Freeman Landscape, Inc.|4333 Gordon Road|Wilmington, NC 28405|County: New Hanover, Brunswick, Onslow|(910) 796-1166 (phone)|(910) 796-1090 (fax)|jim@freemanlandscape.com
French Broad Lawn and Landscaping, Inc.|C-278|Mr. Jeffrey Randall Young|French Broad Lawn and Landscaping, Inc.|P.O. Box 18730|Asheville, NC 28814|County: Buncombe, Henderson, Haywood|(828) 230-2987 (phone)|(828) 350-7849 (fax)|frenchbroadlawn@bellsouth.net
Fry and Associates Landscape, Inc.|C-411|Mr. Bryan Joseph Fry|Fry and Associates Landscape, Inc.|217 Crowatan Road|Castle Hayne, NC 28429|County: New Hanover|(910)452-4414 (phone)|(910) 452-4415 (fax)|frylandscape@gmail.com
Frye Farms Landscaping, Inc.|C-536|Mr. Michael Gilliam Frye|Frye Farms Landscaping, Inc.|2508 Frye Farms Rd.|Asheboro, NC 27205|County: Randolph|(336) 672-0156 (phone)|(336) 672-0156 (fax)|fryefarmsland@aol.com
G & G Landscape and Irrigation, Inc.|C-161|Ms. Michele  Platt|G & G Landscape and Irrigation, Inc.|P.O. Box 551120|Gastonia, NC 28055-1120|County: Gaston, Mecklenburg, Iredell|(704) 543-1910 (phone)|(704) 542-2519 (fax)|micheleatgandglandscape@gmail.com
G.G. Goldfuss, Inc.|C-255|Mr. Glenn  Goldfuss|G.G. Goldfuss, Inc.|1502 W. Yacht Drive|Oak Island, NC 28465|County: Johnston, Brunswick, New Hanover|(910) 278-6620 (phone)|(910) 278-6620 (fax)|goldfuss.irrigation@hotmail.com
G.W. Looby Landscaping, Inc.|C-594|Mr. Gary W. Looby|G.W. Looby Landscaping, Inc.|P.O. Box 520|Newell, NC 28126|County: Mecklenburg|(704) 201-7563 (phone)|(704) 599-2500 (fax)|loobylandscaping@bellsouth.net
Gardenkeepers Landscape & Design, Inc.|C-010|Ms. Linda J. Taylor|Gardenkeepers Landscape & Design, Inc.|4339 Leary Mills Rd.|Vanceboro, NC 28586|County: Pitt, Beaufort, Craven|(252) 717-5996 (phone)|linda@gardenkeeperslandscape.com|www.gardenkeeperslandscape.com
Garvey Rain Company|C-017|Mr. James Potter Garvey|Garvey Rain Company|P.O. Box 30571|Raleigh, NC 27622|County: Wake|(919) 852-1987 (phone)|(919) 852-1987 (fax)|jgarvey@garveyrain.com
GBED, LLC|C-760|Mr. Gregory  Boykin|GBED, LLC|5420 Marina Club Drive|Wilmington, NC 28409|County: New Hanover, Brunswick|(843) 333-1334 (phone)|giboykin@yahoo.com
Gemini's Irrigation|C-473|Mr. Jaime Zamudio Chavez|Gemini's Irrigation|205 Jason Way|Youngsville, NC 27596|County: Franklin, Wake, Granville|(919) 426-9101 (phone)|CGemini22@aol.com
Genesis Landscape, Contracting and Design, Inc.|C-717|Mr. Jeff  Nye|Genesis Landscape, Contracting and Design, Inc.|4500 Hobbs Hill Dr.|Charlotte, NC 28215|County: Mecklenburg, Union|(704) 536-6992 (phone)|genesislandscape@bellsouth.net|www.genesislandscapeinc.com
Global Turf Irrigation|C-358|Mr. Walter Jefferson Deitz|Global Turf Irrigation|14243 Soldier Rd.|Charlotte, NC 28278|County: Mecklenburg|(704) 634-1702 (phone)|walter2499@gmail.com
Good Earth Associates, Inc.|C-474|Mr. George C. Lewis|Good Earth Associates, Inc.|P.O. Box 116|Castle Hayne, NC 28429|County: New Hanover, Pender, Brunswick|(910) 675-1003 (phone)|(910) 675-0230 (fax)|g_earth@hotmail.com
Gra-Mac Distributing Company|C-349|Mr. David A. Graham|Gra-Mac Distributing Company|2310 NC Highway 801 North|Mocksville, NC 27028|County: Yadkin, Davie, Forsyth|(336) 998-3232 (phone)|(336) 998-3111 (fax)|gramacirr@yadtel.net
Grady Hedrick Landscaping & Hydroseeding, LLC|C-608|Mr. Grady  Hedrick|Grady Hedrick Landscaping & Hydroseeding, LLC|379 Beck's Nursery Road|Lexington, NC 27292|County: Davidson, Rowan, Forsyth|(336) 746-7800 (phone)|(336) 746-6391 (fax)|gleeh@windstream.net
Grantlin Landscape Services, Inc.|C-485|Mr. Will  Grantlin|Grantlin Landscape Services, Inc.|P.O. Box 930|Wake Forest, NC 27587|County: Wake|(919) 569-0216 (phone)|will@grantlinlandscape.com
Grants Creek Nursery, Inc.|C-205|Ms. Mary Jane Croom|Grants Creek Nursery, Inc.|763 Grants Creek Road|Jacksonville, NC 28546|County: Onslow, Carteret, Craven|(910) 353-0326 (phone)|(910) 353-4987 (fax)|grantscreeknursery@yahoo.com|www.grantscreeknursery.com
Grass Roots Landscaping, LLC|C-566|Mr. Benjamin Thomas Galletto|Grass Roots Landscaping, LLC|2600 Waterscape Drive SW|Supply, NC 28462|County: Brunswick|(910) 842-3339 (phone)|grassroots@atmc.net|www.landscapingbygrassroots.com
Grassmaster Landscaping, LLC|C-722|Mr. Greg  Kolody|Grassmaster Landscaping, LLC|P.O. Box 4774|Mooresville, NC 28116|County: Gaston, Mecklenburg, Iredell|(704) 277-0705 (phone)|greg@grassmasterco.com
Grayson South LLC|C-115|Mr. J. Michael Neese|Grayson South LLC|134 Fort Mill Highway|Fort Mill, SC 29707|County: York|(704) 523-7050 (phone)|(704) 523-7363 (fax)|mneese@graysonsouth.com
Great Gardens Nursery & Landscape|C-292|Mr. Douglas Scott Thomas|Great Gardens Nursery & Landscape|4311 Wiggins Mill Road|Wilson, NC 27893|County: Wilson|(252) 237-2050 (phone)|(252) 237-2050 (fax)|greatgrdn@gmail.com|www.greatgardens.biz
Green Biz Nursery & Landscaping, Inc.|C-053|Mr. Charles A. Allen|Green Biz Nursery & Landscaping, Inc.|P.O. Box 65059|Fayetteville, NC 28306|County: Cumberland, Hoke, Harnett|(910) 323-8811 (phone)|(910) 433-9052 (fax)|greenbiz@aol.com
Green Earth Industries, Inc.|C-412|Mr. Archie Maurice Bullard|Green Earth Industries, Inc.|P.O. Box 35004|Fayetteville, NC 28303|County: Cumberland, Wake, Lee|(910) 779-0507 (phone)|(910) 779-0508 (fax)|greenearth3007@raleigh.twcbc.com
Green Level Environmental Landscapes|C-609|Mr. Jason J. Daughenbaugh|Green Level Environmental Landscapes|1659 NC Hwy 751|Apex, NC 27523|County: Chatham, Durham, Wake|(919) 303-TURF (phone)|(919) 400-4535 (fax)|office@greenlevelgroup.com|www.greenlevelgroup.com
Green Post Irrigation & Landscaping, Inc.|C-723|Mr. William Derrick Bell|Green Post Irrigation & Landscaping, Inc.|305 Fox Hunter Road|Harmony, NC 28634|County: Iredell, Mecklenburg|704-902-5003 (phone)|greenpostlandscaping@gmail.com
Green Touch Tree & Turf, Inc.|C-414|Mr. Frank J. Turner|Green Touch Tree & Turf, Inc.|6900 Old Statesville Road|Charlotte, NC 28269|County: Mecklenburg|none (phone)|greentnt@bellsouth.net
Green Tree Landscaping, Inc.|C-359|Mr. Clyde Walter Case|Green Tree Landscaping, Inc.|6499 Cedar Lane|Denver, NC 28037|County: Lincoln, Iredell, Catawba|(704) 483-3701 (phone)|(704) 483-8353 (fax)|walt@greentreelandscaping.com
Green Up, Inc.|C-134|Mr. Randy Eugene Stephens|Green Up, Inc.|1041 Brick Landing Road SW|Shallotte, NC 28470|County: Brunswick|(910) 754-9971 (phone)|(910) 755-9971 (fax)|greenup9@yahoo.com
Green View Landscaping & Landscaping Mgmt, Inc.|C-098|Mr. Wayne  Saunders|Green View Landscaping & Landscaping Mgmt, Inc.|4706 Liberty Road|Greensboro, NC 27406|County: Guilford|(336) 674-7761 (phone)|(336) 674-9701 (fax)|wayne.saunders@greenviewgardencenter.com|www.greenviewgardencenter.com
Green Visions Landscape, LLC|C-360|Mr. Marcus Ian Vinroot|Green Visions Landscape, LLC|7988 Witty Road|Summerfield, NC 27358|County: Guilford|(336) 669-7193 (phone)|(336) 288-0414 (fax)|mvinroot@triad.rr.com
GreenFX, Inc.|C-624|Mr. Wendell Gregg Wilson|GreenFX, Inc.|4710 Indian Springs Road|Seven Springs, NC 28578|County: Wayne, Pitt, Onslow|(919) 734-2093 (phone)|jaw.25@hotmail.com|www.greenfxinc.com
GreenMan Horticultural Services, Inc.|C-334|Ms. Heather  Whitworth|GreenMan Horticultural Services, Inc.|P.O. Box 10681|Southport, NC 28461|County: Brunswick|(910) 454-9168 (phone)|(910) 454-9168 (fax)|greenmanhort@gmail.com|www.getgreenman.com
Greenscape, Inc.|C-007|Mr. Michael F. Currin|Greenscape, Inc.|P.O. Box 97|Holly Springs, NC 27540|County: Wake, Durham, Orange|(919) 552-7742 (phone)|(919) 567-9570 (fax)|mcurrin@greenscapeinc.com|www.greenscapeinc.com
Greenstate Landscape & Nursery|C-067|Ms. Myra T. Norton|Greenstate Landscape & Nursery|2643 West Carthage Road|Lumberton, NC 28360|County: Robeson, Scottland, Cumberland|(910) 739-0405 (phone)|(910) 738-7370 (fax)|myranorton@ncrrbiz.com|www.greenstatelandscaping.com
Greenthumb Nursery, LLC|C-475|Mr. Kevin  Cagle|Greenthumb Nursery, LLC|P.O. Box 140|Ether, NC 27247|County: Randolph, Moore, Montgomery|(910) 428-4587 (phone)|(910 428-1226 (fax)|kevinc@gtnursery.com
GreenView Partners, LLC|C-615|Mr. Darrin C. Hockstra|GreenView Partners, LLC|5909 Triangle Drive|Raleigh, NC 27617|County: Wake|(919) 576-0341 (phone)|(919) 783-5221 (fax)|darrinhockstra@greenviewpartners.com
Greenway Irrigation, Inc.|C-119|Mr. Bobby J. Wilson|Greenway Irrigation, Inc.|3021 Peebles Road|Raleigh, NC 27616|County: Wake, Durham, Chatham|(919) 217-4340 (phone)|greenwayirrigationral@gmail.com
Growing Edge Landscape & Design, Inc.|C-603|Mr. Brandon Lee Jones|Growing Edge Landscape & Design, Inc.|4075 Steve Ikerd Drive NE|Hickory, NC 28601|County: Catawba, Alexander|(828) 328-5151 (phone)|(828) 328-5151 (fax)|brandon@growingedgelandscape.com|www.growingedgelandscape.com
Growthtech, Inc.|C-597|Mr. David L. Pearce|Growthtech, Inc.|1493 Freedom Court|Gastonia, NC 28054|County: Gaston|(704) 674-8006 (phone)
Gulfstream Landscape Construction, LLC|C-522|Mr. Benjamin Michael Graf|Gulfstream Landscape Construction, LLC|4441 Six Forks Road, Suite 106-222|Raleigh, NC 27609|County: Wake|(877) 464-8537 (phone)|ben@gulfstreamlandscaping.com|www.gulfstreamlandscaping.com
H & H Landscaping and Lawncare, Inc.|C-693|Mr. Ryan W. Holland|H & H Landscaping and Lawncare, Inc.|104 Seth Thomas Lane|Swansboro, NC 28584|County: Onslow, Carteret|(910) 326-3977 (phone)|(910) 326-3334 (fax)|info@hhlandscapes.com|www.hhlandscapes.com
H & H Lawn Sprinklers, Inc.|C-556|Mr. James Oren Helms|H & H Lawn Sprinklers, Inc.|P.O. Box 1726|Monroe, NC 28111-1726|County: Union|(704) 289-7591 (phone)|jimmyohelms@yahoo.com
H2O-Matic Irrigation & Landscaping, Inc.|C-012|Mr. Richard Wayne Battaglia|H2O-Matic Irrigation & Landscaping, Inc.|1206 Bennington Drive NW|Concord, NC 28027|County: Cabarrus|(704) 788-8905 (phone)|(704) 795-5767 (fax)|battaglia1@lawnh2o.com
Hampstead Landscaping, Inc.|C-045|Ms. Susan D. LoRusso|Hampstead Landscaping, Inc.|1973 NC Hwy 210 West|Hampstead, NC 28443|County: Pender, New Hanover, Onslow|(910) 270-4395 (phone)|(910) 270-4395 (fax)|idigit45@aol.com
Hancock Outdoorscapes, LLC|C-657|Mr. Christopher  Hancock|Hancock Outdoorscapes, LLC|P.O. Box 941|Indian Trail, NC 28079|County: Union|(704) 661-0667 (phone)|(704) 628-5078 (fax)|hancockoutdoorscapes@aol.com
Hard Works, LLC|C-618|Mr. Donald Van Myers|Hard Works, LLC|2093 Jersey Church Road|Lexington, NC 27292|County: Davidson, Cabarrus, Mecklenburg|(336) 309-4905 (phone)|dvmyers2093@aol.com
Harmony Landscape Group, Inc.|C-705|Mr. Jonathan Blair Davis|Harmony Landscape Group, Inc.|12524 Birchfalls Drive|Raleigh, NC 27614|County: Wake|(919) 676-8280 (phone)|(919) 794-5727 (fax)|harmonygroup123@gmail.com|www.harmonygroup123.com
Harper Landscaping, Inc.|C-270|Mr. Lemuel Allan Harper|Harper Landscaping, Inc.|5177 Hwy 58 N|Stantonsburg , NC 27885|County: Greene, Wake, Wilson|(252) 238-3951 (phone)|(252) 238-2852 (fax)|harperlandscaping@gmail.com|www.harperlandscaping.com
Heads Up Sprinkler Systems, Inc.|C-476|Mr. Brian T. Gibson|Heads Up Sprinkler Systems, Inc.|3716 Cook Blvd.|Chesapeake, VA 23323|County: Currituck, Dare, Camden|(757) 485-7353 (phone)|(757) 485-1683 (fax)|bgibson@headsupsprinklers.com
Heaven and Earth Landscaping, LLC|C-764|Mr. Thomas L. Donathan|Heaven and Earth Landscaping, LLC|P.O. Box 1800|Indian Trail, NC 28079|(704) 821-2407 (phone)|(704) 821-1927 (fax)|heavenandearth@windstream.net
Heffner Land Design, Inc.|C-776|Mr. Charles Frederick Heffner|Heffner Land Design, Inc.|P.O. Box 2611|Southern Pines, NC 28388|County: Moore|(910) 692-2565 (phone)|(910) 692-6625 (fax)|forthheffner@heffnerlandscaping.com|www.heffnerlandscaping.com
Hermann's Nursery & Landscaping, Inc.|C-416|Mr. Mark Alan Herman|Hermann's Nursery & Landscaping, Inc.|9089 Lasater Road|Clemmons, NC 27012|County: Forsyth|(336) 766-6728 (phone)|hermanns@triad.rr.com
Hi-Tech Irrigation Services, Inc.|C-739|Mr. David J. Madison|Hi-Tech Irrigation Services, Inc.|P.O. Box 690964|Charlotte, NC 28227|County: Mecklenburg, Cabarrus, Union|(704) 532-2223 (phone)|n/a (fax)|hitechdave@yahoo.com
Hicks Landscape Contractors of Zebulon, Inc.|C-070|Mr. Adrian Scott Hicks|Hicks Landscape Contractors of Zebulon, Inc.|P.O. Box 2255|Wendell, NC 27591|County: Wake|(919) 366-0115 (phone)|(919) 366-9900 (fax)|sales@hickslandscape.com|www.hickslandscape.com
Highland Heritage Landscapes, Inc.|C-136|Mr. Thaddeus J. Cole|Highland Heritage Landscapes, Inc.|103 Kingsgate Road|Asheville, NC 28805|County: Buncombe|(828) 298-9565 (phone)|(828) 298-9563 (fax)|hhlinc@bellsouth.net|www.highlandheritagelandscapes.com
Highlands Irrigation, LLC|C-777|Mr. Jonathan Michael McRae|Highlands Irrigation, LLC|P.O. Box 34|Highlands, NC 28741|County: Macon|(828) 269-6016 (phone)|mcrae426@gmail.com
Hillside Nursery, Inc.|C-279|Mr. Jerry W. Hedden|Hillside Nursery, Inc.|P.O. Box 837|Andrews, NC 28901|County: Cherokee, Clay, Graham|(828) 321-4387 (phone)|(828) 321-4923 (fax)
Hillside Services of WNC, Inc.|C-543|Mr. Patrick Dwight Langford|Hillside Services of WNC, Inc.|P.O. Box 87|Waynesville, NC 28786|County: Haywood, Jackson, Buncombe|(828) 452-0382 (phone)|(828) 452-0382 (fax)|hillsideser@charter.net
Hinesley & Co., Inc.|C-151|Mr. Ronnie Steve Hinesley|Hinesley & Co., Inc.|210 Huntmaster Trail|Asheboro, NC 27205|County: Randolph, Guilford, Davidson|(336) 629-3779 (phone)|(336) 629-3779 (fax)|stevehinesl@yahoo.com
Holmescaping, Inc.|C-327|Mr. Ronald Lee Holmes|Holmescaping, Inc.|1179 Anderson Creek School Road|Spring Lake, NC 28390|County: Cumberland, Moore, Harnett|(910) 691-1750 (phone)|(910) 893-2609 (fax)|ronlholmes@embarqmail.com
Horticultural Enterprises, Inc.|C-418|Mr. John Patrick Eudy|Horticultural Enterprises, Inc.|51 Alvin Hough Road|Midland, NC 28107|County: Cabarrus|(704) 363-0097 (phone)|(704) 888-3155 (fax)|hei_peudy@yahoo.com
Hunts Landscaping & Maintenance, Inc.|C-074|Mr. Christopher W. Hunt|Hunts Landscaping & Maintenance, Inc.|P.O. Box 41027|Raleigh, NC 27629-1027|County: Wake, Durham, Johnston|(919) 266-0081 (phone)|(919) 266-0117 (fax)|chrishunt@huntscapes.com|www.huntscapes.com
Hutchins Landscape & Lawn Maintenance, LLC|C-674|Mr. Jonathan Blair Hutchins|Hutchins Landscape & Lawn Maintenance, LLC|7515 Troon Lane|Rougemont, NC 27572|County: Orange, Durham, Wake|(919) 824-3719 (phone)|jonhutchins329@hotmail.com|www.hutchins-landscape.com
Hyatt Landscaping, Inc.|C-198|Mr. Tony Dell Hyatt|Hyatt Landscaping, Inc.|8332 Harvell Rd.|Stanfield, NC 28163|County: Stanly|(704) 888-5390 (phone)|(704) 888-5324 (fax)|tony@tdhyattinc.com
Hyman's Landscape & Turf Mgmt., Inc.|C-694|Mr. Jon Michael Hyman|Hyman's Landscape & Turf Mgmt., Inc.|P. O. Box 1035|Morehead City, NC 28557|County: Carteret, Craven|(252) 648-8556 (phone)|hymanslandscape@hotmail.com|www.hymanslandscaping.com
I.S. Co/Irrigation Svcs & Landscape Contractor|C-632|Mr. Hyman Walston Peters|I.S. Co/Irrigation Svcs & Landscape Contractor|1614 W. Nash Street|Wilson, NC 27893|County: Wilson|(252) 234-7464 (phone)|(252) 237-5700 (fax)|walt@iscolandscaping.com
Ideal Landscaping & Irrigation, Inc.|C-638|Mr. Aaron Christian Snell|Ideal Landscaping & Irrigation, Inc.|5710-K High Point Road #143|Greensboro, NC 27407|County: Guilford|(336) 834-2424 (phone)|(336) 841-6476 (fax)|aaronsnell@ideallandscapingnc.com|www.ideallandscapingnc.com
Ideal Landscaping, Inc.|C-168|Mr. Larry  Byrd|Ideal Landscaping, Inc.|131 Tradition Trail|Holly Springs, NC 27540|County: Wake, Durham, Chatham|(919) 567-3325 (phone)|(919) 567-3375 (fax)|idealland.biz@earthlink.net
Ingle & Son Landscaping, Inc.|C-451|Mr. John Wesley Ingle|Ingle & Son Landscaping, Inc.|P.O. Box 1028|Conover, NC 28613|County: Catawba|(828) 464-5306 (phone)|(828) 464-5312 (fax)|inglelandscape@aol.com
Irri-Tech NC, Inc.|C-285|Mr. Louis Frank Racick|Irri-Tech NC, Inc.|1244 Lands End Drive|Fayetteville, NC 28304|County: Cumberland|(910) 237-0080 (phone)|(910) 864-9494 - Call (fax)|gunthie@aol.com
Irrigation Consulting, Inc.|C-361|Mr. Brian E. Vinchesi|Irrigation Consulting, Inc.|4 Hotel Place|Pepperell, MA 01463|County: Mecklenburg|(704) 843-3688 (phone)|(978) 433-2788 (fax)|jgdebruhl@carolina.rr.com
Irrigation Doctor of Welcome, Inc.|C-087|Mr. John W. Snyder|Irrigation Doctor of Welcome, Inc.|P.O. Box 208|Welcome, NC 27374|County: Davidson|(336) 345-0467 (phone)|(336) 731-4805 (fax)|john@irrigationdoctor.biz
Irrigation Technologies, Inc.|C-387|Mr. Jack Kevin Mansfield|Irrigation Technologies, Inc.|103 Brookview Court|Elon, NC 27244|County: Alamance|(336) 449-7448 (phone)|(336) 449-7448 (fax)|kmansfield@gcom.net
Irrigation Wiz, Inc.|C-421|Mr. Carlos  Montano|Irrigation Wiz, Inc.|1563 Oak Park Court|Iron Station, NC 28080|County: Lincoln|(704) 748-7072 (phone)|(704) 735-5763 (fax)|irrigationwiz@bellsouth.net
Island Creek Landscape|C-745|Mr. John Daniel Griffin|Island Creek Landscape|5588 Thomas Lane|Stanfield, NC 28163|(704) 241-5808 (phone)|(704) 888-9070 (fax)|info@islandcreeklandscape.com|www.islandcreeklandscape.com
Island Creek Landscaping|C-422|Ms. Colette  Kuki|Island Creek Landscaping|311 Red Fox Run Drive|Wallace, NC 28466|County: Duplin|(910) 382-5697 (phone)|(910) 285-2827 (fax)|iclandscapes@charter.net
J & K Irrigation, Inc.|C-587|Mr. Bobby Lee Jones|J & K Irrigation, Inc.|1996 Shadow Oak Drive|Rock Hill, SC 29730|County: York|(803) 327-9146 (phone)|(803) 327-9146 (fax)|jonesinc@comporium.net
J & S Landscape & Design, LLC|C-123|Mr. Jeffrey W. Shultz|J & S Landscape & Design, LLC|8115 Hwy 70|Newport, NC 28570|County: Carteret|(252) 223-2766 (phone)|(252) 223-3772 (fax)|jeff.sr@jsoutdoorliving.com|www.jsoutdoorliving.com
J B Lawn Sprinklers, Inc.|C-189|Mr. David Joseph Bloch|J B Lawn Sprinklers, Inc.|3606 Bethel Road|Wilmington, NC 28409|County: New Hanover|(910) 794-8042 (phone)|(910) 794-8042 (fax)|joe_bloch@hotmail.com|www.jblawnsprinklers.com
Jackson Landscaping, Inc.|C-035|Mr. William Howard Jackson|Jackson Landscaping, Inc.|P.O. Box 10940|Wilmington, NC 28404|County: New Hanover|(910) 686-2131 (phone)|(910) 686-2131 (fax)|whjackson@bellsouth.net
Jackson's Lawn and Landscaping, Inc.|C-477|Mr. Timothy A. Jackson|Jackson's Lawn and Landscaping, Inc.|P.O. Box 7147|Jacksonville, NC 28540|County: Onslow|(910) 347-2309 (phone)|(910) 346-1655 (fax)|tjackson001@ec.rr.com
Jason's Lawn & Landscaping Service|C-697|Mr. Jason Wayne Emminizer|Jason's Lawn & Landscaping Service|3865 O'Neal Lane|Kitty Hawk, NC 27949|County: Dare|(252) 207-2590 (phone)|(252) 255-1783 (fax)|jthemminizer@charter.net
Jay Butler Irrigation, Inc.|C-011|Mr. Jay Donald Butler|Jay Butler Irrigation, Inc.|P.O. Box 2643|Fayetteville, NC 28302|County: Cumberland, Harnett, Hoke|(910) 964-6288 (phone)
Jay's Lawn and Landscape Company|C-071|Mr. Jay Warren Evans|Jay's Lawn and Landscape Company|5424 Watkins Road|Wendell, NC 27591|County: Wake, Johnston, Durham|(919) 217-9583 (phone)|(919) 217-4818 (fax)|jayslawn1@aol.com|www.jayslawn.com
Joe's Landscape & Maintenance, LLC|C-089|Mr. Joseph Martin Bronner|Joe's Landscape & Maintenance, LLC|508 Washburn Switch Road|Shelby, NC 28150|County: Cleveland|(704) 473-1432 (phone)|joesland1@msn.com
John Ross, Inc.|C-061|Mr. John Armstrong Ross|John Ross, Inc.|753 S. Allen Rd.|Flat Rock, NC 28731|County: Henderson|(828) 697-5600 (phone)|jross@johnrossinc.com|www.johnrossinc.com
Johnson & Company Irrigation Sales, Inc.|C-013|Mr. Henry R. Johnson|Johnson & Company Irrigation Sales, Inc.|P.O. Box 122|Advance, NC 27006|County: Davie, Forsyth, Guilford|(336) 998-5621 (phone)|(336) 998-9833 (fax)|hrj@jc-irrigation.net|www.jc-irrigation.net
Johnson's Landscaping & Maintenance, Inc.|C-267|Mr. Vernon B. Johnson|Johnson's Landscaping & Maintenance, Inc.|7841 Old Bunch Road|Zebulon, NC 27597|County: Wake, Johnston, Durham|(919) 369-6006 (phone)|(919) 365-6089 (fax)|johnsons-landscaping@nc.rr.com|johnsons-landscaping.com
Johnson's Landscaping, Inc.|C-724|Mr. Danny Ross Johnson|Johnson's Landscaping, Inc.|427 Liberty Hill Rd.|Statesville, NC 28625|County: Iredell|(704) 634-4582 (phone)|djohnsonlandscaping@gmail.com
Johnston Home Management, Inc.|C-696|Mr. Keevan Locke Johnston|Johnston Home Management, Inc.|1518 4th St. NW|Hickory, NC 28601|County: Catawba|(828) 327-3710 (phone)|johnston1518@charter.net
Jones' Landscaping and Maintenance, Inc.|C-092|Mr. Jack  Jones|Jones' Landscaping and Maintenance, Inc.|3205 Air Park Road|Fuquay-Varina, NC 27526|County: Wake|(919) 552-7722 (phone)|(919) 567-8921 (fax)|jjones@joneslandscaping.com
Josh Bradshaw Plumbing, Inc.|C-170|Mr. Joshua Brandon Bradshaw|Josh Bradshaw Plumbing, Inc.|P.O. Box 303|Deep Run, NC 28525|County: Lenoir|(252) 522-2986 (phone)|(252) 522-2981 (fax)|jbp24318@yahoo.com
Joyner-Benfield|C-654|Ms. Carole R. Joyner|Joyner-Benfield|421 Lissom Lane|Charlotte, NC 28217|County: Mecklenburg, Union, Cornelius|(704) 523-7075 (phone)|(704) 523-7058 (fax)|carole@joynerbenfield.com|www.joynerbenfield.com
JT's Landscaping & Lawn Care, LLC|C-575|Mr. James A. Tompkins|JT's Landscaping & Lawn Care, LLC|PO Box 738|Rolesville, NC 27571|County: Wake|(919) 602-2649 (phone)|(919) 453-2718 (fax)|jimmy@jts-landscaping.com
Just My Style Landscape Services, Inc.|C-162|Mr. John Mark Swicegood|Just My Style Landscape Services, Inc.|3433 Arthur Pierce Rd.|Apex, NC 27539|County: Wake|(919) 552-3073 (phone)|(919) 567-1279 (fax)|mail@justmystylelandscapes.com|www.justmystylelandscapes.com
K. Thompson & Associates, LLC|C-698|Mr. Kurt K. Thompson|K. Thompson & Associates, LLC|10423 Spring Tree Ln.|Huntersville, NC 28078|County: Mecklenburg, Catawba|(850) 637-6650 (phone)|kurt@kthompsonassociates.com
K2 Irrigation Services, Inc.|C-291|Mr. Kevin R. McRae|K2 Irrigation Services, Inc.|P.O. Box 698|Enka, NC 28728|County: Buncombe|(828) 633-0536 (phone)|(828) 633-0537 (fax)|kmcrae@k2irrigation.com|www.k2irrigation.com
KBE Landscaping, Inc.|C-675|Ms. Kristen  Burke|KBE Landscaping, Inc.|P.O. Box 1065|Garner, NC 27529|County: Wake|(919) 779-2527 (phone)|(919) 779-2528 (fax)|sburke.bcla@gmail.com|www.kbelandscaping.com
KBS Landscaping, Inc.|C-381|Mr. Gary Anthony Cooper|KBS Landscaping, Inc.|407 McArthur Drive|Elizabeth City, NC 27909|County: Pasquotank, Camden, Perquimans|(252) 335-5882 (phone)|(252) 335-2438 (fax)|kenyonb@raleigh.twcbc.com
Kels Company, LLC|C-778|Mr. Michael Clinton Kels|Kels Company, LLC|210 Greenlevel Road|Apex, NC 27523|(919) 201-7512 (phone)|kelsco@yahoo.com
Ken-Wood Landscaping, LLC|C-676|Mr. Claude Kenneth Ledford|Ken-Wood Landscaping, LLC|P.O. Box 1302|Shelby, NC 28151|County: Cleveland, Gaston, Mecklenburg|(704) 477-4923 (phone)|kenwood1974@yahoo.com
Kesco Irrigation, LLC|C-423|Mr. Steven  Kesler|Kesco Irrigation, LLC|1235 Providence Church Road|Salisbury, NC 28146|County: Rowan, Iredell, Stanly|(704) 202-0436 (phone)|(704) 637-5859 (fax)|stevekesco@yahoo.com
Kevin James Landscape, Inc.|C-424|Mr. Kevin  James|Kevin James Landscape, Inc.|P.O. Box 12659|Charlotte, NC 28220|County: Mecklenburg|(704) 552-8008 (phone)|djames2@carolina.rr.com|www.kevinjameslandscape.com
Kiefer Landscaping, Inc.|C-200|Mr. Mark Andrew Kiefer|Kiefer Landscaping, Inc.|2450 S. Alston Ave.|Durham, NC 27713|County: Durham|(919) 596-7313 (phone)|(919) 598-5163 (fax)|wise@kieferlandscapinginc.com
Knats Creek Nursery|C-203|Mr. Richard D. Cole|Knats Creek Nursery|P.O. Box 215|Jackson Springs, NC 27281|County: Moore, Montgomery, Lee|(910) 673-3588 (phone)|(910) 673-7646 (fax)|knatscreek@earthlink.net|www.knatscreeknursery.com
Koster Irrigation, Inc.|C-478|Mr. William Camp Koster|Koster Irrigation, Inc.|1004 Brookside Drive|Wilson, NC 27893|County: Wilson, Wake, Nash|(252) 205-3311 (phone)|(252) 291-6263 (fax)|will@kosterirrigation.com|www.kosterirrigation.com
Koster Landscape Managment, Inc.|C-374|Mr. John G. Koster|Koster Landscape Managment, Inc.|1200 Waverly Road|Wilson, NC 27896|County: Wilson|(252) 291-6468 (phone)|(252) 291-6263 (fax)|jkosterjr@nc.rr.com
Kricket Lawn Kare, LLC|C-298|Mr. Brad  Connell|Kricket Lawn Kare, LLC|9925 Brief Road|Charlotte, NC 28227|County: Mecklenburg|(704) 573-0350 (phone)|(704) 573-0350 (fax)|kricket@carolina.rr.com
L.R. Griffin & Associates, Inc.|C-005|Mr. Lindsey R. Griffin|L.R. Griffin & Associates, Inc.|PO Box 3588|Greenville, NC 27836-1588|County: Pitt|(252) 717-9393 (phone)|lindsey@lrgriffin.com
LanArc, Inc.|C-046|Mr. Thomas Joseph Pruett|LanArc, Inc.|P.O. Box 90877|Raleigh, NC 27675|County: Wake, Durham, Orange|(919) 598-3605 (phone)|(919) 598-9776 (fax)|tpruett@lanarc.com|www.lanarc.com
LandCare Innovations, Inc.|C-616|Mr. Donald Julian Eleazer|LandCare Innovations, Inc.|9701 Metromont Industrial Blvd.|Charlotte, NC 28269|County: Mecklenburg|(980) 321-4530 (phone)|(980) 321-4536 (fax)|celeazer@landci.com|www.landcareinnovations.com
Landco Outdoors|C-709|Mr. Brandon Lynn Raynor|Landco Outdoors|1941 Middle Road|Eastover, NC 28312|County: Cumberland|(910) 485-7360 (phone)|landcooutdoors@aol.com|www.landcooutdoors.com
Landfall COA, Inc.|C-712|Mr. Stephen Douglas Hughes|Landfall COA, Inc.|1749 Drysdale Drive|Wlimington, NC 28405|County: New Hanover|(910) 256-7604 (phone)|(910) 256-7662 (fax)|maintenance@landfall.org
Landmark Landscapes|C-741|Mr. John  Thelen|Landmark Landscapes|1985 Brevard Road|Arden, NC 28704|County: Buncombe|(828) 687-9980 (phone)|(828) 687-9958 (fax)|johnthelen@mac.com|www.landmarkcarolinas.com
Landmasters, Inc.|C-081|Mr. Keith Allen Carpenter|Landmasters, Inc.|P.O. Box 12846|Gastonia, NC 28052|County: Gaston, Cleveland, Mecklenburg|(704) 864-3259 (phone)|(704) 864-2673 (fax)|landmasters@bellsouth.net
Landplus Landscape Design Inc.|C-506|Mr. James Brent Tally|Landplus Landscape Design Inc.|5001 Friendship Ledford Rd|Winston-Salem, NC 27107|County: Forsyth, Davidson, Guilford|(336) 462-7104 (phone)|(336) 764-2564 (fax)|landplus@bellsouth.net
Landscape Concepts, Inc.|C-549|Mr. Victor Lynn Smith|Landscape Concepts, Inc.|P.O. Box 1005|Salisbury, NC 28145-1005|County: Rowan, Iredell, Cabarrus|(704) 630-6675 (phone)|victorsmithlci@yahoo.com|www.landscapeconceptncsu.com
Landscape Design of Goldsboro, Inc.|C-042|Mr. Danny Ray VanDevender|Landscape Design of Goldsboro, Inc.|380 Washington Street|Pikeville, NC 27863|County: Wayne|(919) 242-8256 (phone)|(919) 242-8302 (fax)|danny@ldigoldsboro.com|www.ldigoldsboro.com
Landscape Designs by Carl, Inc.|C-363|Mr. Carl J. Dappen|Landscape Designs by Carl, Inc.|2344 Brasstown Lane|Apex, NC 27502|County: Wake|(919) 427-9486 (phone)|sage65@bellsouth.net
Landscape Irrigation Systems, Inc.|C-055|Mr. Buford  Blankenship|Landscape Irrigation Systems, Inc.|207 Hillstone Drive|Jamestown, NC 27282|County: Davidson, Guilford, Forsyth|(336) 454-6605 (phone)|(336) 454-4754 (fax)|lis@northstate.net|www.lislandscape.com
Landscape Solutions & Nursery, Inc.|C-560|Mr. W. Wayne Hewitt|Landscape Solutions & Nursery, Inc.|P.O. Box 459|Castle Hayne, NC 28429|County: New Hanover|(910) 520-4128 (phone)|grasses4u@ec.rr.com
Landscape Solutions of N.C.|C-262|Mr. Anthony Dee Walley|Landscape Solutions of N.C.|P.O. Box 2447|Davidson, NC 28036|County: Mecklenburg, Iredell|(704) 895-9530 (phone)|adwalley@bellsouth.net
Landscape Specialists, Inc.|C-725|Mr. Brian Paul Craven|Landscape Specialists, Inc.|3946 Friendship Ledford Road|Winston-Salem, NC 27107|County: Davidson, Forsyth|(336) 978-7311 (phone)|brian.craven.bpc@gmail.com
Landscape Technology, Inc.|C-324|Mr. Troy Odell Early|Landscape Technology, Inc.|4449 Clifton Road|Knightdale, NC 27545|County: Wake|(919) 266-9933 (phone)|troyearly@nc.rr.com
Landscapes Unlimited|C-229|Mr. Todd Brandon McCabe|Landscapes Unlimited|P.O.Box 964|Wrightsville Beach, NC 28480|County: New Hanover, Pender, Onslow|(910) 791-0350 (phone)|(910) 791-7291 (fax)|mccabelandscape@aol.com|www.golandscapesunlimited.com
Landscapes Unlimited, LLC of NC|C-345|Mr. Roy  Wilson|Landscapes Unlimited, LLC of NC|1201 Aries Drive|Lincoln, NE 68512|County: Moore, Wake|(402) 423-6653 (phone)|(402) 423-4487 (fax)|jwilliams@landscapesunlimited.com|www.landscapesunlimited.com
Landscaping and Construction, Inc.|C-514|Mr. Stuart Dameron Flanagan|Landscaping and Construction, Inc.|519 Slatestone Road|Washington, NC 27889|County: Beaufort, Pitt|(252) 975-2649 (phone)|(252) 975-2649 (fax)|lcinc02@suddenlink.net
Landscaping Unlimited, Inc.|C-057|Ms. Nancy  Brickhouse|Landscaping Unlimited, Inc.|3200 Hwy 92 East|Washington, NC 27889|County: Beaufort, Pitt|(252) 923-7481 (phone)|(252) 923-7547 (fax)|landscapingunlimited_inc@yahoo.com
Landvision Designs, Inc.|C-246|Mr. Frederick Tracy Sides|Landvision Designs, Inc.|10809 Honeycutt Rd.|Raleigh, NC 27614|County: Wake|(919) 847-2578 (phone)|(919) 847-2553 (fax)|info@landvisiondesigns.com
Larmore Landscape Associates, Inc.|C-140|Mr. William T. Larmore|Larmore Landscape Associates, Inc.|2581 Landmark Drive|Winston-Salem, NC 27103|County: Forsyth, Guilford, Davie|(336) 765-6340 (phone)|(336) 765-6990 (fax)|wtl@larmorelandscape.com
Laurdane Associates, Inc.|C-364|Mr. Ethan Ellis Shapiro|Laurdane Associates, Inc.|3005 Ethan Lane|Raleigh, NC 27613|County: Wake, Orange, Durham|(919) 870-1489 (phone)|(919) 845-9141 (fax)|laurdaneassoc@aol.com
Lawn Management, Inc.|C-362|Mr. Joel DeWayne Tucker|Lawn Management, Inc.|P.O. Box 241444|Charlotte, NC 28224|County: Mecklenburg|(704) 525-7038 (phone)|(704) 525-7038 (fax)|jt@lawnmanagementinc.com
Lawn Tech Irrigation, Inc.|C-126|Mr. James G. Anderson|Lawn Tech Irrigation, Inc.|P.O. Box 561497|Charlotte, NC 28256|County: Mecklenburg|(704) 598-9050 (phone)|(704) 598-9801 (fax)|jganderson@carolina.rr.com
LawnMasters Landscaping|C-121|Mr. Chad D. Haynes|LawnMasters Landscaping|P.O. Box 1242|Rutherfordton, NC 28139|County: Rutherford, Cleveland, Gaston|(828) 287-4349 (phone)|(828) 287-4349 (fax)|lawnmasterslandscaping@gmail.com
Lawnscapes of Lake Norman, Inc.|C-208|Mr. Robert Anson Coffey|Lawnscapes of Lake Norman, Inc.|738 Isle of Pines Road|Mooresville, NC 28117|County: Iredell|(704) 664-6393 (phone)|(704) 663-6918 (fax)|lawnscapesofLKN@roadrunner.com|www.lawnscapesoflakenorman.com
Legacy Landscaping, Inc.|C-425|Mr. Stephen W. Sherin|Legacy Landscaping, Inc.|P.O. Box 1769|Indian Trail, NC 28079|County: Union, Mecklenburg|(704) 821-5289 (phone)|(704) 821-5146 (fax)|steve@legacylandscapinginc.com
Legacy Turf & Irrigation, LLC|C-427|Mr. Preston Louis Poythress|Legacy Turf & Irrigation, LLC|3144 McDade Farm Rd.|Raleigh, NC 27616|County: Wake|(919) 217-3071 (phone)|(919) 217-3062 (fax)|ppoythress2@nc.rr.com
Leisure Landscapes, Inc.|C-158|Mr. Paul Louis Martin|Leisure Landscapes, Inc.|P.O. Box 98899|Raleigh, NC 27624|County: Wake, Durham, Chatham|(919) 847-1733 (phone)|paul@leisurelandscapes.com|www.leisurelandscapes.com
Lewey Landscaping & LawnCare, Inc.|C-336|Mr. James Michael Lewey|Lewey Landscaping & LawnCare, Inc.|4600 Bartwood Drive|Raleigh, NC 27613|County: Wake|(919) 846-7916 (phone)|(919) 870-9886 (fax)|info@leweylandscaping.com
Lloyd's of Landscape, Ltd.|C-197|Mr. Lloyd C. Brinkley|Lloyd's of Landscape, Ltd.|106 Oak Ridge Lane|Wilmington, NC 28411|County: New Hanover, Pender, Brunswick|(910) 686-4984 (phone)|(910) 686-4282 (fax)|lloydsnursery@ec.rr.com
Long Brothers Landscaping, Inc.|C-066|Mr. Don W. Long|Long Brothers Landscaping, Inc.|P.O. Box 90695|Raleigh, NC 27675|County: Alamance, Wake Durham|(919) 937-9575 (phone)|(919) 251-9353 (fax)|office@longbrotherslandscaping.com|www.longbrotherslandscaping.com
Looper Landscaping Company|C-495|Mr. Mark Timothy Looper|Looper Landscaping Company|13301 Lucia Riverbend Highway|Mt. Holly, NC 28120|County: Mecklenburg, Cabarrus, Iredell|(704) 820-0033 (phone)|(704) 820-9066 (fax)|looper@looperlandscaping.com
Lot and Land Maintenance, LLC|C-104|Mr. George Riley Crane|Lot and Land Maintenance, LLC|5925 Triangle Drive|Raleigh, NC 27617|County: Wake, Durham, Wilson|(919) 335-5263 (phone)|(888) 783-1309 (fax)|r.crane@lotandland.com|www.lotandland.com
Lotus Landscape Services, LLC|C-726|Mr. Chris V. McGee|Lotus Landscape Services, LLC|763 River Hwy|Mooresville, NC 28117|County: Mecklenburg|(843) 251-4037 (phone)|(843) 251-4037 (fax)|lotuslandscapeservices@gmail.com|www.lotuslandscapeservices.com
Low Country Landscaping|C-244|Mr. Thomas Scott Hinson|Low Country Landscaping|808 Gull Point Road|Wilmington, NC 28405|County: New Hanover, Pender, Brunswick|(910) 200-1489 (phone)|scott@lowcountrylandscaping.com|www.lowcountrylandscaping.com
Lucas Lawn & Landscape, Inc.|C-033|Mr. Doug  Lucas|Lucas Lawn & Landscape, Inc.|3316 Faith Church Rd.|Indian Trail, NC 28079|County: Union|(704) 882-9388 (phone)|(704) 882-6459 (fax)|kristen@lucaslandscape.com|www.lucaslandscapes.com
Luxury Outdoor Living, Inc.|C-639|Mr. Malek  Abdelaziz|Luxury Outdoor Living, Inc.|4119 Thames River Place|Harrisburg, NC 28075|County: Cabarrus|(704) 634-2883 (phone)|(704) 455-9862 (fax)|malek@luxury-outdoor-living.com|www.luxury-outdoor-living.com
M & G Services, Inc.|C-779|Mr. Malcolm Grant Spivey|M & G Services, Inc.|92 Golden Hills Lane|Sanford, NC 27332|(919) 770-1113 (phone)|grantspivey@live.com
M & M Sprinkler Systems|C-708|Mr. Michael D. Weddle|M & M Sprinkler Systems|P.O. Box 23225|Mint Hill, NC 28227|County: Mecklenburg, Union, Cabarrus|(704) 545-8552 (phone)|mmsprinkler@earthlink.net
M.W. Blake Landscaping, Inc.|C-106|Mr. John R. Murray|M.W. Blake Landscaping, Inc.|2609 Marks Creek Road|Knightdale, NC 27545|County: Wake|(919) 217-3649 (phone)|(919) 217-3630 (fax)|mwblake@bellsouth.net
Mainscape, Inc. |C-780|Ms. Jill  Dougherty|Mainscape, Inc.|13418 Britton Park Rd.|Indiana, IN 46038|(317) 577-3155 (phone)|(317) 284-5939 (fax)|www.mainscape.com
Making It Rain, LLC|C-713|Mr. Adam Brent Stroud|Making It Rain, LLC|902 Castalia Drive|Cary, NC 27513|County: Wake|(919) 795-3460 (phone)|adam@makingitrainnc.com
Manale Landscaping, Inc.|C-268|Mr. Marcus A. Ennocenti|Manale Landscaping, Inc.|P.O. Box 62951|North Charleston, SC 29419|(843) 207-9192 (phone)|(843) 207-9193 (fax)|marcus@manalelandscaping.com
Mark Keppler Landscaping, Inc.|C-382|Mr. Mark A. Keppler|Mark Keppler Landscaping, Inc.|4407 Hollow Oaks Drive|Chapel Hill, NC 27516|County: Orange|(919) 730-5131 (phone)|markkepplerlandscaping@gmail.com
Martin Irrigation, Inc.|C-365|Mr. Scott Donald Martin|Martin Irrigation, Inc.|5607 Verrazano Drive|Waxhaw, NC 28173|County: Union|(704) 698-2700 (phone)|(704) 698-2701 (fax)|sa7mrt@aol.com|www.martinirrigation.com
Martin's Landscape Design, Inc.|C-452|Mr. Ben C. Martin|Martin's Landscape Design, Inc.|20 Lochdon Ct.|Pinehurst, NC 28374|County: Moore, Cumberland, Hoke|(910) 295-1674 (phone)|(910) 295-1674 (fax)|mldnc123@hotmail.com
McAnulty Landscaping, LLC|C-135|Mr. Wallace L. McAnulty|McAnulty Landscaping, LLC|P.O. Box 1532|Holly Springs, NC 27540|County: Wake, Chatham, Orange|(919) 390-4733 (phone)|(919) 557-1492 (fax)|wlmcanulty@gmail.com
McBrides Lawn Service, Inc.|C-658|Mr. David Wayne McBride|McBrides Lawn Service, Inc.|1701 Oakley Rd.|Castle Hayne, NC 28429|County: New Hanover, Pender, Brunswick|(910) 763-0955 (phone)
McCrimmon Landscaping & Grading, Inc.|C-234|Mr. John Todd McCrimmon|McCrimmon Landscaping & Grading, Inc.|P.O. Box 304|Southern Pines, NC 28388|County: Moore|(910) 692-8957 (phone)|(910) 692-8957 (fax)|mlginc@embarqmail.com|www.mccrimmonlandscaping.com
McKee Construction Services, LLC|C-756|Mr. Tony  Pope|McKee Construction Services, LLC|P.O. Box 3328|Huntersville, NC 28070|County: Mecklenburg|(704) 509-0020 (phone)|(704) 509-0034 (fax)|tpope@mckeecon.com
McMahan Services, Inc.|C-294|Mr. Larry R. McMahan|McMahan Services, Inc.|6052 Lookout Heights Drive|Claremont, NC 28610|County: Catawba|(828) 441-0479 (phone)|mcmahanservices@gmail.com
Metro-GreenScape, Inc.|C-488|Ms. Heather Marie Brockelbank|Metro-GreenScape, Inc.|1622 Parker Drive|Charlotte, NC 28208|County: Mecklenburg, Union, Catawba|(704) 504-0980 (phone)|(704) 504-8547 (fax)|heather@metrogreenscape.com|www.metrogreenscape.com
Michael L. Burns, LLC|C-752|Mr. Michael Luther Burns|Michael L. Burns, LLC|P.O. Box 205|Horse Shoe, NC 28742|(828) 674-3368 (phone)|michaelburnsco@gmail.com
Mid-South Irrigation & Landscape Construction, Inc.|C-100|Mr. Bryan Alan Parker|Mid-South Irrigation & Landscape Construction, Inc.|P.O. Box 297|Lewisville, NC 27023|County: Forsyth, Guilford, Wake|(336) 765-7475 (phone)|(336) 765-7475 (fax)|bryan@midsouthirrigation.com
Midas Touch Landscaping Services, Inc.|C-199|Mr. Christopher James Caudill|Midas Touch Landscaping Services, Inc.|360 Foxwood Drive|Rocky Point, NC 28457|County: Pender, New Hanover, Brunswick|(910) 279-0758 (phone)
Middle Sound Landscaping, Inc.|C-187|Mr. William C. Baker|Middle Sound Landscaping, Inc.|1121 C Military Cuttoff Rd., Suite 362|Wilmington, NC 28405|County: New Hanover|(910) 686-2607 (phone)|(910) 509-0530 (fax)|chip@middlesoundlandscaping.com|www.middlesoundlandscaping.com
Miller Services, Inc.|C-344|Mr. Ralph G. Miller|Miller Services, Inc.|10621 Lowery Drive|Raleigh, NC 27615|County: Wake, Durham|(919) 848-7795 (phone)|(919) 848-1408 (fax)|bootsmiller2002@gmail.com
Mint Landscaping, Inc.|C-727|Mr. Brandon H. Morris|Mint Landscaping, Inc.|16024 Davidson Concord Road|Davidson, NC 28036|County: Mecklenburg|(704) 975-3432 (phone)|sales@mintlandscaping.com|www.mintlandscaping.com
Modlin Electric, Inc.|C-489|Mr. Burley Roscoe Modlin|Modlin Electric, Inc.|P.O. Box 192|Swan Quarter, NC 27885|County: Hyde|(252) 926-1831 (phone)|(252) 926-4211 (fax)|mod_lyn@yahoo.com
Moore's Lawn Maintenance, Inc.|C-463|Mr. Jamie H. Moore|Moore's Lawn Maintenance, Inc.|5525 Cashion Road|Huntersville, NC 28078|County: Mecklenburg|(704) 875-3535 (phone)|(704) 947-7120 (fax)|Jamie@mymlminc.com
Morris Nursery & Landscaping, Inc.|C-177|Mr. William Franklin Morris|Morris Nursery & Landscaping, Inc.|1446 Morris BBQ Rd.|Hookerton, NC 28538|County: Greene, Pitt, Lenior|(252) 747-8380 (phone)|(252) 747-8035 (fax)|wmorris@morrislandscaping.com|www.morrislandscaping.com
Mr. Bill's Landscaping, Inc.|C-559|Mr. William A. Horstmann|Mr. Bill's Landscaping, Inc.|303 Lanterna Lane|N. Topsail Beach, NC 28460|County: Onslow, Pender|(910) 328-3233 (phone)|(866) 320-0440 (fax)|wahorstmann@charter.net|www.mr-bills-landscaping.com
Myatt Landscaping Concepts, Inc.|C-032|Mr. Lemuel Scott Myatt|Myatt Landscaping Concepts, Inc.|217 Technology Park Lane|Fuquay Varina, NC 27526|County: Wake|(919) 577-6050 (phone)|(919) 577-6054 (fax)|scott@myattlandscaping.com
Nature's Way Landscape Management, Inc.|C-706|Mr. Kenneth Wayne Chambers|Nature's Way Landscape Management, Inc.|P.O. Box 35472|Greensboro, NC 27425|County: Guilford|(336) 707-3822 (phone)|(336) 573-3864 (fax)|chambrsken@gmail.com
Nature's Way Landscaping and Nursery, LLC|C-348|Mr. Richard G. Pate|Nature's Way Landscaping and Nursery, LLC|P.O. Box 2122|Laurinburg, NC 128352|County: Scotland, Moore, Marlboro|(910) 276-5882 (phone)|(910) 276-7560 (fax)|richard@natureswaylandscaping.biz
Nazo Landscaping, Inc.|C-142|Mr. Fawaz Philip Nazo|Nazo Landscaping, Inc.|5211 Old Autumnwood Drive|Durham, NC 27705|County: Durham, Wake, Orange|(919) 309-2620 (phone)|nazolandscaping@aol.com|nazolandscaping.com
NC Property and Water Services, LLC|C-604|Mr. John H. Doughty|NC Property and Water Services, LLC|1260 Manns Chapel Road|Pittsboro, NC 27312|County: Chatham, Wake, Durham|(919) 698-8143 (phone)|jdncpws@att.net
Neal's Landscaping, Inc.|C-593|Mr. Doyle M. Neal|Neal's Landscaping, Inc.|P.O. Box 272|Davidson, NC 28036|County: Mecklenburg|(704) 634-6316 (phone)|fairoaksln@aol.com
Neill's, Inc.|C-728|Mr. Andy Paul Neill|Neill's, Inc.|1506 Cameron Drive|Statesville, NC 28625|County: Iredell|(704) 902-7191 (phone)|neillsfam@yahoo.com
Nelson's Irrigation & Landscaping, Inc.|C-018|Ms. Nicole A. Hernandez|Nelson's Irrigation & Landscaping, Inc.|1767 Gyro Drive|Winston-Salem, NC 27127|County: Forsyth, Davie, Davidson|(336) 784-4190 (phone)|(336) 784-9262 (fax)|nelsonirrigation@bellsouth.net|www.nelsonsirrigationandlandscaping.com
New Beginning Landscape, LLC|C-036|Mr. Shavaras E. Daniels|New Beginning Landscape, LLC|11438 Larix Drive|Charlotte, NC 28273|County: Mecklenburg|(704) 400-4930 (phone)|(704) 504-3115 (fax)|gdaniels@carolina.rr.com
New Garden Landscaping & Nursery, Inc.|C-114|Mr. J. Morris Newlin|New Garden Landscaping & Nursery, Inc.|5577 Garden Village Way|Greensboro, NC 27410|County: Guilford|(336) 668-0698 (phone)|(336) 662-0512 (fax)|gupchurch@newgarden.com|www.newgarden.com
New Testament Tree & Tractor, Inc.|C-500|Mr. Mark Steven Davis|New Testament Tree & Tractor, Inc.|2265 N. Hwy 16/P.O. Box 934|Denver, NC 28037|County: Lincoln, Mecklenburg, Catawba|(704) 966-1461 (phone)|(704) 966-1462 (fax)|newtestamenttreetractor@yahoo.com
Noble's Professional Grounds Management, Inc.|C-699|Mr. Billy  Nobles|Noble's Professional Grounds Management, Inc.|P.O. Box 2965|Shallotte, NC 28459|County: Brunswick|(910) 754-6373 (phone)|(910) 755-1569 (fax)|pgmlandscaping@atmc.net|www.noblespgm.com
Norris Landscaping Services, Inc.|C-289|Mr. Charles Anthony Norris|Norris Landscaping Services, Inc.|2882 Matthews Road|Clayton, NC 27520|County: Johnston|(919) 934-3938 (phone)|(919) 934-6304 (fax)|info@norrislandscaping.com
North American Lawn & Landscape|C-178|Mr. Brandon A. Gurley|North American Lawn & Landscape|4200 Performance Road|Charlotte, NC 28214|County: Mecklenburg|(704) 394-3300 (phone)|(704) 394-9988 (fax)|bgurley@nalandscape.com
North Carolina Turf Care, Inc.|C-758|Mr. Ryan  Tyrell|North Carolina Turf Care, Inc.|P.O. Box 447|Wake Forest, NC 27588|County: Franklin, Wake|(919) 554-9645 (phone)|ryan@ncturfcare.com|ncturfcare.com
North State Gardens, Inc.|C-068|Mr. Matthew B. Erwin|North State Gardens, Inc.|17015 US Highway 17|Hampstead, NC 28443|County: Pender, New Hanover, Onslow|(910) 270-4702 (phone)|(910) 270-4702 (fax)|matthew@northstategardens.com|www.northstategardens.com
Northlake Landscapes, LLC|C-040|Mr. Marcus Dwayne Moran|Northlake Landscapes, LLC|P.O. Box 3021|Mooresville, NC 28117|County: Iredell, Mecklenburg, Catawba|(704) 557-5065 (phone)|(704) 664-8026 (fax)|marcus@northlakelandscapes.com|www.northlakelandscapes.com
O'Mara Landscaping & Lawn Care, Inc.|C-781|Mr. Kate  O’Mara|O'Mara Landscaping & Lawn Care, Inc.|5015 Southpark Drive, Ste 210|Durham, NC 27713|(919) 942-5051 (phone)|(919) 942-5704 (fax)|omaralandscaping@bellsouth.net|www.omaralandscaping.com
Oak City Landscaping, LLC|C-622|Mr. J. Andrew Plunkett|Oak City Landscaping, LLC|P.O. Box 99747|Raleigh, NC 27624|County: Wake|(919) 665-7157 (phone)|andrew@oakcitylandscaping.com|www.oakcitylandscaping.com
Oasis Landscaping, Inc|C-677|Mr. William Lawrence Toney|Oasis Landscaping, Inc|P.O. Box 7272|Charlotte, NC 28241|County: Mecklenburg|(704) 575-0522 (phone)|(704) 900-8610 (fax)|ltoney@carolina.rr.com
Old Mill Stream Nursery & Landscaping, Inc.|C-014|Mr. Robert S. Makey|Old Mill Stream Nursery & Landscaping, Inc.|P.O. Box 99|Newton Grove, NC 28366|County: Sampson, Wake, Johnston|(910) 567-2305 (phone)|(910) 567-2331 (fax)|scott@oldmillstream.com
Old North State Landscape Development, Inc.|C-552|Mr. William Benjamin Strope|Old North State Landscape Development, Inc.|P.O. Box 61748|Durham, NC 27715|County: Durham|(919) 384-1800 (phone)|(919) 384-1817 (fax)|onslandscape@msn.com|www.onslandscape.com
Omni Irrigation, Inc.|C-678|Mr. John  Miragliotta|Omni Irrigation, Inc.|5008 W. Linebaugh Ave., Suite 55|Tampa, FL 33624|(813) 908-7691 (phone)|(813) 908-0941 (fax)|john@omniirrigation.com
OneSource Landscape & Golf Services|C-235|Mr. Jeffrey  Billinger|OneSource Landscape & Golf Services|4420 Bishop Drive|Charlotte, NC 28217|County: Cabarrus, Mecklenburg, Union|(704) 972-7625 (phone)|(704) 972-7626 (fax)|delkins@one-source.com|www.onesourcelandscapeandgolf.com
Orwill Solutions, Inc.|C-782|Ms. Ursula Alessandra Ortega|Orwill Solutions, Inc.|P.O. Box 12995|Wilmington, NC 28405|(910) 297-3635 (phone)|(888) 205-0087 (fax)|orwillsolutions@yahoo.com|www.orwill.com
Outdoor Environments of Fayetteville, LLC|C-642|Mr. Anthony  Rhinehart|Outdoor Environments of Fayetteville, LLC|P.O. Box 58045|Fayetteville, NC 28305|County: Cumberland|(910) 483-7678 (phone)|(910) 483-4167 (fax)|anthony@outdoorenvironmentsnc.com|www.outdoorenvironmentsnc.com
Outdoor Images Mgmt.|C-480|Mr. David Lawrence Henderson|Outdoor Images Mgmt.|4024 Hartley St.|Charlotte, NC 28226|County: Mecklenburg|(704) 509-0710 (phone)|(704) 509-0711 (fax)|david@outdoorimagesmgt.com
Outdoor Images, Inc.|C-453|Mr. T. J. Husted|Outdoor Images, Inc.|P.O. Box 17285|Raleigh, NC 27619|County: Wake|(919) 269-4342 (phone)|(919) 269-5248 (fax)|info@outdoorimagesinc.com
Outdoor Innovations, LLC|C-757|Mr. Keith  Berciunas|Outdoor Innovations, LLC|1654 Lake Tree Drive|Ocean Isle Beach, NC 28469|County: Brunswick|(910) 579-8255 (phone)|keith@outdoorinnovationsllc.net
Outdoor Life, Inc.|C-156|Mr. William Edward Botkin|Outdoor Life, Inc.|7427 Matthews-Mint Hill Rd, Suite 105-354|Charlotte, NC 28227|County: Mecklenburg|(704) 201-5196 (phone)|(704) 753-4516 (fax)|outdoorcontracting@carolina.rr.com
Outer Banks Landscaping, Inc.|C-569|Mr. Richard Alan Cohen|Outer Banks Landscaping, Inc.|110 Lee Court|Kill Devil Hills, NC 27948|County: Dare, Currituck|(252) 441-4692 (phone)|bussbro@gmail.com
Overstream Landscaping & Irrigation, LLC|C-660|Mr. Philip  Coblenz|Overstream Landscaping & Irrigation, LLC|P.O. Box 1215|Matthews, NC 28106|County: Union, Mecklenburg|(704) 226-8836 (phone)|(704) 225-1615 (fax)|chrissy@overstreaminc.com|overstreaminc.com
Paradise Lawn & Landscape|C-405|Mr. Frank  Carilli|Paradise Lawn & Landscape|5019 Carolina Beach Road|Wilmington, NC 28412|County: New Hanover, Pender, Brunswick|(910) 397-0985 (phone)|(910) 397-2757 (fax)|lawnparadise@aol.com
Paragon Landscape Management|C-584|Mr. Kevin William Harrison|Paragon Landscape Management|8500 Broxburn Lane|Waxhaw, NC 28173|County: Union|(704) 392-4097 (phone)|(704) 392-4098 (fax)|kharrison@paragonlandscapemanagement.com
Parker's Landscape Services, Inc.|C-433|Mr. A. B. Parker|Parker's Landscape Services, Inc.|P.O. Box 339|Apex, NC 27502|County: Wake, Durham, Orange|(919) 367-0000 (phone)|(919) 367-8618 (fax)|ab@parkerslandscape.com|www.parkerslandscape.com
Paul Bryson Landscape Contractor, Inc.|C-343|Mr. Paul Richard Bryson|Paul Bryson Landscape Contractor, Inc.|1616 Harmont Drive|Raleigh, NC 27603|County: Wake|(919) 868-4184 (phone)
Perry Corporation|C-078|Mr. Tommy  Perry|Perry Corporation|2637Jack Mitchell Rd.|Zebulon, NC 27597|County: Wake, Durham, Johnston|(919) 269-2295 (phone)|(919) 269-2296 (fax)|tommy@perrycorpnc.com
Phelps Irrigation, LLC|C-131|Mr. James R. Phelps|Phelps Irrigation, LLC|113 Stonehead Court|Wilmington, NC 28411|County: New Hanover, Brunswick, Pender|(910) 686-8265 (phone)|bonitaphelps71@yahoo.com
Phil Simpson Landscaping, Inc.|C-481|Mr. Phillip Leon Simpson|Phil Simpson Landscaping, Inc.|2215 Haigler Baucom Road|Monroe, NC 28110|County: Union, Mecklenburg|(704) 363-1364 (phone)|(704) 753-5636 (fax)|psimpsonlandscaping@carolina.rr.com
Phoenix Landscape Mgmt of Charlotte, Inc.|C-250|Mr. Charles Edward Johnson|Phoenix Landscape Mgmt of Charlotte, Inc.|5107 Edwards Road|Taylors, SC 29687|County: Mecklenburg|(864) 609-9100 (phone)|(864) 609-9125 (fax)|chad@phoenixlandscape.net|www.phoenixlandscape.net
Phoenix Landscape Mgmt of Coastal Carolina, Inc.|C-249|Mr. Charles Edward Johnson|Phoenix Landscape Mgmt of Coastal Carolina, Inc.|5107 Edwards Road|Taylors, SC 29687|County: Brunswick|(864) 609-9100 (phone)|(864) 609-9125 (fax)|chad@phoenixlandscape.net|www.phoenixlandscape.net
Picture Perfect Landscape & Irrigation, LLC|C-550|Mr. Michael Shannon Stewart|Picture Perfect Landscape & Irrigation, LLC|2975 Elder Court|Gastonia, NC 28054|County: Gaston, Mecklenburg, Union|(704) 852-9490 (phone)|mstewartppli@carolina.rr.com
Piedmont Landscaping, Inc.|C-635|Mr. Buddy  Ritchie|Piedmont Landscaping, Inc.|P.O. Box 130|Richfield, NC 28137|County: Stanly|(704) 463-1322 (phone)|(704) 463-1333 (fax)|buddy@piedmontlandscapinginc.com|www.piedmontlandscapinginc.com
Pinnacle Landscape, LLC|C-290|Mr. Jay  Marino|Pinnacle Landscape, LLC|61 Dillingham Road|Asheville, NC 28805|County: Buncombe|(828) 779-4128 (phone)|(828) 298-7998 (fax)|tangoman15@gmail.com
Pipeline Irrigation, LLC|C-172|Ms. JoEllen  Smith|Pipeline Irrigation, LLC|1150 Falls Road|Rock Hill, SC 29730|County: York|(704) 301-4368 (phone)|(803) 980-0502 (fax)|joellen.smith@pipelinenc.net
Plymouth Nursery, LLC|C-122|Mr. Christopher S. Avis|Plymouth Nursery, LLC|P.O. Box 649|Stoneville, NC 27048|County: Rockingham, Guilford, Forsyth|(336) 605-3762 (phone)|(336) 605-3765 (fax)|chrisavis@plymouthnurseryonline.com
Pope Landscape & Irrigation Co.|C-127|Mr. James M. Pope|Pope Landscape & Irrigation Co.|P.O. Box 1312|Garner, NC 27529|County: Wake|(919) 779-7673 (phone)|jim@popelandscape.com
Precision Turf, LLC|C-715|Mr. Eric Scott Holland|Precision Turf, LLC|3276 Buford Drive, Suite 104, #351|Buford, GA 30519|County: Gwinnett|(770) 921-1925 (phone)|(770) 921-1926 (fax)|eric@pturf.com|www.pturf.com
Precision Turfscape, Inc.|C-563|Mr. Michael A. Leeper|Precision Turfscape, Inc.|P.O. Box 752|Carrboro, NC 27510|County: Orange, Chatham, Durham|(919) 929-9431 (phone)|(919) 888-4152 (fax)|mbleeper@aol.com
Preferred Land Care, LLC|C-755|Mr. Walter Gene Sellers|Preferred Land Care, LLC|130 Green Swamp Road|Supply, NC 28462|County: Brunswick, New Hanover, Columbus|(910) 754-8393 (phone)|suplan@atmc.net
Premier Landscaping|C-737|Mr. Tino C. Bleimann|Premier Landscaping|P.O. Box 11724|Charlotte, NC 28220|County: Mecklenburg|(704) 366-9858 (phone)|(704) 366-3328 (fax)|tino@premierlandscapingonline.com
Premier Landscaping, Inc.|C-369|Mr. Benjamin T. Alexander|Premier Landscaping, Inc.|4816 Country Club Drive|Wilson, NC 27896|County: Wilson, Nash, Edgecombe|(252) 237-6860 (phone)|(252) 236-9940 (fax)|plinc@nc.rr.com
Pro-Care Irrigation and Turf|C-393|Mr. Benjamin Kyle Routh|Pro-Care Irrigation and Turf|4547 Starmount Rd.|Liberty, NC 27298|County: Randolph, Guilford, Davidson|(336) 736-6220 (phone)|procareturf@gmail.com
Pro-Scape, Inc.|C-201|Mr. Mark R. Gmyrek|Pro-Scape, Inc.|2411 Spartanburg Hwy.|East Flat Rock, NC 28726|County: Henderson, Buncombe|(828) 243-5255 (phone)|(828) 693-3207 (fax)|proscape66@yahoo.com
Professional Lawn Systems, Inc.|C-551|Mr. Ronald K. Wallace|Professional Lawn Systems, Inc.|P.O. Box 4616|Rock Hill, SC 29732|County: York|(803) 327-1415 (phone)|(803) 327-1436 (fax)|irrigator@comporium.com
Professional Tree Care, Inc.|C-434|Mr. John McCrimmmon Calloway|Professional Tree Care, Inc.|P.O. Box 33752|Raleigh, NC 27636|County: Wake|(919) 851-6908 (phone)|protree@nc.rr.com
Proscape & Irrigation, Inc.|C-391|Mr. Michael Eugene Bell|Proscape & Irrigation, Inc.|P.O. Box 282|Indian Trail, NC 28079|County: Union, Mecklenburg, Iredell|(704) 821-4211 (phone)|(704) 882-1135 (fax)|mike@proscape.us
Providence Landscape Group|C-607|Mr. Tom  Gaddy|Providence Landscape Group|P.O. Box 680908|Charlotte, NC 28216|County: Mecklenburg, Iredell, Gaston|(704) 586-0201 (phone)|(704) 586-0601 (fax)|Tom.Gaddy@plgnc.com|www.plgnc.com
Pure Green, Inc.|C-435|Mr. Kevin Robert Lytle|Pure Green, Inc.|P.O. Box 2820|Indian Trail, NC 28079|County: Union|(704) 622-4142 (phone)|(704) 684-0085 (fax)|kevin@puregreeninc.com
Quality Landscape, Inc.|C-299|Mr. John  Sharp|Quality Landscape, Inc.|P.O. Box 36594|Rock Hill, SC 29732|County: York, Union, Mecklenburg, Chatham|(803) 416-6138 (phone)|(803) 684-3921 (fax)|john.sharp@qualitylsinc.com|www.qualitylsinc.com
Queenscape, Inc.|C-047|Mr. Michael  Queen|Queenscape, Inc.|8629 Barefoot Industrial Road|Raleigh, NC 27617|County: Wake|(919) 786-4011 (phone)|(919) 786-4012 (fax)|mqueen@queenscape.com
R & R Irrigation, Inc.|C-617|Mr. Jairo  Arango|R & R Irrigation, Inc.|6420 Rea Rd. Suite 222|Charlotte, NC 28277|County: Mecklenburg, Union, Iredell|(704) 200-7799 (phone)|(704) 341-6242 (fax)|rrirrigation@gmail.com
Radcliffe Landscaping, Inc.|C-373|Mr. Robert  Radcliffe|Radcliffe Landscaping, Inc.|209 Onondaga Court|Holly Springs, NC 27540|County: Wake|(919) 461-2363 (phone)|(919) 461-2363 (fax)|robert@radcliffelandscaping.com
Rain by Design, Inc.|C-254|Mr. Douglas Patrick Washburn|Rain by Design, Inc.|P.O. Box 4314|Chapel Hill, NC 27515-4314|County: Orange, Chatham, Durham|(919) 218-0011 (phone)
Rain Dance Irrigation of Lake Norman, Inc.|C-761|Mr. Peter William Bowen|Rain Dance Irrigation of Lake Norman, Inc.|307 Windemere Isle Road|Statesville, NC 28677|County: Mecklenburg|(704) 508-1964 (phone)|(704) 508-1964 (fax)|pete.bowen@gerdau.com
Rainmaker Irrigation Company of Charlotte|C-266|Mr. Dean P. Byrne|Rainmaker Irrigation Company of Charlotte|10417 Callicutt Spring Court|Huntersville, NC 28078|County: Mecklenburg|(704) 896-6200 (phone)|(704) 896-6666 (fax)|Rainmakernc@gmail.com
Rainmaker Irrigation, Inc.|C-341|Mr. Clifton V. Lewis|Rainmaker Irrigation, Inc.|907 WB McLean Boulevard|Cape Carteret, NC 28584|County: Carteret, Craven, Onslow|(252) 393-9008 (phone)|(252) 393-9008 (fax)|h2orainmaker@gmail.com|www.rainmaker-irrigation.net
Rainwagon Irrigation, Inc.|C-207|Mr. Jeffrey Michael Warner|Rainwagon Irrigation, Inc.|P.O. Box 7146|Charlotte, NC 28241-7146|County: Mecklenburg|(704) 542-0175 (phone)|(803) 222-0339 (fax)
Rainy Days Irrigation, Inc.|C-003|Mr. David Gregory Williams|Rainy Days Irrigation, Inc.|115 Sigma Drive|Garner, NC 27529|County: Wake, Johnston, Durham|(919) 779-9285 (phone)|(919) 779-1425 (fax)|dwilliams@rainydaysirrigation.com
Raymond's Garden Center, LLC|C-437|Mr. Eric James Raymond|Raymond's Garden Center, LLC|1320 Kanuga Road|Hendersonville, NC 28739|County: Henderson|(828) 696-8000 (phone)|raymondsgc@bellsouth.net
RDS Lawn & Landscaping, Inc.|C-661|Mr. Aaron Wyatt Suttenfield|RDS Lawn & Landscaping, Inc.|P.O. Box 71|Mount Holly, NC 28120|County: Gaston, Mecklenburg, Lincoln|(704) 822-1625 (phone)|(704) 323-7977 (fax)|aaron@rdslawncare.com|www.rdslawncare.com
Red Mill Landscape and Nursery, Inc.|C-006|Mr. William Henry Sparrow|Red Mill Landscape and Nursery, Inc.|4517 Red Mill Road|Durham, NC 27704|County: Durham|(919) 477-8676 (phone)|(919) 477-9780 (fax)|bsparrowjr@msn.com
RedTree Landscape Design, Inc.|C-454|Mr. Jeffrey P. Rounds|RedTree Landscape Design, Inc.|11136 Ridge Oak Drive|Charlotte, NC 28273|County: Mecklenburg|(803) 547-0385 (phone)|(704) 631-4952 (fax)|jeff@redtreelandscape.com|www.redtreelandscape.com
Reed Landscape Irrigation, LLC|C-110|Mr. John C. Reed|Reed Landscape Irrigation, LLC|2141 Perrytown Loop Road|New Bern, NC 28562|County: Craven|(252) 637-2439 (phone)|(252) 637-2439 (fax)|reedlandscape@gmail.com
Reems Creek Nursery, Inc.|C-581|Mr. David Charles Penland|Reems Creek Nursery, Inc.|P.O. Box 87|Weaverville, NC 28787|County: Buncombe|(828) 645-3937 (phone)|(828) 645-2533 (fax)|landscaping@reemscreek.com
Regal Landscapes, LLC|C-682|Mr. Jacob Wayne Moore|Regal Landscapes, LLC|2018 Connonade Dr|Waxhaw, NC 28173|County: Mecklenburg|(704) 763-9300 (phone)|(704) 586-0601 (fax)|jacob_moore8@me.com
Reitzel Irrigation, Inc.|C-030|Mr. Christopher Mark Reitzel|Reitzel Irrigation, Inc.|6370 Crayton Rd.|Mt. Pleasant, NC 28124-9148|County: Mecklenburg, Cabarrus, Iredell|(704) 361-2026 (phone)|irrigator@reitzelirrigation.com|www.reitzelirrigation.com
Reitzel Landscape Services, LLC|C-683|Mr. Raymond  Reitzel|Reitzel Landscape Services, LLC|P.O. Box 19892|Charlotte, NC 28219|County: Mecklenburg|(704) 523-8282 (phone)|(704) 523-5656 (fax)|reitzellandscape@att.net
Renn & Renn Construction Co., Inc.|C-438|Ms. Brenda S. Renn|Renn & Renn Construction Co., Inc.|190 Carousel Lane|Stokesdale, NC 27357|County: Guilford, Rockingham|(336) 644-0767 (phone)|bsrenn@gmail.com
Revis Grounds Maintenance|C-523|Mr. James Matthew Revis|Revis Grounds Maintenance|141 Felmet Drive|Flat Rock, NC 28731|County: Henderson|(828) 692-1688 (phone)|(828) 692-1688 (fax)|revisgm@bellsouth.net
Right Way Irrigation, LLC|C-765|Mr. Charles Ryan Cox|Right Way Irrigation, LLC|69 Country Club Drive|Shallotte, NC 28470|County: Brunswick|(910) 599-3251 (phone)
Riverside Partners of North Carolina, Inc.|C-069|Mr. Kelley  Shank|Riverside Partners of North Carolina, Inc.|7411 River Circle|Charlotte, NC 28216|County: Mecklenburg|(704) 400-2712 (phone)|(704) 817-9656 (fax)|kelleyshank@yahoo.com
Rivertop Contracting, Inc.|C-730|Mr. Robert A. Atema|Rivertop Contracting, Inc.|2553 US Hwy 70|Swannanoa, NC 28778|County: Buncombe|(828) 686-7696 (phone)|(828) 686-0788 (fax)|rob@rivertopcontracting.com|www.rivertopcontracting.com
Robert Stanley Landscaping Co., Inc.|C-048|Mr. Robert Dean Stanley|Robert Stanley Landscaping Co., Inc.|409 Sundial Ct.|Wilmington, NC 28405|County: New Hanover|(910) 392-1842 (phone)|(910) 392-1842 (fax)
Rockwater Well and Pump Service, LLC|C-763|Mr. Michael Avlyn Brook|Rockwater Well and Pump Service, LLC|6793 Kidville Road|Denver, NC 28037|(704) 240-2290 (phone)|rockwater6@gmail.com|www.rockwaterwell.com
Rodgers Landscape Services, Inc.|C-022|Mr. Michael Todd Rodgers|Rodgers Landscape Services, Inc.|5105 Herez Place|Fuquay Varina, NC 27526|County: Wake, Orange, Johnson|(919) 557-3565 (phone)|(919) 557-3565 (fax)|rlsmike@nc.rr.com|www.rodgerslandscapeinc.com
Roebuck Wholesale Nursery & Landscaping, Inc.|C-482|Mr. Joshua O. McMillan|Roebuck Wholesale Nursery & Landscaping, Inc.|P.O. Box 1053|Roebuck, SC 29376|County: Polk, Henderson, Rutherford|(864) 576-0875 (phone)|(864) 574-4477 (fax)|rwnl@roebuckwholesalenursery.com
Rouse & Associates, Inc.|C-257|Mr. William Carlton Rouse|Rouse & Associates, Inc.|P.O. Box 550400|Gastonia, NC 28055|County: Gaston|(704) 823-7400 (phone)|(704) 861-1787 (fax)|crouse@carolina.rr.com
Royal Landscape Service, Inc.|C-516|Mr. Tom  Miller|Royal Landscape Service, Inc.|1516 Garrett Rd.|Indian Trail, NC 28079|County: Union, Mecklenburg, Cabarrus|(704) 753-5100 (phone)|(704) 753-5133 (fax)|amanda@royallandscapeservice.com
RTM Landscapes, Inc.|C-636|Mr. Russell Thomas Marini|RTM Landscapes, Inc.|8817 Sawmill Creek Lane|Wilmington, NC 28411|County: New Hanover, Pender, Brunswick|(910) 686-3648 (phone)|rtmlandscapesinc@gmail.com
Ruppert Landscape, Inc.|C-669|Mr. Christopher  Davitt|Ruppert Landscape, Inc.|3801 Centurion Drive|Garner, NC 27529|County: Wake|(919) 596-0047 (phone)|(919) 596-0086 (fax)|www.ruppertlandscape.com
S & A Landscaping and Property Services, Inc.|C-633|Mr. Scott  Attaway|S & A Landscaping and Property Services, Inc.|2320 Madison Green Drive|Gastonia, NC 28054|County: Gaston, Mecklenburg, Cleveland|(704) 860-1660 (phone)|(704) 860-1660 (fax)|salandscaping@gmail.com|www.sandalandscapingnc.com
S & R Enterprises, LLC of the Carolinas|C-623|Mr. Scott Randall Hurdle|S & R Enterprises, LLC of the Carolinas|P.O. Box 569|Welcome, NC 27374|County: Davidson|(336) 245-8802 (phone)|(336) 245-8684 (fax)|scottsrenterprises@gmail.com|www.ncseeding.com
Safrit Landscape Construction Company, Inc.|C-258|Mr. John B. Safrit|Safrit Landscape Construction Company, Inc.|213 Statesville Blvd.|Salisbury, NC 28144|County: Rowan|(704) 636-9340 (phone)|(704) 639-1644 (fax)|safland@bellsouth.net|www.safritlandscapeconstruction.com
Saintsing Irrigation & Landscaping|C-464|Mr. John Gordon Saintsing|Saintsing Irrigation & Landscaping|P.O. Box 815|Linwood , NC 27299|County: Davidson, Rowan, Mecklenburg|(336) 956-1125 (phone)|(336) 956-1647 (fax)|john@irrigation-landscaping.com
Sandy Run Landscaping, Inc.|C-143|Mr. Troy W. Leviner|Sandy Run Landscaping, Inc.|3230 Graysville Lane|Fayetteville, NC 28306|County: Cumberland, Hoke|(910) 484-8482 (phone)|(910) 484-3024 (fax)|sandyrunlandscaping@msn.com
Sanford Turf and Irrigation, Inc.|C-517|Mr. Daniel Christopher Baker|Sanford Turf and Irrigation, Inc.|3280 Cox Mill Road|Sanford, NC 27332|County: Lee, Harnett, Chatham|(919) 258-6675 (phone)|(919) 258-0236 (fax)|daniel.baker@sanfordturfandirrigation.com|www.sanfordturfandirrigation.com
Scott Contracting, LLC|C-426|Mr. Jeremy Lyn Scott|Scott Contracting, LLC|1612 Whispering Meadows Drive|Zebulon, NC 27597|County: Wake, Johnston, Durham|(919) 998-8189 (phone)|(919) 269-3015 (fax)|jeremy.scott@nc.rr.com
SeaCoast Landscaping, LLC|C-375|Mr. David Elliot Young|SeaCoast Landscaping, LLC|100 B Old Eastwood Rd., Suite 34|Wilmington , NC 28403|County: New Hanover|(910) 392-3353 (phone)|(910) 392-3353 (fax)|david7young@gmail.com
Seaside Lawn Care, Inc.|C-630|Mr. Byron Lee Powell|Seaside Lawn Care, Inc.|137 NW 10th Street|Oak Island, NC 28465|County: Brunswick|(910) 540-5222 (phone)|seasidelawn@yahoo.com
Second Nature Landscaping and Irrigation, Inc.|C-284|Mr. Timothy  Streeter|Second Nature Landscaping and Irrigation, Inc.|1775 West Williams Street, PMB#101|Apex, NC 27523|County: Wake, Chatham|(919) 625-3498 (phone)|secondnature08@yahoo.com
Seneca Landscapes, Inc.|C-600|Mr. Andrew James VanVlack|Seneca Landscapes, Inc.|360 Barn Hill Lane|Wake Forest, NC 27587|County: Wake, Franklin|(919) 570-6163 (phone)|(919) 570-6121 (fax)|andrew@senecalandscapes.com
Sequoia Landscaping, Inc.|C-662|Mr. Richard E. Lee|Sequoia Landscaping, Inc.|P.O. Box 1635|Clayton, NC 27528|County: Johnston, Wake|(919) 553-8513 (phone)|(919) 550-2978 (fax)|richardlee@embarqmail.com|www.sequoialandscaping.net
SGS Landscape Consultants, LLC|C-663|Mr. Charles Michael Green|SGS Landscape Consultants, LLC|4275 Creek Park Drive, Suite 100|Suwanee, GA 30024|County: Gwinnett, Cobb, Fulton|(770) 888-4420 (phone)|(770) 888-6267 (fax)|mgreen@sgslandscape.com|http://www.sgslandscape.com
Shadetree Irrigation & Landscape, Inc.|C-167|Mr. Joseph Kirk Ashworth|Shadetree Irrigation & Landscape, Inc.|3016 Hwy. 42|Willow Spring, NC 27592|County: Wake|(919) 796-3658 (phone)|(919) 552-5054 (fax)|Shdtree2002@aol.com
Shamrock Landscaping, Inc.|C-062|Mr. Kenneth Gene Starnes|Shamrock Landscaping, Inc.|P.O. Box 892|Fort Mill, SC 29716|County: York|(803) 548-4283 (phone)|(803) 548-2152 (fax)|kens@shamrockland.com
Sharon K. Hopper Fine Gardening, Inc.|C-210|Ms. Sharon K. Hopper|Sharon K. Hopper Fine Gardening, Inc.|P.O. Box 438|Stokesdale, NC 27357|County: Guilford, Forsyth, Rockingham|(336) 643-7879 (phone)|(336) 643-6847 (fax)|chanda@skhfinegardening.biz
Sharp Edge Lawn Care & Management, LLC|C-204|Mr. Jason L. Carter|Sharp Edge Lawn Care & Management, LLC|741 Spainhour Road|King, NC 27021|County: Stokes, Forsyth, Surry|(336) 985-0935 (phone)|(336) 983-8218 (fax)|office@sharpedgelawncare.com|www.sharpedgelawncare.com
Shelby Nursery, Inc.|C-538|Mr. Scott  Warrick|Shelby Nursery, Inc.|108 Berry Drive|Shelby, NC 28150|County: Cleveland|(704) 471-1000 (phone)|(704) 484-6914 (fax)|scottree@msn.com
Shepherd's Landscape Maintenance, LLC|C-439|Mr. Bonnie Garmon Richardson|Shepherd's Landscape Maintenance, LLC|P.O. Box 681448|Charlotte, NC 28216|County: Mecklenburg, Cabarrus, Union|(704) 820-3022 (phone)|(704) 820-3076 (fax)|shepherdslm@aol.com
Shiloh Landscaping, Inc.|C-236|Mr. Christopher W. Campbell|Shiloh Landscaping, Inc.|157 Jane Sowers Rd.|Statesville, NC 28625|County: Iredell, Mecklenburg, Catawba|(704) 880-1445 (phone)|(704) 876-8718 (fax)|shilohlandscapingnc@gmail.com
Shoemaker Landscape Design & Care, LLC|C-664|Mr. Gary  Shoemaker|Shoemaker Landscape Design & Care, LLC|P.O. Box 1038|Hudson, NC 28638|County: Caldwell, Burke, Catawba, Wilkes|(828) 234-2516 (phone)|None (fax)|tandgman@earthlink.net
Shurburtt Group, Inc.|C-490|Mr. Greg D. Shurburtt|Shurburtt Group, Inc.|P.O. Box 5121|Spartanburg, SC 29304|County: Mecklenburg|(864) 541-0700 (phone)|(864) 541-0707 (fax)|gregs@shurburtt.com|www.shurburtt.com
Simply Better Landscaping|C-747|Mr. Joel Bradley Barker|Simply Better Landscaping|5732 Mundy Road|Denver, NC 28037|(704) 506-5308 (phone)|simply.better@hotmail.com
Sisk Landscaping Company, Inc.|C-565|Mr. Steve  Sisk|Sisk Landscaping Company, Inc.|3710 Brookwood Rd.|Charlotte, NC 28215|County: Mecklenburg|(704) 400-7466 (phone)|sisklandscape@bellsouth.net
Skyline Design & Landscape, LLC|C-073|Ms. Tina M. Simmons|Skyline Design & Landscape, LLC|14039 Hwy 74 E. Suite A6-231|Indian Trail, NC 28079|County: Union, Mecklenburg|(704) 882-5550 (phone)|(704) 882-5015 (fax)|tsimmons@visitskylinedesign.com|www.visitskylinedesign.com
Slade Landscaping, Inc.|C-332|Mr. Eric  Slade|Slade Landscaping, Inc.|380 Mill Creek Lane|Bath, NC 27808|County: Beaufort|(252) 923-2566 (phone)|(252) 964-3144 (fax)|ericislade@gotricounty.com
Smith Grounds Management, LLC|C-276|Mr. J. P. Smith|Smith Grounds Management, LLC|P.O. Box 2134|Matthews, NC 28106|County: Mecklenburg|(704) 821-4066 (phone)|(704) 821-9015 (fax)|chips@smithgrounds.com
Smith Landscaping, Inc.|C-086|Mr. Nathan Ward Smith|Smith Landscaping, Inc.|5419 Friendly Baptist Church Rd.|Indian Trail, NC 28079|County: Union, Mecklenburg, Cabarrus|(704) 753-4247 (phone)|nsmithsli87@gmail.com
SmithCo Landscaping, Inc.|C-731|Mr. George J. Smith|SmithCo Landscaping, Inc.|P.O. Box 5043|Kinston, NC 28503|County: Lenoir|(252) 559-1412 (phone)|smithco@suddenlinkmail.com
Snow Creek Landscaping, LLC|C-383|Mr. Timothy John Boone|Snow Creek Landscaping, LLC|226 Clayton Road|Arden, NC 28704|County: Buncombe, Henderson, Transylvania|(828) 687-1677 (phone)|(828) 687-1667 (fax)|info@snowcreekinc.com|www.snowcreekinc.com
Snow's Landscaping & Lawncare, Inc.|C-211|Mr. Frank Cain Snow|Snow's Landscaping & Lawncare, Inc.|P.O. Box 1448|Fayetteville, NC 28302|County: Cumberland|(910) 483-3236 (phone)|(910) 486-9125 (fax)|snowslandscape00@aol.com
South Strand Landscaping, Inc.|C-573|Mr. James R. Horton|South Strand Landscaping, Inc.|P.O. Box 2522|Pawleys Island, SC 29585|County: Georgetown, Horry|(843) 237-3971 (phone)|(843) 235-9069 (fax)|office@southstrandlandscape.com
Southeastern Pump and Well Service, Inc.|C-748|Mr. Ronald E. Keeter|Southeastern Pump and Well Service, Inc.|121 North Marshall|Shawboro, NC 27973-9737|County: Onslow, Currituck, Moyock, Outer Banks|(757) 681-7286 (phone)|southeasternwell@yahoo.com
Southern Garden, Inc.|C-034|Ms. Connie  Joyce|Southern Garden, Inc.|P.O. Box 808|Apex, NC 27502|County: Wake, Durham, Orange|(919) 362-1050 (phone)|(919) 363-9222 (fax)|info@southerngardeninc.com
Southern Landscape Professionals, Inc.|C-043|Mr. William J. Adams|Southern Landscape Professionals, Inc.|8615 Mount Pleasant Church Road|Willow Spring, NC 27592|County: Wake, Harnett, Johnson|(919) 552-1156 (phone)|(919) 552-5944 (fax)|bill@southernlandscapepros.com|www.southernlandscapepros.com
Southern Landscapes Incorporated|C-038|Mr. T. Reid Pell|Southern Landscapes Incorporated|626 Breeze Hill Road|Asheboro, NC 27203|County: Randolph, Guilford, Forsyth|(336) 625-6886 (phone)|(336) 625-6885 (fax)|trpsouthland@aol.com
Southern Lawnscapes of Hickory, LLC|C-746|Mr. Daniel Richard Schwandt|Southern Lawnscapes of Hickory, LLC|550 32nd Avenue Dr. NW|Hickory, NC 28601|County: Catawba|(828) 308-0739 (phone)|danny@southern-lawn.com|www.southern-lawn.com
Southern Pointe Landscapes, LLC|C-732|Mr. Paul O. Jones|Southern Pointe Landscapes, LLC|22 Amber Ct.|Hampstead, NC 28443|County: Pender, Brunswick, New Hanover|(910) 443-7584 (phone)|(866) 475-2589 (fax)|southernpointe@bellsouth.net
Southern Shade Tree Co Inc|C-493|Mr. Roger S. Braswell|Southern Shade Tree Co Inc|P.O. Box 309|Pineville, NC 28134|County: Mecklenburg|(704) 962-3448 (phone)|(704) 962-3451 (fax)|rbraswell@cpiequipment.com
Southern Showplace Landscapes|C-164|Mr. Barry Dale Fisher|Southern Showplace Landscapes|5177 Shoreview Drive|Concord, NC 28025|County: Cabarrus, Mecklenburg|(704) 699-0815 (phone)|bjfisher@southernshowplace.com
Southern Touch Lawn & Landscape, LLC|C-579|Mr. Daniel J. Williams|Southern Touch Lawn & Landscape, LLC|1940 County Line Road|Angier, NC 27501|County: Wake, Johnston, Cumberland|(910) 891-2565 (phone)|(910) 891-2575 (fax)|southerntouchlandscaping@gmail.com|southerntouchlandscape.com
Southernscapes, Inc.|C-441|Mr. Roy  Roper|Southernscapes, Inc.|309 S. Rogers Lane|Raleigh, NC 27610|County: Wake|(919) 231-0099 (phone)|(919) 231-0099 (fax)|rroper@southernscapes.net
SouthLake Landscape, Inc.|C-442|Mr. Scott Craig Barkley|SouthLake Landscape, Inc.|169 Byway Lane|Olin, NC 28660|County: Iredell/Catawba/Lincoln|(704) 622-9502 (phone)|(704) 539-4966 (fax)|southlake_landscape@msn.com
Southscape Landscaping & Irrigation, LLC|C-783|Mr. John Ray Hamilton|Southscape Landscaping & Irrigation, LLC|P.O. Box 802|Carthage, NC 28327|(910) 947-6661 (phone)|(910) 947-6663 (fax)|Southscape@centurylink.net
Southscape Landscaping, LLC|C-241|Mr. Sean A. Stanley|Southscape Landscaping, LLC|11801 Ramah Church Rd.|Huntersville, NC 28078|County: Mecklenburg|(704) 947-1303 (phone)|(704) 973-0820 (fax)|sean@southscapelandscaping.com
Sprinkler Solutions, Inc.|C-509|Mr. David J. Youssi|Sprinkler Solutions, Inc.|25 Trammell Street|Marietta, GA 30064|County: Cherokee, Mecklenburg|(404) 787-7165 (phone)|(770) 591-9549 (fax)|davidyoussi@gmail.com
Steve Britt Lawn Care, LLC|C-323|Mr. Steven Mark Britt|Steve Britt Lawn Care, LLC|711 Beulah Church Road|Lumberton, NC 28358|County: Robeson|(910) 740-7673 (phone)|(910)671-2255 (fax)|sbritt002@nc.rr.com
Steve Dejewski Landscape Contractors|C-703|Mr. Steve  Dejewski|Steve Dejewski Landscape Contractors|903 Cheryl Lane|Wilmington, NC 28405|County: New Hanover, Brunswick, Pender|(910) 452-7036 (phone)|(910) 452-7036 (fax)|sdejewski@ec.rr.com
Stoneledge Landscapes, PLLC|C-462|Mr. Kurt D. Mattocks|Stoneledge Landscapes, PLLC|1280 Green Level Rd.|Apex, NC 27523|County: Wake, Chatham, Durham|(919) 303-5958 (phone)|(919) 387-9718 (fax)|stoneledgelandscapes@juno.com
Stowe, Inc.|C-094|Mr. Barry W. Stowe|Stowe, Inc.|231 John Logan Lane|Gastonia, NC 28056|County: Gaston|(704) 824-2030 (phone)|(704) 824-2030 (fax)|cstowe@bellsouth.net
Sullivan Irrigation|C-539|Mr. Christopher W. Sullivan|Sullivan Irrigation|5868 Friendship Lane|Myrtle Beach, SC 29588|County: Horry, Georgetown, Charleston|(843) 215-6532 (phone)|(843) 215-4501 (fax)|irrigate@sc.rr.com|www.sullivanirrigationsc.com
Sunshine Lawn Care, Inc.|C-237|Mr. Kenneth Eugene Suggs|Sunshine Lawn Care, Inc.|155 Old Stevens Rd.|Holly Ridge, NC 28445|County: Onslow, Pender, New Hanover|(910) 329-0003 (phone)|(910) 329-0003 (fax)|sunshinelandscapes@gmail.com
SunTree Landscaping, Inc.|C-051|Mr. David Britt Cashwell|SunTree Landscaping, Inc.|2103 Angelia M. Street|Fayetteville, NC 28312|County: Cumberland|(910) 486-0898 (phone)|(910) 485-8525 (fax)|davidsuntree@embarqmail.com
Super-Scapes, Inc.|C-443|Mr. Bobby Dane Milligan|Super-Scapes, Inc.|5131 Oleander Drive|Wilmington, NC 28403|County: Brunswick, New Hanover|(910) 859-7311 (phone)|(910) 859-7311 (fax)|superscapes@atmc.net
Sutton's Irrigation and Repair, LLC|C-749|Mr. James W. Sutton|Sutton's Irrigation and Repair, LLC|3998 Bonnie Walters Road|LaGrange, NC 28551|(919) 738-5426 (phone)|jwsutton@lagrangenc.com
Sweetwater Landscapes, LLC  |C-457|Mr. Fred  Bessette|Sweetwater Landscapes, LLC|2807 Hwy 751|Apex, NC 27523|County: Wake, Durham, Chatham|(919) 387-7103 (phone)|fred@sweetwaternc.com|www.sweetwaternc.com
Tadpole Irrigation, Inc.|C-684|Mr. Tad E. Telarico|Tadpole Irrigation, Inc.|10205 Edwards Place|Mint Hill, NC 28227|County: Mecklenburg|(980) 333-3157 (phone)|tad@tadpoleirrigation.com|www.tadpoleirrigation.com
Tanglewood Landscape, LLC|C-750|Mr. Howard Keith Millikan|Tanglewood Landscape, LLC|3 Cameron Lane|Pinehurst, NC 28374|(910) 603-2116 (phone)|(910) 295-9605 (fax)|tanglewoodlandscape@gmail.com
Tar Heel Landscape Enterprises, Inc.|C-342|Mr. Ivan Scott Washburn|Tar Heel Landscape Enterprises, Inc.|8453 Ebenezer Church Road|Raleigh, NC 27617|County: Wake|(919) 787-2940 (phone)|(919) 787-8678 (fax)|ivan@tarheellandscape.com
Tarheel Design of Gastonia, Inc.|C-510|Mr. Tim David Jones|Tarheel Design of Gastonia, Inc.|3481 Fieldstone Drive|Gastonia, NC 28056|County: Gaston, Mecklenburg|(704) 852-9409 (phone)|(704) 852-9409 (fax)|tarheeldtim@aol.com
Tarheel Landscape Company, Inc.|C-282|Mr. Anthony Todd Gideon|Tarheel Landscape Company, Inc.|P.O. Box 2273|Surf City, NC 28445|County: Pender, Brunswick, Onslow|(910) 328-4244 (phone)|gideonl@bellsouth.net
Taylor Lawn Care, Inc.|C-733|Mr. Adam Gregory Taylor|Taylor Lawn Care, Inc.|PO Box 4679|Mooresville, NC 28117|County: Mecklenburg, Rowan, Iredell|704-213-9974 (phone)|704-326-5082 (fax)|adam@taylorlawncareinc.com|www.taylorlawncareinc.com
Taylor's Landscaping Service, Inc.|C-281|Mr. Jason  Taylor|Taylor's Landscaping Service, Inc.|3302 Hwy 218 East|Monroe, NC 28110|County: Union, Mecklenburg, Stanley|(704) 320-5735 (phone)|(704) 275-4151 (fax)|jtaylor002@carolina.rr.com
TaylorMade Irrigation Services, Inc.|C-734|Mr. Craig Michael Taylor|TaylorMade Irrigation Services, Inc.|145 Christopher Drive|Clayton, NC 27520|County: Wake, Johnston|(919) 291-7373 (phone)|taylor.craig5246@yahoo.com|www.taylormadeirrigationservices.com
Terminix Service, Inc./TSI Irrigation|C-059|Mr. Samuel J. Foust|Terminix Service, Inc./TSI Irrigation|105 A Center Lane|Huntersville, NC 28078|County: Mecklenburg, Union, Iredell|(704) 659-2290 (phone)|(704) 948-2840 (fax)|sfoust@trustterminix.com
Terra Green Landscapes, Inc.|C-568|Mr. Peter Charles Faust|Terra Green Landscapes, Inc.|1081 Ivey Cline Road|Concord, NC 28027|County: Cabarrus|(704) 795-3167 (phone)|NONE (fax)|pjfaust@terragreenlandscapes.com
Tesh-Troxler Landscapes & Designs, Inc.|C-444|Mr. Phillip Gary Tesh|Tesh-Troxler Landscapes & Designs, Inc.|3130 Heglar Road|Concord, NC 28025|County: Cabarrus|(704) 782-2277 (phone)|(704) 792-9774 (fax)|tnt1986@teshtroxler.com
The Brickman Group, Ltd.,  LLC|C-021|Mr. Robert Vander Sykes|The Brickman Group, Ltd.,  LLC|110 B Pheasant Wood Court|Raleigh, NC 27560|County: Durham, Wake|(919) 469-0002 (phone)|(919) 469-4677 (fax)|www.brickmangroup.com/contact
The Budd Group|C-056|Mr. Randy Wayne Boyer|The Budd Group|P.O. Box 25128|Winston-Salem, NC 27114|County: Forsyth, Davie, Guilford|(336) 765-7690 (phone)|(336) 768-1623 (fax)|www.buddgroup.com
The Byrd's Group, Inc.|C-228|Mr. Bobby L. Byrd|The Byrd's Group, Inc.|P.O. Box 44130|Charlotte, NC 28215|County: Mecklenburg|(704) 596-7748 (phone)|(704) 596-1437 (fax)|blbyrd@byrdsgroup.com
The Cutting Edge Maintenance Co., Inc.|C-224|Mr. John Lussier Thompson|The Cutting Edge Maintenance Co., Inc.|P.O. Box 11521|Southport, NC 28461|County: Brunswick|(910) 454-9978 (phone)|(910) 454-9764 (fax)|jlthompson@ec.rr.com|www.thecuttingedgenc.net
The Earthscape Company, Inc.|C-117|Mr. Ryan S. Pope|The Earthscape Company, Inc.|P.O. Box 1021|Harrisburg, NC 28075|County: Cabarrus, Mecklenburg, Union|(704) 791-7076 (phone)|(704) 436-6464 (fax)|rpope@theearthscapecompany.com
The Falzone's Potting Shed, LLC|C-751|Mr. Alan M. Falzone|The Falzone's Potting Shed, LLC|279 Snyder Lane|Mills River, NC 28759|County: Henderson, Buncombe, Transylvania|(828) 684-8050 (phone)|alan.tpslandscaping@gmail.com|www.tpslandscaping.com
The Green Advantage, LLC|C-272|Mr. Adam  Yount|The Green Advantage, LLC|410 Icard Ridge Road Ext.|Granite Falls, NC 28630|County: Caldwell|(828) 495-7100 (phone)|thegreenadvantagellc@gmail.com
The Greens' Keeper, Inc.|C-041|Mr. William S. Roberts|The Greens' Keeper, Inc.|3825 South New Hope Road|Gastonia, NC 28056|County: Gaston|(704) 824-0085 (phone)|(704) 824-8351 (fax)|tgkeeper@bellsouth.net
The Grounds Guys of Greenville, NC|C-711|Mr. Brent Everett Creech|The Grounds Guys of Greenville, NC|2140 Ivy Rd.|Greenville, NC 27858|County: Pitt|(252) 531-4741 (phone)|creechslandscaping@yahoo.com|greenville.groundsguys.com
The Metrolina Landscape Company|C-540|Mr. Jack  Smith|The Metrolina Landscape Company|P.O. Box 669003|Charlotte, NC 28266|County: Mecklenburg, Cabarrus, Union|(704) 392-9501 (phone)|(704) 394-1405 (fax)|jsmith@themetrolinalandscape.com|www.metrolinalandscape.com
The Morgan Landscape Group, Inc.|C-309|Mr. Mark A. Morgan|The Morgan Landscape Group, Inc.|5127 Sandy Porter Road|Charlotte, NC 28273|County: Mecklenburg|(704) 588-2292 (phone)|(704) 588-1998 (fax)|markmorgan@morganlandscapegroup.com
The Southern Landscape Group|C-214|Mr. Billy  Gray|The Southern Landscape Group|P.O. Box 3089|Pinehurst, NC 28374|County: Moore|(910) 944-2361 (phone)|(910) 944-2366 (fax)|bgray@tslg.org
The Tree Trap, Inc.|C-483|Ms. Peggy  Neal|The Tree Trap, Inc.|P.O. Box 2693|Rock Hill, SC 29732|County: York, Mecklenburg, Newberry|(803) 327-6940 (phone)|(803) 327-6840 (fax)|peggy.neal@treetrap.com
The Whole Blooming Landscape|C-175|Ms. Jill  Risberg|The Whole Blooming Landscape|115 West 31st Street, Studio A|Charlotte, NC 28206|County: Mecklenburg|(704) 201-0569 (phone)|(704) 347-4547 (fax)|wholeblooming@aol.com
Thomas Brothers Nursery & Landscaping Co., Inc.|C-484|Mr. James Larry Thomas|Thomas Brothers Nursery & Landscaping Co., Inc.|5104 Old Augusta Road|Greenville, SC 29605|County: Pitt|(864) 299-3789 (phone)|(864) 299-5191 (fax)|thomasbros@tbnl.net
Thompson Nursery, Inc.|C-217|Mr. Ferrin Ward Terrill|Thompson Nursery, Inc.|P.O. Box 4128|Rocky Mount, NC 27803|County: Nash, Halifax, Wilson|(252) 446-5762 ext 22 (phone)|(252) 446-5464 (fax)|wterrill@thompsonnurseryinc.com
TILS, LLC|C-023|Mr. Kenneth S. Stafford|TILS, LLC|1581 Brookford Industrial Drive|Kernersville, NC 27284|County: Forsyth|(336) 992-6480 (phone)|ken@mytils.com
Tim Johnson Landscaping, Inc.|C-742|Mr. Timothy Allen Johnson|Tim Johnson Landscaping, Inc.|761 St. Cloud Dr.|Statesville, NC 28625|(704) 880-4802 (phone)|(704) 878-2419 (fax)|timjohnsonlandscaping@gmail.com|www.timjohnsonlandscaping.com
Timber Ridge Landscaping, LLC|C-370|Mr. William Richard Piercy|Timber Ridge Landscaping, LLC|1702 New House Road|Shelby, NC 28150|County: Cleveland, Gaston, Rutherfordton|(704) 434-6505 (phone)|lpiercy1976@gmail.com
TOC, Inc.|C-738|Mr. William Seth Mickle|TOC, Inc.|6631 Glenville Drive|Whitsett, NC 27377-9141|County: Guilford, Durham, Wake|(336) 430-4287 (phone)|(336) 382-5647 (fax)|sales@triadirrigation.com|www.triadoc.com  www.triadirrigation.com
Toms Creek Landscaping, Inc.|C-445|Mr. Brandon C. Vaughan|Toms Creek Landscaping, Inc.|6454 Old NC Hwy 49|Denton, NC 27239|County: Randolph, Guilford, Montgomery|(336) 857-2131 (phone)|(336) 857-2131 (fax)|brandon@tomscreeknursery.com
Trademark Landscape Contracting & Maint.|C-651|Mr. Tracy Dale Wheeler|Trademark Landscape Contracting & Maint.|1625 Poplar Branch Trail|Bolivia, NC 28422|County: Brunswick|910-253-0560 (phone)|910-253-0560 (fax)|trademark@atmc.net
Treeline Landscaping & Nursery, Inc.|C-446|Mr. J. Mark Lawson|Treeline Landscaping & Nursery, Inc.|7815 Athens Road|Stokesdale, NC 27357|County: Guilford|(336) 643-4827 (phone)|(336) 643-9903 (fax)|info@treelinelandscaping.com
Trew Backflow Testing and Irrigation, Inc.|C-735|Mr. Tim  Braswell|Trew Backflow Testing and Irrigation, Inc.|1531 Rains Crossroads Road|Princeton, NC 27569|County: Wake, Johnston, Durham|(919) 868-2814 (phone)|tlbraswell1@aol.com
Triad Turf Management, Inc.|C-491|Mr. Joel Dean Ward|Triad Turf Management, Inc.|P.O. Box 5007|Burlington, NC 27216|County: Alamance|336-226-5304 (phone)|jward3@triad.rr.com
Triangle Green Scene, Inc.|C-008|Mr. Erich Johnathan Kolb|Triangle Green Scene, Inc.|P.O. Box 91374|Raleigh, NC 27675|County: Wake, Johnston|(919) 784-9121 (phone)|(919) 784-9125 (fax)|erich@tgslandscape.com|www.tgslandscape.com
Tripl-C Landscaping, Inc.|C-026|Mr. W. Scott Crosby|Tripl-C Landscaping, Inc.|1616 London Court|Hickory, NC 28601|County: Catawba, Alexander, Caldwell|(828) 234-8191 (phone)|waterguy@charter.net
Triple G Landscaping, Inc.|C-665|Mr. David Brent Good|Triple G Landscaping, Inc.|PO Box 653|Huntersville, NC 28070|County: Mecklenburg|704-875-6631 (phone)|704-948-0013 (fax)|triple_g@bellsouth.net|www.tripleglandscaping.com
Tucker Landscaping, Inc.|C-313|Mr. James Alfred Tucker|Tucker Landscaping, Inc.|P.O. Box 324|Corolla, NC 27927|County: Currituck, Dare|(252) 202-9048 (phone)|(252) 261-7581 (fax)|jtuck@embarqmail.com
Turf Appeal Landscaping, LLC|C-685|Mr. Ray Vonn Tucker|Turf Appeal Landscaping, LLC|2389 Addison Blvd.|High Point, NC 27262|County: Guilford, Davidson, Randolph|(336) 841-8873 (phone)|(336) 841-8893 (fax)|turfappeal@northstate.net|turfappealnc.com
Turf One Landscape Management Group, LLC|C-128|Mr. O’Hara  Powell|Turf One Landscape Management Group, LLC|P.O. Box 91598|Raleigh, NC 27675|County: Wake|(919) 795-0918 (phone)|oneturf@yahoo.com|www.to-lc.com
Turf Service, Inc.|C-105|Mr. Raymond W. Comer|Turf Service, Inc.|126 Manley Avenue|Greensboro, NC 27407|County: Guilford|(336) 854-0737 (phone)|(336) 294-6551 (fax)|turfserviceinc@triadbiz.rr.com
Turfcare, Inc.|C-243|Mr. George Steven Fisher|Turfcare, Inc.|P.O. Box 25362|Charlotte, NC 28229|County: Mecklenburg|(704) 567-9040 (phone)|turfcareinc@aol.com
Turfscape Designs, LLC|C-133|Mr. Timothy Scott Ritter|Turfscape Designs, LLC|145 Blueberry Street|Pinebluff, NC 28373|County: Moore|(910) 281-4097 (phone)|danaritter@nc.rr.com
Turftenders Landscape Services, Inc.|C-102|Mr. Steve  Hill|Turftenders Landscape Services, Inc.|2610 Rowland Rd.|Raleigh, NC 27615|County: Wake, Warren, Durham|(919) 878-4441 (phone)|(919) 878-4489 (fax)|stevehill@mindspring.com
Two Rivers Outdoor Services, LLC|C-707|Mr. Thomas Owen McFadden|Two Rivers Outdoor Services, LLC|24 W. Woodrow Ave.|Belmont, NC 28012|County: Gaston|none (phone)|owen@tworiversoutdoor.com
U.S. Lawns of Greenville|C-529|Mr. William R. Freelove|U.S. Lawns of Greenville|2210 May Street|Greenville, NC 27834|County: Pitt|(252) 439-5296 (phone)|(252) 439-0329 (fax)|bill.freelove@uslawns.net
U.S. Lawns of North Charlotte|C-300|Mr. William F. Atwell|U.S. Lawns of North Charlotte|1235 Mooresville Road|Kannapolis, NC 28081|County: Cabarrus|(704) 932-3348 (phone)|(704) 932-3424 (fax)|william.atwell@uslawns.net
U.S. Lawns of Wilmington|C-640|Mr. Michael W. Esposito|U.S. Lawns of Wilmington|3515 Iris Street|Wilmington, NC 28409|County: New Hanover, Pender, Brunswick|(910) 395-4779 (phone)|(910) 395-4779 (fax)|mesposito@ec.rr.com|www.uslawns.com
Under Pressure Irrigation, LLC|C-179|Mr. Richard Scott Pindell|Under Pressure Irrigation, LLC|221 Tamworth Drive|Willow Spring, NC 27592|County: Wake, Chatham, Orange|(919) 291-5792 (phone)|(919) 661-9310 (fax)|scott@underpressureirrigation.com|www.underpressureirrigation.com
Union Grove Landscape Development, Inc.|C-240|Mr. Clancy C. Baucom|Union Grove Landscape Development, Inc.|5820 Lawyers Rd. East|Marshville, NC 28103|County: Union|(704) 233-0253 (phone)|(704) 233-0256 (fax)|trigger2346@yahoo.com
ValleyCrest Landscape Development, Inc.|C-686|Mr. Peter C. Hunn|ValleyCrest Landscape Development, Inc.|24151 Ventura Boulevard|Calabasas, CA 91302|County: Durham, Wake, Orange|(919) 235-5502 (phone)|(818) 225-6887 (fax)|phunn@valleycrest.com|www.valleycrest.com
ValleyCrest Landscape Maintenance, Inc.|C-321|Mr. Max  Walker|ValleyCrest Landscape Maintenance, Inc.|9801 South Tryon Street|Charlotte, NC 28273|County: Mecklenburg|(704) 504-0661 (phone)|(704) 504-9808 (fax)|mwalker@valleycrest.com
Vinson Landscaping, Inc.|C-542|Mr. Jason Lee Vinson|Vinson Landscaping, Inc.|4173 N. Browntown Road|Battleboro, NC 27809|County: Edgecombe, Nash|(252) 973-0730 (phone)|(252) 973-0730 (fax)|jason@vinsonlandscape.com|www.vinsonlandscape.com
W & W Services, Inc./Turf Pro Landscape, Inc.|C-230|Mr. William D. Eckard|W & W Services, Inc./Turf Pro Landscape, Inc.|P.O. Box 11244|Hickory, NC 28603|County: Catawba|(828) 256-8260 (phone)|(828) 464-2771 (fax)|info@turfprolandscape.com
WAC Corporation of Greenville, NC|C-027|Mr. Corey  Handley|WAC Corporation of Greenville, NC|P.O. Box 2312|Greenville, NC 27858|County: Pitt|(252) 757-0187 (phone)|(252) 757-0188 (fax)|info@waclandscape.com
Wakefield Nursery & Landscaping, Inc.|C-107|Mr. Tommy  Massey|Wakefield Nursery & Landscaping, Inc.|9232 Dukes Lake Road|Zebulon, NC 27597|County: Wake|(919) 269-4301 (phone)|(919) 269-4302 (fax)|wakefieldnursery@bellsouth.net
Wall2Wall Consulting Services, LLC|C-619|Mr. Steve Alan Wall|Wall2Wall Consulting Services, LLC|7429 Mallard Creek Road|Charlotte, NC 28262|County: Mecklenburg|(980) 216-9509 (phone)|wall2wallconsultingservices@yahoo.com
Walston's Landscaping, Inc.|C-736|Mr. Gregory W. Walston|Walston's Landscaping, Inc.|1524 Morphus Bridge Rd.|Wendell, NC 27591|County: Wake, Harnett, Durham|(919) 366-0241 (phone)|greg@walstonslandscaping.com|www.walstonslandscaping.com
Ward's Lawn Specialist, Inc.|C-704|Mr. Chad Lee Ward|Ward's Lawn Specialist, Inc.|1066 Boulder Road|Greensboro, NC 27409|County: Guilford|(336) 855-1106 (phone)|(336) 855-8222 (fax)|wlschad@triad.twcbc.com
Water Saver Irrigation, Inc.|C-080|Mr. Douglas Michael Viele|Water Saver Irrigation, Inc.|409 Chase Oaks Court|Waxhaw, NC 28173|County: Union, Mecklenburg, Cabaruss|(704) 361-5024 (phone)|(704) 256-3439 (fax)|dviele@carolina.rr.com|www.watersaverirrigation.com
Water Works Irrigation Company of Charlotte, Inc.|C-384|Mr. Timothy S. Von Der Embse|Water Works Irrigation Company of Charlotte, Inc.|P.O. Box 12454|Charlotte, NC 28220|County: Mecklenburg|(704) 523-7320 (phone)|(704) 523-5774 (fax)|wwitim@att.net
Water Works Irrigation, Inc.|C-093|Mr. Steve  Letchworth|Water Works Irrigation, Inc.|106 Bryanwood Drive|Goldsboro, NC 27534|County: Wayne, Wake, Johnston|(919) 778-1737 (phone)|(919) 778-1737 (fax)|sletchworth@msn.com
Water Works Unlimited, Inc.|C-458|Mr. Edward  Mutio|Water Works Unlimited, Inc.|7524 Tynewind Drive|Wake Forest, NC 27587|County: Wake|(919) 669-6802 (phone)|(919) 570-7808 (fax)|ed@waterworksunltd.net
Waters Landscaping & Maintenance, Inc.|C-223|Mr. James I. Waters|Waters Landscaping & Maintenance, Inc.|7004 Emerald Drive|Emerald Isle, NC 28594|County: Carteret, Onslow|(252) 354-9162 (phone)|(252) 354-9162 (fax)|waters@waterslandscaping.com
Webb Irrigation and Landscape|C-180|Mr. C. Gregg Webb|Webb Irrigation and Landscape|18724 Greyton Lane|Davidson, NC 28036|County: Mecklenburg|(704) 201-5883 (phone)|(704) 895-0510 (fax)|webbirrigation@msn.com
Webster Landscaping, Inc.|C-667|Mr. Michael Sean Webster|Webster Landscaping, Inc.|5771 Old Salisbury Concord Road|Kannapolis, NC 28083|County: Mecklenburg, Cabarrus, Rowan|(704) 939-1911 (phone)|(704)425-8436 cell (fax)|stephanie@websterlandscaping.com|websterlandscaping.com
Whispering Pines Landscaping, Inc.|C-492|Mr. Bryon Lee Webber|Whispering Pines Landscaping, Inc.|7229 Forney Hill Road|Denver, NC 28037|County: Lincoln|(704) 309-0501 (phone)|(704) 489-0651 (fax)|wlandscaping@bellsouth.net
Wilcox Bros. Lawn Sprinklers|C-182|Mr. David Stanley Wilcox|Wilcox Bros. Lawn Sprinklers|85 Minnesota Drive|Troy, MI 48083|County: Mecklenburg|(248) 588-3600 (phone)|(248) 588-3669 (fax)|davewilcox@wilcoxbros.com
Wildwood Landscape Contracting, LTD.|C-016|Mr. Floyd Powell Barnes|Wildwood Landscape Contracting, LTD.|4846 Southport-Supply Road|Southport, NC 28461|County: Brunswick|(910) 454-0023 (phone)|(910) 454-0037 (fax)|wildwoodcontract@bellsouth.net|wildwoodlandscaping.com
Williams Landscape Services, Inc.|C-049|Mr. W. Kenneth Robinson|Williams Landscape Services, Inc.|506 Old Greensboro Road|Chapel Hill, NC 27516|County: Orange, Durham, Chatham|(919) 929-0977 (phone)|(919) 932-9298 (fax)|wkrofwls@nc.rr.com
Williams Yard Service Irrigation, LLC|C-031|Mr. Ronnie Stephen Williams|Williams Yard Service Irrigation, LLC|6652 US Hwy 15-501|Carthage, NC 28327|County: Moore, Lee, Richmond|(910) 295-4470 (phone)|(910) 295-5454 (fax)|williamsyard@earthlink.net
Williamsons Irrigation & Lighting, LLC|C-155|Mr. Kyle  Molesky|Williamsons Irrigation & Lighting, LLC|125 Sink Farm Road|Mooresville, NC 28115|County: Iredell|(704) 622-6317 (phone)|(704) 895-9922 (fax)|moleskyld@aol.com
Willingham Incorporated|C-511|Mr. Jeffrey Reeves Willingham|Willingham Incorporated|510 Westchester Drive|Greenville, NC 27858|County: Burke, Pitt|(252) 521-1052 (phone)|jeffwillie1@gmail.com
Willow Tree Landscaping, Inc.|C-459|Mr. Robert Tripp Merritt|Willow Tree Landscaping, Inc.|608 Bagwell Road|Piedmont, SC 29673|County: Guilford, Buncombe, Catawba|(864) 859-2888 (phone)|(864) 859-0666 (fax)|tripp@willowtreelandscapes.com|www.willowtreelandscapes.com
Wilson Automative Sprinkler Systems, Inc.|C-668|Mr. Danny Joe Skinner|Wilson Automative Sprinkler Systems, Inc.|6326 Lamm Road|Wilson, NC 27896|County: Wilson|(252) 291-5288 (phone)|wilsprik@embarqmail.com
Wilson Irrigation, Inc.|C-687|Mr. Charles Roy Pruden|Wilson Irrigation, Inc.|5700 NC 58 North|Elm City, NC 27822|County: Wilson, Nash, Pitt|(252) 289-0599 (phone)|pruden@myginc.com
Wilson Nursery & Landscaping, Inc.|C-650|Mr. Michael Shane Wilson|Wilson Nursery & Landscaping, Inc.|P.O Box 73|Belews Creek, NC 27009|County: Forsyth|(336) 595-5099 (phone)|mwilson70@triad.rr.com
Wood Lawn & Landscaping, LLC|C-606|Mr. Gary W. Wood|Wood Lawn & Landscaping, LLC|845 Hibbs Road|Newport, NC 28570|County: Carteret|(252) 727-5301 (phone)|None (fax)|gary@woodlawnandlandscaping.com|www.woodlawnandlandscaping.com
Wrightsville Beach Landscaping Co., Inc.|C-219|Mr. Charles Michael Carter|Wrightsville Beach Landscaping Co., Inc.|P.O. Box 805|Wrightsville Beach, NC 28480|County: New Hanover, Brunswick, Pender|(910) 256-6345 (phone)|(910) 256-4330 (fax)|mike@wrightsvillelandscapes.com
Yanders Landscaping, Inc.|C-226|Mr. Todd  Yanders|Yanders Landscaping, Inc.|P.O. Box 507|Pittsboro, NC 27312|County: Wake, Orange, Chatham|(919) 387-7521 (phone)|(919) 542-2533 (fax)|yanderslandscape@aol.com|www.yanderslandscape.com
Yard-Nique, Inc.|C-571|Mr. Brian W. Dumont|Yard-Nique, Inc.|10014 Chapel Hill Rd.|Morrisville, NC 27560|County: Wake|(919) 388-9878 (phone)|(919) 388-3977 (fax)|brian@yardnique.com
Yards By Us, Inc.|C-583|Mr. Richard  Martin|Yards By Us, Inc.|2467 Armstrong Drive|Winston-Salem, NC 27103|County: Forsyth|(336) 765-4484 (phone)|(336) 760-3047 (fax)|yardsbyuslawns@aol.com
Yardworks, Inc.|C-296|Mr. James E. Farrington|Yardworks, Inc.|P.O. Box 4923|Emerald Isle, NC 28594|County: Carteret, Onslow, Craven|(252) 393-9005 (phone)|(252) 393-2130 (fax)|jimmy@yardworkslandscapes.com
Zo